sitename,lon,lat,address,city,dist
高雄市旗津復興社區站(多站),120.272907,22.605473,高雄市旗津區旗津三路900巷與復興巷口,高雄市,旗津區
中油大立鴻福加油站,118.387991,24.443806,金門縣金湖鎮瓊經路7號,金門縣,金湖鎮
中油旗津加油站,120.285037,22.59147,高雄市旗津區中洲二路259號,高雄市,旗津區
eMOVING 金城民族店站,118.315634,24.429465,金門縣金城鎮民族路253-12號,金門縣,金城鎮
全家鳳山頂庄店站(多站),120.362662,22.588122,高雄市鳳山區過勇路111號,高雄市,鳳山區
全聯旗津中洲店站,120.288963,22.58625,高雄市旗津區中洲二路179-11號,高雄市,旗津區
全聯竹北縣政店站,121.018116,24.831764,新竹縣竹北市縣政二路189號,新竹縣,竹北市
全家旗津天后店站,120.268062,22.611836,高雄市旗津區廟前路28號,高雄市,旗津區
喜互惠慈安店站(多站),121.761268,24.759138,宜蘭縣宜蘭市林森路225號,宜蘭縣,宜蘭市
全家台中上安店站,120.639909,24.17141,台中市西屯區上安路136號1樓,台中市,西屯區
仁武區公所站,120.347982,22.701384,高雄市仁武區中正路80號,高雄市,仁武區
臺鐵汐止車站(多站),121.663469,25.069713,新北市汐止區南昌街7號,新北市,汐止區
G2 commercial 測試站,121.359698,25.045013,台灣桃園市龜山區頂湖路24-1號,桃園市,龜山區
青蔦?子咖啡充電站,121.152876,22.755083,台灣台東縣台東市中正路251巷13號,台東縣,台東市
馬桶有魚民宿充電站,121.140809,22.742985,台灣台東縣台東市文山路38巷3號,台東縣,台東市
來就發彩卷行充電站,121.151806,22.752452,台灣台東縣台東市正氣路158號,台東縣,台東市
45號碼頭充電站,119.574553,23.572389,台灣澎湖縣馬公市永和街45號,澎湖縣,馬公市
松山Citylink門市,121.579231,25.049624,台灣台北市松山區市民大道六段131號3樓,台北市,松山區
土城裕民門市,121.452618,24.985498,台灣新北市土城區裕民路174-192號,新北市,土城區
新莊幸福門市,121.4466685,25.0493191,台灣新北市新莊區北66鄉道790號,新北市,新莊區
桃園中正門市,121.312888,24.991212,台灣桃園市桃園區中正路56號8樓,桃園市,桃園區
台中三民門市,120.684927,24.151306,台灣台中市北區三民路三段146號,台中市,北區
永康中華門市,120.235488,23.003016,台灣台南市永康區中華路140號,台南市,永康區
高雄中山門市,120.3012478,22.6241974,台灣高雄市新興區五福二路260號,高雄市,新興區
內湖Citylink門市,121.594264,25.084031,台灣台北市內湖區成功路四段188號11號樓之18,台北市,內湖區
豐原中正門市,120.721852,24.253551,台灣台中市豐原區中正路30號,台中市,豐原區
竹東長春服務中心,121.089395,24.736103,台灣新竹縣竹東鎮長春路一段278號,新竹縣,竹東鎮
汐止大同服務中心,121.655076,25.066591,台灣新北市汐止區大同路二段291號,新北市,汐止區
楊梅騏轟服務中心,121.174083,24.911261,台灣桃園市楊梅區中山北路二段296號,桃園市,楊梅區
中和中原服務中心,121.49109,25.007936,台灣新北市中和區中原街12號,新北市,中和區
三民鼎強服務中心,120.320886,22.665515,台灣高雄市三民區鼎強街97-1號,高雄市,三民區
信義松仁服務中心,121.568228,25.028092,台灣台北市信義區松仁路174號,台北市,信義區
北屯文心服務中心,120.694946,24.171483,台灣台中市北屯區文心路四段951-1號,台中市,北屯區
竹北成功服務中心,121.019858,24.817287,台灣新竹縣竹北市成功八路207號,新竹縣,竹北市
台南裕農服務中心,120.246207,22.990259,台灣台南市東區裕農路1016號,台南市,東區
北區小東服務中心,120.228633,22.999981,台灣台南市北區小東路245號,台南市,北區
龜山文化服務中心,121.361245,25.052988,台灣桃園市龜山區文化七路20-1號,桃園市,龜山區
內湖西湖服務中心,121.571906,25.082407,114台灣台北市內湖區內湖路一段411巷19弄17 樓3號,台北市,內湖區
中山松江服務中心,121.533016,25.067187,台灣台北市中山區松江路534號,台北市,中山區
新生市民服務中心,121.531539,25.047252,10491台灣台北市中山區長安東路二段36巷18號104 20 號興亞公園,台北市,中山區
三重光復服務中心,121.471839,25.05385,台灣新北市三重區光復路二段14號,新北市,三重區
中壢龍岡服務中心,121.224453,24.94971,台灣桃園市中壢區中北路二段46巷12弄3號,桃園市,中壢區
東區民權服務中心,120.97652,24.806505,台灣新竹市東區民權路38號,新竹市,東區
桃園永安服務中心,121.302863,24.998383,台灣桃園市桃園區中山北路231巷14弄3號,桃園市,桃園區
光華八德門市,121.53126,25.044132,台灣台北市中正區八德路一段27號,台北市,中正區
松山饒河門市,121.5751152,25.0498814,台灣台北市松山區八德路四段650號,台北市,松山區
圓山承德門市,121.51874,25.070867,台灣台北市大同區承德路三段235號,台北市,大同區
師大和平門市,121.529318,25.02712,台灣台北市大安區和平東路一段129-1號綜合大樓,台北市,大安區
板橋館前門市,121.4603758,25.0070782,台灣新北市板橋區館前東路26號7-11樓,新北市,板橋區
永和中正門市,121.5162996,24.9979853,台灣新北市永和區中正路232號,新北市,永和區
桃園八德門市,121.2975593,24.9493347,台灣桃園市八德區介壽路二段318之2號,桃園市,八德區
桃園藝文門市,121.305117,25.01434,台灣桃園市桃園區大興西路一段163號,桃園市,桃園區
中壢復興門市,121.225055,24.956334,台灣桃園市中壢區復興路71號11F、320,桃園市,中壢區
新竹北大門市,120.96219,24.805765,台灣新竹市北區集和街63巷16號,新竹市,北區
台南公園門市,120.205517,22.994531,台灣台南市中西區公園路32號,台南市,中西區
鳳山青年門市,120.350851,22.639587,台灣高雄市鳳山區青年路二段287號,高雄市,鳳山區
左營博愛門市,120.303737,22.6696,台灣高雄市左營區博愛二路664號全棟,高雄市,左營區
高雄岡山門市,120.296408,22.790233,台灣高雄市岡山區岡山路176號,高雄市,岡山區
板橋廣權交車中心,121.460497,24.990911,台灣新北市板橋區廣權路6號,新北市,板橋區
台中站前交車中心,120.686887,24.138265,台灣台中市東區新民街90號,台中市,東區
高雄中正交車中心,120.312073,22.630904,台灣高雄市新興區中正三路20號,高雄市,新興區
北桃永安交車中心,121.290919,25.007842,台灣桃園市桃園區永安路916號,桃園市,桃園區
新竹林森服務中心,120.964368,24.799004,台灣新竹市東區林森路187號,新竹市,東區
新店北新服務中心,121.540723,24.985133,台灣新北市新店?北新路三段224號B1,新北市,新店區
內湖民權服務中心,121.608623,25.07045,台灣台北市內湖區民權東路六段296巷66-3號,台北市,內湖區
新莊中正服務中心,121.461918,25.039618,台灣新北市新莊區中正路57號,新北市,新莊區
蘆洲三民服務中心,121.470737,25.087791,台灣新北市蘆洲區三民路140號,新北市,蘆洲區
土城明德服務中心,121.449554,24.982311,台灣新北市土城區學府路二段3號,新北市,土城區
桃園復興服務中心,121.318492,24.991084,台灣桃園市桃園區復興路24號,桃園市,桃園區
台中柳川服務中心,120.68143,24.155019,台灣台中市北區柳川東路四段113號,台中市,北區
豐原中山服務中心,120.713265,24.2518,台灣台中市豐原區豐西街21號,台中市,豐原區
永康中山南服務中心,120.25417,23.024788,台灣台南市永康區中山南路611號,台南市,永康區
高雄五甲服務中心,120.32691,22.592607,台灣高雄市鳳山區五甲三路64號,高雄市,鳳山區
高雄中正服務中心,120.312073,22.630904,台灣高雄市新興區中正三路20號,高雄市,新興區
三重集成服務中心,121.489388,25.052408,台灣新北市三重區集成路39號2樓,新北市,三重區
竹北中正東門市,121.015317,24.835261,台灣新竹縣竹北市中正東路176、178號,新竹縣,竹北市
彰化中山門市,120.544071,24.076766,台灣彰化縣彰化市中山路二段443號,彰化縣,彰化市
嘉義興業東門市,120.454721,23.4693,台灣嘉義市東區興業東路22號,嘉義市,東區
樹林三俊門市,121.422551,25.014216,台灣新北市樹林區三俊街288號,新北市,樹林區
屏東公園門市,120.490622,22.674148,台灣屏東縣屏東市中華路80號,屏東縣,屏東市
東區崇德門市,120.227298,22.971725,台灣台南市東區崇德路580號,台南市,東區
三民建工門市,120.328235,22.652214,台灣高雄市三民區大昌一路29巷7-2號,高雄市,三民區
小港漢民門市,120.356472,22.567312,台灣高雄市小港區漢民路365巷2號,高雄市,小港區
安平中華門市,120.186592,22.988245,台灣台南市安平區中華西路二段71號,台南市,安平區
楠梓益群門市,120.296921,22.725124,台灣高雄市楠梓區益群路68號,高雄市,楠梓區
仁武仁雄門市,120.349494,22.680051,台灣高雄市仁武區仁雄路42之30號,高雄市,仁武區
安南安和門市,120.214191,23.029323,台灣台南市安南區安和路一段158號,台南市,安南區
宜蘭中山門市,121.752543,24.754185,台灣宜蘭縣宜蘭市中山路二段518號260,宜蘭縣,宜蘭市
中和員山門市,121.481198,25.002994,台灣新北市中和區員山路316號,新北市,中和區
文山木新門市,121.560216,24.98153,台灣台北市文山區木新路三段183巷1號,台北市,文山區
三重集賢門市,121.484372,25.088425,台灣新北市三重區集賢路170號,新北市,三重區
天母忠誠門市,121.52853,25.105171,台灣台北市士林區雨農國小,台北市,士林區
台南新營門市,120.312857,23.310799,台灣台南市新營區民治路62-3號,台南市,新營區
花蓮中華門市,121.6002447,23.9753117,台灣花蓮縣花蓮市中華路266號,花蓮縣,花蓮市
屏東潮州門市,120.537443,22.549765,台灣屏東縣潮州鎮中山路175號,屏東縣,潮州鎮
新店民權門市,121.534201,24.982985,台灣新北市新店區民權路190號2樓,新北市,新店區
苓雅三多門市,120.330511,22.622389,台灣高雄市苓雅區三多一路229號,高雄市,苓雅區
太平樹德門市,120.713118,24.159809,台灣台中市太平區樹德路317號,台中市,太平區
鳳山五甲門市,120.356746,22.620792,台灣高雄市鳳山區南門(兵仔市),高雄市,鳳山區
三峽復興門市,121.373507,24.937235,台灣新北市三峽區復興路56號4樓,新北市,三峽區
南區建成門市,120.674803,24.126282,台灣台中市南區建成路1633號,台中市,南區
員林中山門市,120.568526,23.954643,台灣彰化縣員林市中山路一段578號,彰化縣,員林市
斗六明德北門市,120.5351,23.715108,台灣雲林縣斗六市明德北路二段350號,雲林縣,斗六市
鼓山青海門市,120.289013,22.651196,台灣高雄市鼓山區青海路113號,高雄市,鼓山區
三民九如二門市,120.303933,22.641354,台灣高雄市三民區九如二路312號,高雄市,三民區
中壢環中東門市,121.255206,24.962569,台灣桃園市中壢區環中東路236號,桃園市,中壢區
北區中清服務中心,120.675482,24.160952,台灣台中市北區中清路一段342號,台中市,北區
北屯中清門市,120.665911,24.183112,台灣台中市北屯區中清路二段616號,台中市,北屯區
草屯太平門市,120.6832,23.971204,台灣南投縣草屯鎮太平路二段84號,南投縣,草屯鎮
泰山明志門市,121.425087,25.042055,台灣新北市泰山區貴子路2號,新北市,泰山區
東港光復門市,120.45853,22.470206,台灣屏東縣東港鎮光復路一段162號,屏東縣,東港鎮
朴子山通門市,120.241738,23.464199,台灣嘉義縣朴子市山通路202號,嘉義縣,朴子市
善化大成門市,120.298407,23.129779,台灣台南市善化區大成路291號,台南市,善化區
羅東中正門市,121.771718,24.677084,台灣宜蘭縣羅東鎮中正路177號,宜蘭縣,羅東鎮
基隆義一門市,121.74671,25.134767,台灣基隆市中正區義一路87號7號樓之2,基隆市,中正區
淡水鼻頭門市,121.447322,25.167226,台灣新北市淡水區鼻頭街1號4樓,新北市,淡水區
馬公同和門市,119.571722,23.567429,880台灣澎湖縣馬公市同和路158號3 樓,澎湖縣,馬公市
新豐學府門市,120.998183,24.873304,台灣新竹縣新豐鄉學府路59號,新竹縣,新豐鄉
台東新生門市,121.144926,22.755202,台灣台東縣台東市新生路191-2號,台東縣,台東市
東勢豐勢服務中心,120.829743,24.252821,台灣台中市東勢區豐勢路263號,台中市,東勢區
虎尾光復門市,120.433844,23.711222,台灣雲林縣虎尾鎮光復路482號,雲林縣,虎尾鎮
桃園三民服務中心,121.307652,24.983596,台灣桃園市桃園區三民路三段579號,桃園市,桃園區
平鎮中豐服務中心,121.216753,24.943087,台灣桃園市平鎮區中豐路307號,桃園市,平鎮區
屏東和平服務中心,120.477539,22.679892,台灣屏東縣屏東市和平路459號,屏東縣,屏東市
南屯五權西門市,120.646154,24.139977,台灣台中市南屯區五權西路二段361號,台中市,南屯區
板橋民生門市,121.466962,25.026004,台灣新北市板橋區民生路三段70號,新北市,板橋區
新竹東勝門市,120.987642,24.803613,台灣新竹市東區東勝路45號,新竹市,東區
鹿港民族門市,120.436264,24.055613,台灣彰化縣鹿港鎮民族路83號,彰化縣,鹿港鎮
士林承德服務中心,121.517426,25.090281,111台灣台北市士林區承德路四段342 樓5號,台北市,士林區
板橋南雅西服務中心,121.451667,25.014744,台灣新北市板橋區南雅西路二段253-1號,新北市,板橋區
沙鹿中山門市,120.561145,24.241718,台灣台中市沙鹿區中山路376號,台中市,沙鹿區
台南文賢服務中心,120.193706,23.005999,台灣台南市北區文賢路476號,台南市,北區
新莊民安門市,121.424899,25.023792,台灣新北市新莊區民安路180巷2號,新北市,新莊區
西屯甘肅服務中心,120.655929,24.171466,台灣台中市西屯區甘肅路二段48號,台中市,西屯區
南屯大墩十四服務中心,120.645495,24.152577,台灣台中市南屯區大墩十四街350號,台中市,南屯區
佳里義民門市,120.175422,23.16147,台灣台南市佳里區義民街240號,台南市,佳里區
大雅學府門市,120.650143,24.220179,台灣台中市大雅區學府路143號,台中市,大雅區
歸仁中山門市,120.28044,22.968195,台灣台南市歸仁區中山路三段313號,台南市,歸仁區
頭份自強門市,120.905386,24.686911,台灣苗栗縣頭份市自強路112巷23號,苗栗縣,頭份市
新竹關新服務中心,121.020019,24.787948,台灣新竹市東區關新路225號三樓號,新竹市,東區
龍潭中正門市,121.21806,24.861686,台灣桃園市龍潭區中正路311之3號,桃園市,龍潭區
鳳山中山西服務中心,120.345273,22.628282,台灣高雄市鳳山區中山西路260號,高雄市,鳳山區
左營自由四服務中心,120.317877,22.686938,台灣高雄市左營區自由四路453號二樓號,高雄市,左營區
新莊仁愛服務中心,121.444362,25.036612,台灣新北市新莊區仁愛街38號,新北市,新莊區
桃園文中服務中心,121.27722,24.993455,台灣桃園市桃園區文中路661號,桃園市,桃園區
台中中港門市,120.619412,24.180804,407台灣台中市西屯區台灣大道四段771號10 F,台中市,西屯區
大寮鳳林三門市,120.396296,22.603896,台灣高雄市大寮區鳳林三路418號,高雄市,大寮區
西屯福星北服務中心,120.644497,24.183862,台灣台中市西屯區福星北二街70號,台中市,西屯區
北投文林北服務中心,121.51404,25.108484,台灣台北市北投區文林北路228號,台北市,北投區
蘆竹南崁服務中心,121.289097,25.051326,台灣桃園市蘆竹區南崁路一段58號,桃園市,蘆竹區
板橋萬板服務中心,121.47039,25.020988,台灣新北市板橋區莊敬公園,新北市,板橋區
永康永大服務中心,120.261371,23.006379,台灣台南市永康區永大路二段169號,台南市,永康區
新莊中華服務中心,121.452239,25.052684,台灣新北市新莊區中華路二段203號,新北市,新莊區
台中公益門市,120.66059,24.15066,台灣台中市西區公益路199號,台中市,西區
大安潮州服務中心,121.524982,25.028981,台灣台北市大安?潮州街94號2樓,台北市,大安區
永和成功服務中心,121.526395,24.997133,台灣新北市永和區成功路二段142號,新北市,永和區
三重福德北門市,121.502162,25.064426,台灣新北市三重區福德北路12號3樓,新北市,三重區
大里中興門市,120.68834,24.10267,台灣台中市大里區下內新,台中市,大里區
屏東民族門市,120.485306,22.670597,台灣屏東縣屏東市民族路112號,屏東縣,屏東市
啄木鳥藥局屏東店站(多站),120.498383,22.66709,台灣屏東縣屏東市民生路27號,屏東縣,屏東市
7-ELEVEN 仁伯店站,120.255538,22.948681,台灣台南市仁德區德安路188號,台南市,仁德區
中油台糖三股加油站,120.131288,23.102831,台灣台南市七股區永吉里,台南市,七股區
全聯台中文心店站,120.656686,24.166376,台灣台中市西屯區重慶路140號,台中市,西屯區
臺中市龍泉市場站(多站),120.54729,24.19306,台灣台中市龍井區竹師路二段13號,台中市,龍井區
全家新竹濱海店站,120.922549,24.813135,台灣新竹市香山?海埔路171巷99弄11號,新竹市,香山區
全家桃園愛國店站(多站),121.316731,24.985957,台灣桃園市桃園區建國路40號,桃園市,桃園區
新北市鴨母港平面停車場站(多站),121.4558,25.082565,台灣新北市五股區中興路二段182巷50號,新北市,五股區
全聯楠梓興楠店站(多站),120.333045,22.730116,台灣高雄市楠梓區興楠路,高雄市,楠梓區
台南市北區文賢路365巷停車場站(多站),120.193204,23.007961,台灣台南市北區文賢路365巷11號,台南市,北區
中油順天加油站,120.61745,24.342072,台灣台中市大甲區經國路99號,台中市,大甲區
臺南萬昌街停車場站(多站),120.210436,22.991158,台灣台南市中西區青年路196巷13號,台南市,中西區
中油興榮加油站,121.264524,24.902853,台灣桃園市大溪區30-16,桃園市,大溪區
中油長治加油站,120.538653,22.692277,台灣屏東縣長治鄉中興路549號,屏東縣,長治鄉
中油富里加油站,121.252477,23.182963,台灣花蓮縣富里鄉中興路87號,花蓮縣,富里鄉
全聯台中健行店站,120.679821,24.159041,台灣台中市北區健行路447號,台中市,北區
臺中市惠順停車場站(多站),120.63918,24.164683,台灣台中市西屯區河南路三段13號,台中市,西屯區
中油台糖潭頂加油站,120.318032,23.076168,台灣台南市新市區538-5號,台南市,區
全家新店城泰店站,121.485745,24.951457,台灣新北市新店區安康路三段311號,新北市,新店區
HiLife 中壢壢榮店站(多站),121.26022,24.958801,台灣桃園市中壢區永福路603號,桃園市,中壢區
台竣實業站,120.595144,24.170264,台灣台中市西屯區工業區三十三路1號,台中市,西屯區
全聯龍潭北龍店站(多站),121.211193,24.865344,台灣桃園市龍潭區北龍路19號,桃園市,龍潭區
南港國小地下停車場B1F站,121.61128,25.05649,台灣台北市南港區興東街59號,台北市,南港區
中油力行加油站(多站),121.29629,24.99868,台灣桃園市桃園區力行路368號,桃園市,桃園區
中華電信平鎮服務中心站(多站),121.219087,24.940893,台灣桃園市平鎮區中華電信,桃園市,平鎮區
中油林森路加油站(多站),120.443741,23.480679,台灣嘉義市西區林森西路281號,嘉義市,西區
7-ELEVEN 興安店站(多站),120.558467,24.233191,台灣台中市沙鹿區沙田路59號,台中市,沙鹿區
全聯台南培安店站(多站),120.213613,23.036345,台灣台南市安南區安和路一段461號,台南市,安南區
鳳山福利站(多站),120.373554,22.627485,台灣高雄市鳳山區勝利路11號,高雄市,鳳山區
7-ELEVEN 正旺店站,120.182416,22.933316,702台灣台南市南區台南市 南區萬年路406巷302號,台南市,南區
中油台糖仁新加油站,120.359301,22.703641,台灣高雄市仁武區水管路三段276號,高雄市,仁武區
全家林園鑫園店站,120.394762,22.512092,台灣高雄市林園區林園北路437號,高雄市,林園區
中油六合加油站,121.255071,24.911002,台灣桃園市大溪區仁和路二段550號,桃園市,大溪區
全聯台中惠文店站(多站),120.643215,24.143713,台灣台中市南屯區惠文路338號,台中市,南屯區
基隆市中正區公所站(多站),121.759345,25.140654,台灣基隆市中正區正豐街35號,基隆市,中正區
臺中市黎明里活動中心站,120.629619,24.155406,台灣台中市南屯區干城街150號,台中市,南屯區
全聯三重力行店站,121.484895,25.068766,台灣新北市三重區力行路一段54號,新北市,三重區
全聯高雄鼓山店站(多站),120.28431,22.665183,台灣高雄市鼓山區銘傳路61號,高雄市,鼓山區
八百屋八德店站,120.311692,22.63541,台灣高雄市新興區八德一路55號,高雄市,新興區
新北市民生立體停車場站(多站),121.461877,25.138196,台灣新北市淡水區民生路39號,新北市,淡水區
Gogoro 嘉義興業東門市站,120.454614,23.469319,台灣嘉義市東區吳鳳南路137號,嘉義市,東區
東吳大學城區部站,121.50923,25.037828,100台灣台北市中正區貴陽街一段56號第一大樓 (崇基樓),台北市,中正區
中油崁頂加油站(多站),120.520916,22.521373,台灣屏東縣崁頂鄉中正路251號,屏東縣,崁頂鄉
中油長成加油站,120.955369,24.642766,台灣苗栗縣南庄鄉68-3,苗栗縣,南庄鄉
全聯平鎮和平店站,121.219773,24.946233,台灣桃園市平鎮區平鎮區公所(和平路),桃園市,平鎮區
台糖大埔美加油站,120.506769,23.60229,台灣嘉義縣大林鎮507,嘉義縣,大林鎮
家樂福樹林店站,121.421508,24.997036,台灣新北市樹林區大安路118號,新北市,樹林區
eReady 大安建國店站,121.53817,25.031119,台灣台北市大安區建國南路二段73號,台北市,大安區
新北市秀山公園站(多站),121.523578,24.995838,台灣新北市中和區自立路15巷12號秀山公園,新北市,中和區
中油萬巒加油站,120.564178,22.57022,台灣屏東縣萬巒鄉中正路5-3號,屏東縣,萬巒鄉
管仲停車場站(多站),120.31391,22.60451,台灣高雄市前鎮區管仲南路360號對面號,高雄市,前鎮區
吉盛汽車有限公司站,121.552992,25.072548,台灣台北市松山區濱江街375號,台北市,松山區
全家秀水好水店站,120.49815,24.032114,台灣彰化縣秀水鄉彰水路二段628號,彰化縣,秀水鄉
臺中市光大停車場站(多站),120.675822,24.148704,台灣台中市北區篤行路124-10號,台中市,北區
臺南福利站(多站),120.209048,22.998775,台灣台南市北區成功路22巷3號,台南市,北區
臺北市金山公園站(多站),121.525267,25.032032,台灣台北市大安區愛國東路35號,台北市,大安區
捷運前鎮高中站旁平面停車場站,120.321877,22.587889,台灣高雄市前鎮區翠亨北路225號,高雄市,前鎮區
中油豐榮加油站,121.143023,22.739481,台灣台東縣台東市花東海岸公路912號,台東縣,台東市
全家新莊新市店站,121.46253,25.059909,台灣新北市新莊區化成路431巷76號,新北市,新莊區
全聯苑裡世界店站,120.657171,24.439443,台灣苗栗縣苑裡鎮世界路一段91之13號,苗栗縣,苑裡鎮
星巴克本館店站(多站),120.341469,22.650569,台灣高雄市鳥松區本館路211號,高雄市,鳥松區
中油宜蘭豐富加油站(多站),121.767686,24.811315,台灣宜蘭縣礁溪鄉礁溪路三段266號,宜蘭縣,礁溪鄉
中油智弘加油站,120.689955,24.131734,台灣台中市東區中潭公路670號,台中市,東區
全聯雲林斗六店站(多站),120.550589,23.703846,台灣雲林縣斗六市莊敬路43號,雲林縣,斗六市
HiLife 竹北水岸店站(多站),121.030052,24.804314,台灣新竹縣竹北市嘉豐南路二段220號,新竹縣,竹北市
台北捷運輔大站(4號出口)A,121.436453,25.033049,台灣新北市新莊區107縣道488號,新北市,新莊區
岡山福利站(多站),120.28909,22.790308,台灣高雄市岡山區柳橋西路1之1號,高雄市,岡山區
家樂福斗六店站,120.530646,23.702237,台灣雲林縣斗六市雲林路二段297號,雲林縣,斗六市
寰縈車業店站,120.705525,24.130532,台灣台中市東區振興路437巷4號,台中市,東區
全鋒大崙加油站,121.16973,24.9928,台灣桃園市中壢區112縣道765號,桃園市,中壢區
應安168 桃園場停車場站(多站),121.315583,24.988469,台灣桃園市桃園區吉林路5號,桃園市,桃園區
新北市大漢停車場站,121.467472,25.024454,台灣新北市板橋區106甲縣道18號,新北市,板橋區
中油沅成加油站,120.554093,22.56125,台灣屏東縣潮州鎮潮州路1211號,屏東縣,潮州鎮
中油通丞加油站,120.639661,23.833021,台灣南投縣名間鄉名松路二段35號,南投縣,名間鄉
7-ELEVEN 新忠貞店站(多站),120.614401,24.242155,台灣台中市沙鹿區東海路5-3號,台中市,沙鹿區
臺灣大道市政大樓附屬平面停車場站(惠中路側)A,120.645066,24.161998,台灣台中市西屯區台中市西屯區,台中市,西屯區
全家中壢龍興店站,121.23013,24.942167,台灣桃園市中壢區112縣道315號,桃園市,中壢區
中油美林加油站,120.495128,22.882504,台灣高雄市旗山區延平二路114號,高雄市,旗山區
全家大里新光店站(多站),120.691908,24.109505,台灣台中市大里區新光路93號,台中市,大里區
台塑中泰加油站,121.436322,25.057274,台灣新北市泰山區泰林路二段36-5號,新北市,泰山區
可樂車業店站,120.689638,24.114468,台灣台中市大里區中興路二段597號,台中市,大里區
新竹竹蓮市場站(多站),120.971723,24.797328,台灣新竹市東區竹蓮街17號,新竹市,東區
臺中市長青學苑站(多站),120.699756,24.061536,台灣台中市霧峰區大同路31號,台中市,霧峰區
中油北投加油站,121.502393,25.119563,台灣台北市北投區承德路七段384號,台北市,北投區
中油頭份工業區加油站,120.895369,24.676638,台灣苗栗縣頭份市中華路519號,苗栗縣,頭份市
台塑明月潭加油站,120.380138,22.589401,台灣高雄市大寮區內坑路158之6號,高雄市,大寮區
HiLife 竹北北鮮店站,121.009722,24.834422,台灣新竹縣竹北市三民路314號,新竹縣,竹北市
中油文中北加油站,121.270507,24.991632,台灣桃園市蘆竹區文中路一段99號,桃園市,蘆竹區
中油連城加油站(多站),121.47334,24.990694,台灣新北市土城區金城路三段281號,新北市,土城區
愛買三重店站(多站),121.475951,25.071251,台灣新北市三重區中正北路193巷45號,新北市,三重區
新北市光華段機車場站(多站),121.451706,25.011701,台灣新北市板橋區南雅西路二段145巷4號,新北市,板橋區
7-ELEVEN 寶斗店站,120.527916,23.878494,台灣彰化縣北斗鎮復興路281號,彰化縣,北斗鎮
中油佳昌加油站,120.352475,23.338674,台灣台南市後壁區頂寮54之30號,台南市,後壁區
Gogoro 新莊中華服務中心站,121.452218,25.052653,台灣新北市新莊區中華路二段201號,新北市,新莊區
家樂福成功店站(多站),120.30462,22.60549,台灣高雄市前鎮區中華五路1111號,高雄市,前鎮區
Gogoro 高雄大昌門市站(多站),120.331798,22.650102,台灣高雄市三民區大昌二路428號,高雄市,三民區
中油桃園中正加油站,121.294021,25.026758,台灣桃園市桃園區中正路1560號,桃園市,桃園區
Gogoro 板橋萬板服務中心站,121.470388,25.020968,台灣新北市板橋區莊敬公園,新北市,板橋區
富山苗栗中山路停車場站(多站),120.82156,24.560594,台灣苗栗縣苗栗市中山路413號,苗栗縣,苗栗市
全聯埔心東明店站,120.562527,23.954691,台灣彰化縣埔心鄉員林大道七段137號,彰化縣,埔心鄉
新北市臺電公司北部展示館站,121.660089,25.206942,台灣新北市萬里區台電北展館,新北市,萬里區
中油高雄林森二路加油站,120.306076,22.623418,台灣高雄市新興區忠孝一路69巷5號,高雄市,新興區
臺中市文修停車場站(多站),120.642253,24.185249,台灣台中市西屯區台中市西屯區,台中市,西屯區
7-ELEVEN 鼎東店站(多站),120.467012,22.481113,台灣屏東縣東港鎮中正路二段507巷27弄7號,屏東縣,東港鎮
全聯彰化溪州店站,120.493496,23.849427,台灣彰化縣溪州鄉俊仁路34號,彰化縣,溪州鄉
全家水上柳子林店站,120.411364,23.430368,台灣嘉義縣水上鄉1500,嘉義縣,水上鄉
中油澳底加油站,121.929041,25.060826,台灣新北市貢寮區美艷山街6之2號,新北市,貢寮區
家樂福內壢店站,121.253567,24.971897,台灣桃園市中壢區中華路一段450號,桃園市,中壢區
臺中市大雅區公所站(多站),120.648217,24.229194,台灣台中市大雅區雅環路二段299號,台中市,大雅區
全聯新莊建中店站,121.448167,25.03728,台灣新北市新莊區建中街60號,新北市,新莊區
新北市重新橋下機車停車場站,121.485676,25.053659,台灣新北市三重區重新路四段246號,新北市,三重區
全聯彰化鹿港店站(多站),120.438271,24.054909,台灣彰化縣鹿港鎮復興路212號,彰化縣,鹿港鎮
臺中市潮洋臨時停車場站(多站),120.644268,24.178646,台灣台中市西屯區逢甲大學(逢甲路),台中市,西屯區
普客泰順街第二停車場站(多站),121.531392,25.025003,106台灣台北市大安區泰順街34 樓2號,台北市,大安區
中油千越東港加油站,120.463994,22.471846,台灣屏東縣東港鎮沿海路128號,屏東縣,東港鎮
全家永康永明店站,120.262786,23.024407,台灣台南市永康區永明街262號,台南市,永康區
HiLife 三重重賓店站,121.47053,25.072233,台灣新北市三重區中正北路411巷274號,新北市,三重區
7-ELEVEN 新莊伯店站,121.300245,25.02529,台灣桃園市桃園區莊敬路一段175號,桃園市,桃園區
新北市環河公園站(多站),121.451002,25.016546,台灣新北市板橋區南雅西路二段301巷41弄環河公園,新北市,板橋區
全聯土庫馬光店站(多站),120.357113,23.704149,台灣雲林縣土庫鎮和平街19號,雲林縣,土庫鎮
中油新庄子加油站,120.983347,24.906904,台灣新竹縣新豐鄉新庄路429號,新竹縣,新豐鄉
中油日日春加油站,120.493765,22.768441,台灣屏東縣里港鄉中山南路8號,屏東縣,里港鄉
新北市介壽公園站(多站),121.463229,25.008661,台灣新北市板橋區實踐路1號,新北市,板橋區
全聯屏東里港店站,120.498303,22.777675,台灣屏東縣里港鄉鐵店路21-9號,屏東縣,里港鄉
中油小琉球加油站(多站),120.371936,22.332262,台灣屏東縣琉球鄉和平路3巷33-7號,屏東縣,琉球鄉
臺中市東區六順多功能活動中心站(多站),120.699655,24.125055,台灣台中市東區六順路32號,台中市,東區
全家研究院店站(多站),121.614998,25.045759,115台灣台北市南港區研究院路二段70巷1 樓2號,台北市,南港區
7-ELEVEN 翔發店站(多站),120.486828,22.589078,台灣屏東縣萬丹鄉西環路637號,屏東縣,萬丹鄉
中油台林加油站,120.456682,23.501014,台灣嘉義市東區台林街393號,嘉義市,東區
高雄科學園區管理局站,120.256077,22.830728,台灣高雄市路竹區路科五路15號,高雄市,路竹區
台亞林口中山加油站,121.37737,25.083753,台灣新北市林口區文化三路二段300號,新北市,林口區
Gogoro 台東新生門市站(多站),121.144802,22.75514,台灣台東縣台東市新生路191號,台東縣,台東市
聖約翰科技大學站,121.451553,25.225988,台灣新北市淡水區淡金路四段499號,新北市,淡水區
新北市永和上林里站(多站),121.52074,25.015314,台灣新北市永和區環河東路一段126號,新北市,永和區
Gogoro 員林中山門市站,120.568389,23.954694,台灣彰化縣員林市中山路一段574號,彰化縣,員林市
中油萬丹加油站(多站),120.488713,22.593169,台灣屏東縣萬丹鄉萬丹路一段399號,屏東縣,萬丹鄉
全家羅東北城店站(多站),121.7599,24.677933,台灣宜蘭縣羅東鎮四育路71號,宜蘭縣,羅東鎮
中油虎尾加油站,120.446436,23.709054,台灣雲林縣虎尾鎮光復路133號,雲林縣,虎尾鎮
中油建龍加油站,121.212964,24.888983,台灣桃園市龍潭區中豐路716號,桃園市,龍潭區
中油領航加油站,120.743497,22.024124,台灣屏東縣恆春鎮屏東縣恆春鎮,屏東縣,恆春鎮
臺鐵太原車站(多站),120.699736,24.162687,台灣台中市北屯區東光路550-3號,台中市,北屯區
國立臺灣科技大學站(多站),121.541613,25.011814,106台灣台北市大安區基隆路四段41巷68弄10 樓3號,台北市,大安區
PGO 台南南紡店站,120.233988,22.991101,台灣台南市東區中華東路一段159號,台南市,東區
鼎盛十里關新店站(多站),121.01959,24.784924,新竹市東區關新東路199號 Hsinchu 300-82,新竹市,東區
中油興盛加油站,121.312046,22.987749,台灣台東縣成功鎮泰源隧道68號之3號,台東縣,成功鎮
中油台糖吉峰加油站,120.716473,24.076835,台灣台中市霧峰區民生路304巷3號,台中市,霧峰區
中油甲南加油站,120.599872,24.309148,台灣台中市清水區中華北路6號,台中市,清水區
中油運河南路加油站,120.295263,22.635276,台灣高雄市前金區河南二路96-1號,高雄市,前金區
富山東區高翠路停車場站(多站),120.985239,24.778687,台灣新竹市東區高翠路292巷口號,新竹市,東區
金弘笙新竹竹北店站(多站),121.020501,24.817665,台灣新竹縣竹北市成功七街69號,新竹縣,竹北市
德藝緻台南中西店站(多站),120.187077,23.003429,台灣台南市中西區中華西路二段596-2號,台南市,中西區
鳳山區公所站,120.362398,22.627212,台灣高雄市鳳山區台25線34號,高雄市,鳳山區
中油桂林加油站,120.358425,22.584544,台灣高雄市小港區孔鳳路579號,高雄市,小港區
中油仕博加油站,121.223354,25.047212,台灣桃園市大園區中正東路一段287號,桃園市,大園區
7-ELEVEN 航福店站,121.293055,25.040261,台灣桃園市蘆竹區南福街95號,桃園市,蘆竹區
7-ELEVEN 家和店站,120.576403,23.941078,台灣彰化縣員林市員集路二段216號,彰化縣,員林市
Gogoro 豐原中山服務中心站,120.715361,24.251841,台灣台中市豐原區源豐路15號,台中市,豐原區
全家鳥松仁美店站,120.392104,22.65822,台灣高雄市鳥松區學堂路91之1號,高雄市,鳥松區
台糖中興二加油站,121.119017,22.727476,台灣台東縣台東市臨海路三段431號,台東縣,台東市
台灣高鐵嘉義站,120.322607,23.458117,台灣嘉義縣太保市高鐵西路168號,嘉義縣,太保市
7-ELEVEN 新南王店站,121.113928,22.786586,台灣台東縣台東市更生北路675號,台東縣,台東市
宏佳騰台北基隆路店站,121.566549,25.044257,台灣台北市信義區松山高中(基隆路),台北市,信義區
臺中市中興嶺停車場站(多站),120.796299,24.204254,台灣台中市新社區中93鄉道32號,台中市,新社區
HiLife 中縣大甲店站,120.616821,24.349215,台灣台中市大甲區大安港路11巷1號,台中市,大甲區
中油八德加油站,121.271374,24.933044,台灣桃園市八德區長興路544號,桃園市,八德區
全聯鹽埕七賢三店站(多站),120.279752,22.621341,台灣高雄市鹽埕區七賢三路4號,高雄市,鹽埕區
清豐停車場站(多站),120.32729,22.737588,811台灣高雄市楠梓區土庫二路與清豐三路口,高雄市,楠梓區
中油育平加油站,120.166575,22.98691,台灣台南市安平區育平路76號,台南市,安平區
中油中華加油站,120.54614,24.22821,台灣台中市梧棲區台中市梧棲區,台中市,梧棲區
全家台南建平店站,120.181119,22.982904,台灣台南市安平區健康路三段12號,台南市,安平區
HiLife 北縣樹俊店站,121.421536,25.014745,台灣新北市樹林區三俊街256號,新北市,樹林區
中油土牛加油站,120.815766,24.260316,台灣台中市石岡區豐勢路29號,台中市,石岡區
台南市東區德祥街停車場站(多站),120.237151,22.96737,台灣台南市東區城東街86號,台南市,東區
全聯觀音中山店站,121.140719,25.010102,台灣桃園市觀音區中山路二段899號,桃園市,觀音區
中油民生東路加油站,121.563762,25.059514,台灣台北市松山區三民路126號,台北市,松山區
蒲園商旅站,121.563424,25.048598,105台灣台北市松山區八德路四段176 樓6 之1號,台北市,松山區
全家新城民益店站,121.613985,24.007066,台灣花蓮縣新城鄉嘉新路45號,花蓮縣,新城鄉
UNIQLO 蘆洲長榮路店站(多站),121.459562,25.085902,台灣新北市蘆洲區長榮路253號,新北市,蘆洲區
臺中市頂寮社區活動中心站(多站),120.53604,24.264781,台灣台中市梧棲區八德東路100號,台中市,梧棲區
全家大里永勝店站(多站),120.675974,24.114709,台灣台中市大里區大明路469號,台中市,大里區
全聯台南崇明店站,120.2228,22.974818,台灣台南市東區崇明路383號,台南市,東區
北基中央路加油站,121.601585,24.003982,台灣花蓮縣花蓮市中央路四段556號,花蓮縣,花蓮市
全家台南東文店站,120.233251,22.978021,台灣台南市東區701,台南市,東區
啟聰學校地下停車場B1F站,121.511762,25.074298,台灣台北市大同區延平北路四段205號,台北市,大同區
中油關原加油站(多站),121.342121,24.184796,台灣花蓮縣秀林鄉15,花蓮縣,秀林鄉
臺北市信義廣場站(多站),121.566039,25.033905,台灣台北市信義區松廉路1號,台北市,信義區
全家大里大金店站(多站),120.690631,24.090151,台灣台中市大里區垂統街6號,台中市,大里區
中油竹苗加油站,120.92155,24.71523,台灣苗栗縣竹南鎮中華路378號,苗栗縣,竹南鎮
HiLife 仁武澄湖店站,120.349522,22.687663,台灣高雄市仁武區八德東路585號,高雄市,仁武區
大潤發台東店站,121.106042,22.772639,台灣台東縣台東市中興路三段592號,台東縣,台東市
大潤發鳳山店站,120.355346,22.633626,台灣高雄市鳳山區大潤發,高雄市,鳳山區
7-ELEVEN 名言店站,120.349173,22.524527,台灣高雄市小港區鳳華路3號,高雄市,小港區
Gogoro 台南裕農服務中心站,120.246176,22.990364,台灣台南市東區裕農路969號,台南市,東區
新北市三重區公所站(多站),121.48878,25.061236,台灣新北市三重區新北大道一段20號,新北市,三重區
台東好站(多站),121.146998,22.753797,台灣台東縣台東市新生路176號,台東縣,台東市
新竹市科學園路停車場站(多站),121.009675,24.786707,台灣新竹市東區科學園路8號,新竹市,東區
814生鮮超市屏東麟洛店站(多站),120.525491,22.649071,台灣屏東縣麟洛鄉屏39鄉道77號,屏東縣,麟洛鄉
Gogoro 三重福德北門市店站(多站),121.502322,25.064445,台灣新北市三重區福德北路8號,新北市,三重區
新北市洲子洋公園站(多站),121.448888,25.095696,台灣新北市五股區成洲一路21號,新北市,五股區
龍都新城社區站,121.787516,25.13556,台灣基隆市中正區新豐街303巷5號,基隆市,中正區
中油朴子山通路加油站,120.25506,23.465617,台灣嘉義縣朴子市山通路2-8號,嘉義縣,朴子市
中油高雄四維三路加油站,120.311845,22.619276,台灣高雄市苓雅區四維三路15號十七樓號,高雄市,苓雅區
宏佳騰台中豐原店站,120.7123,24.262211,台灣台中市豐原區豐原大道七段406號,台中市,豐原區
東河鄉農會信用部本會站,121.22894,22.87505,台灣台東縣東河鄉203,台東縣,東河鄉
新北市學成公園地下停車場B1F站,121.451304,24.988084,台灣新北市土城區學成路81號,新北市,土城區
彰化員林轉運站(多站),120.568725,23.962583,台灣彰化縣員林市新生路267號,彰化縣,員林市
Gogoro 東港光復門市站,120.458441,22.470274,台灣屏東縣東港鎮光復路一段90號,屏東縣,東港鎮
家樂福苗栗店站(多站),120.81793,24.57422,台灣苗栗縣苗栗市國華路599號,苗栗縣,苗栗市
全家善化和平店站(多站),120.298095,23.132263,台灣台南市善化區中山路231號,台南市,善化區
HiLife 台中永太店站,120.682503,24.164963,台灣台中市北區太原路二段240號,台中市,北區
中油台糖七星加油站,120.723892,24.29796,台灣台中市后里區台13線106號,台中市,后里區
中油大福加油站,121.814953,24.789906,台灣宜蘭縣壯圍鄉北部濱海公路18號,宜蘭縣,壯圍鄉
中油台糖忠勇加油站,120.611815,24.135804,台灣台中市南屯區忠勇路16之5號,台中市,南屯區
IKEA 內湖店站(多站),121.578313,25.059899,台灣台北市內湖區新湖舊宗路口,台北市,內湖區
福懋林邊加油站,120.508255,22.44283,台灣屏東縣林邊鄉中山路530號,屏東縣,林邊鄉
中油新崎加油站,121.040601,24.890923,台灣新竹縣湖口鄉中山路一段391號,新竹縣,湖口鄉
中油美得玉豐加油站,121.323766,23.357894,台灣花蓮縣玉里鎮純柑路12-29號,花蓮縣,玉里鎮
全家台中睿景店站(多站),120.711821,24.16482,台灣台中市北屯區太原路三段849號,台中市,北屯區
7-ELEVEN 超全店站(多站),120.342402,22.610313,台灣高雄市鳳山區新泰街51號,高雄市,鳳山區
新北市水碓立體停車場站(多站),121.443905,25.178356,台灣新北市淡水區中山北路一段189號,新北市,淡水區
麻豆區農會站,120.241092,23.186424,台灣台南市麻豆區新生北路84號,台南市,麻豆區
YAMAHA 南投西安店站,120.969434,23.968545,台灣南投縣埔里鎮西安路一段186號,南投縣,埔里鎮
全家高雄心衙店站,120.315877,22.58169,台灣高雄市前鎮區新衙路351號,高雄市,前鎮區
中油高鳳加油站,120.342597,22.628114,台灣高雄市苓雅區建國一路3-1號,高雄市,苓雅區
全家內埔埔勝店站,120.562725,22.619384,台灣屏東縣內埔鄉南寧路164-1號,屏東縣,內埔鄉
中油十興加油站,121.032684,24.816675,台灣新竹縣竹北市東興路一段290號,新竹縣,竹北市
故宮廣場停車場站(多站),121.547971,25.098664,台灣台北市士林區台北市士林區,台北市,士林區
臺北市大同區承德路三段站(多站),121.518626,25.071018,台灣台北市大同區承德路三段237號3號,台北市,大同區
中油西拉雅加油站,120.294915,23.105859,台灣台南市新市區復興路850號,台南市,區
7-ELEVEN 新東專店站,120.249708,22.880454,台灣高雄市湖內區中山路一段229號,高雄市,湖內區
YAMAHA 三重重安店站,121.493033,25.055845,台灣新北市三重區重安街102號,新北市,三重區
中油小港加油站,120.343796,22.567978,台灣高雄市小港區大業北路45號,高雄市,小港區
合作金庫銀行總行站(多站),121.546029,25.049025,"台灣台北市松山區八德路二段437巷6弄,8弄15號",台北市,松山區
台北捷運奇岩站(多站),121.500708,25.126889,台灣台北市北投區三合街二段489號,台北市,北投區
新莊頭前運動公園站,121.463632,25.051628,台灣新北市新莊區化成路211巷11號,新北市,新莊區
新北市大豐公園附設停車場站(多站),121.535331,24.978878,台灣新北市新店區二十張路142號,新北市,新店區
Gogoro 桃園永安服務中心站,121.30274,24.998611,台灣桃園市桃園區永安路253號,桃園市,桃園區
中油永安加油站(多站),120.242096,22.814379,台灣高雄市永安區保安路47之2號,高雄市,永安區
特力屋屏東店站(多站),120.510095,22.660723,台灣屏東縣屏東市民生路3號,屏東縣,屏東市
屏東里港郵局站,120.49425,22.772574,台灣屏東縣里港鄉中山南路40號,屏東縣,里港鄉
中油明星加油站,120.58369,23.99253,台灣彰化縣大村鄉山腳路93號,彰化縣,大村鄉
桃園市雙嶺停車場站,121.162922,24.960966,台灣桃園市中壢區民族路六段198號1F,桃園市,中壢區
中油永康正大加油站,120.225702,23.030388,台灣台南市永康區中正南路292號,台南市,永康區
中華電信大園服務中心站(多站),121.194035,25.064099,台灣桃園市大園區文中街46號四樓號,桃園市,大園區
中油日祥加油站,120.258316,23.74155,台灣雲林縣麥寮鄉西濱路二段453號,雲林縣,麥寮鄉
家樂福文心店站(多站),120.646405,24.153916,台灣台中市南屯區文心路一段521號B1,台中市,南屯區
台糖萬興加油站,120.417559,23.954844,台灣彰化縣二林鎮二溪路六段539號,彰化縣,二林鎮
全家新竹遠百店站,120.963895,24.801708,台灣新竹市北區西門街103號,新竹市,北區
八百屋屏東店站(多站),120.483905,22.687549,台灣屏東縣屏東市廣東路1096號,屏東縣,屏東市
中油恩光中清交流道加油站,120.656877,24.20094,台灣台中市西屯區環中路一段2490號,台中市,西屯區
全家高雄新勝店站(多站),120.29955,22.668324,台灣高雄市左營區南屏路313號,高雄市,左營區
中油千越路竹加油站,120.25115,22.88039,台灣高雄市湖內區中山路一段148之1號,高雄市,湖內區
HiLife 高市英祥店站,120.325729,22.616754,台灣高雄市苓雅區英祥街19號三樓之1號,高雄市,苓雅區
中油龍壽街加油站,121.267519,24.987289,台灣桃園市桃園區龍壽街215之10號,桃園市,桃園區
中油五甲加油站,120.354424,22.618349,台灣高雄市鳳山區國光路6號,高雄市,鳳山區
中油台中復興路加油站,120.669174,24.128867,台灣台中市南區復興路三段63號,台中市,南區
中油民德加油站,120.96162,24.85611,台灣新竹縣竹北市長青路二段96號,新竹縣,竹北市
合作金庫銀行自強分行站,121.531992,25.052507,台灣台北市中山區南京東路二段85號13樓,台北市,中山區
宏佳騰彰化員林店站,120.571525,23.96895,台灣彰化縣員林市大同路二段351號,彰化縣,員林市
金弘笙桃園經國店站(多站),121.301867,25.025591,台灣桃園市桃園區經國路402號,桃園市,桃園區
臺中市東欣停車場站(多站),120.679047,24.153154,台灣台中市北區柳川西路四段80號,台中市,北區
中油千越開元加油站,120.22391,23.010171,台灣台南市北區開元路467號,台南市,北區
員林市廣三停車場站(多站),120.567163,23.968809,台灣彰化縣員林市莒光路605號,彰化縣,員林市
新北市枋寮公有零售市場站,121.5013,25.00023,台灣新北市中和區中和路86號,新北市,中和區
全家太平永豐店站,120.711916,24.123392,台灣台中市太平區中102鄉道81號,台中市,太平區
八百屋保泰店站(多站),120.333817,22.602716,台灣高雄市前鎮區保泰路345號,高雄市,前鎮區
Gogoro 西屯甘肅服務中心站,120.655884,24.171514,台灣台中市西屯區甘肅路二段50號,台中市,西屯區
全家新城太魯閣店站,121.644155,24.131322,台灣花蓮縣新城鄉新興路52-1號,花蓮縣,新城鄉
全聯桃園天祥店站(多站),121.303674,25.018815,台灣桃園市桃園區天祥五街29號,桃園市,桃園區
全聯大溪中正店站,121.288911,24.882347,台灣桃園市大溪區慈湖路60號,桃園市,大溪區
西歐台北自強加油站,121.564076,25.082611,台灣台北市內湖區內湖路一段146號,台北市,內湖區
德昌停車場站(多站),120.317059,22.584016,台灣高雄市前鎮區鎮中路292號,高雄市,前鎮區
HiLife 桃縣桃魏店站,121.212407,24.885817,台灣桃園市龍潭區中豐路606號,桃園市,龍潭區
桃園市站前東停車場站,121.21869,25.0121,台灣桃園市中壢區桃園市中壢區,桃園市,中壢區
中油魚池加油站,120.928951,23.902409,台灣南投縣魚池鄉魚池街901號,南投縣,魚池鄉
中油中興路加油站,120.42837,23.47634,台灣嘉義市西區中興路591號,嘉義市,西區
味香山海產店站(多站),120.44761,22.766329,台灣高雄市大樹區統嶺路72-36號,高雄市,大樹區
全家板橋正隆店站,121.477154,25.013572,台灣新北市板橋區三民路二段正隆巷34號,新北市,板橋區
中油台糖南新加油站,120.693005,23.872008,台灣南投縣名間鄉彰南路357之39號,南投縣,名間鄉
福懋益民加油站,120.517541,24.06157,台灣彰化縣彰化市彰鹿路45號,彰化縣,彰化市
宜蘭縣五結鄉農會利澤辦事處站,121.821919,24.667267,台灣宜蘭縣五結鄉利澤路69號,宜蘭縣,五結鄉
台北捷運大湖公園站(多站),121.602302,25.083997,台灣台北市內湖區大湖公園,台北市,內湖區
車麗屋新竹中華店站,120.991031,24.814029,台灣新竹市東區中華路一段212號,新竹市,東區
新北市中誠立體停車場站(多站),121.451561,25.047605,台灣新北市新莊區中港路417巷12號,新北市,新莊區
中油美得大學加油站,121.555643,23.896744,台灣花蓮縣壽豐鄉豐坪路三段989號,花蓮縣,壽豐鄉
臺中市東區泉源里等四里多功能聯合活動中心站(多站),120.694207,24.136534,401台灣台中市東區樂業一路151 號,台中市,東區
PGO 大同延平店站,121.511065,25.066665,103台灣台北市大同區延平北路三段73 之1號,台北市,大同區
Gogoro 左營博愛店站(多站),120.303626,22.669637,台灣高雄市左營區博愛二路668號,高雄市,左營區
Gogoro 台南健康店站,120.209983,22.981454,台灣台南市中西?健康路一段68號4樓,台南市,中西區
新市區農會站,120.29551,23.079684,台灣台南市新市區復興路1號,台南市,區
台溪里民集會所站(多站),120.957478,24.797188,台灣新竹市北區警光路40號,新竹市,北區
Gogoro 沙鹿中山門市站,120.561004,24.241308,台灣台中市沙鹿區中山路370號,台中市,沙鹿區
全聯鹿港彰頂店站(多站),120.480172,24.087042,台灣彰化縣鹿港鎮頂草路一段61號,彰化縣,鹿港鎮
宏佳騰台南中華店站,120.229333,23.016053,台灣台南市永康區中華路696號,台南市,永康區
新北市永和國父紀念館站,121.520079,25.008534,台灣新北市永和區國光路2號,新北市,永和區
全聯朴子四維店站,120.23711,23.461433,台灣嘉義縣朴子市大同路291號,嘉義縣,朴子市
臺鐵臺北貨運所楊梅車站後站(多站),121.146065,24.914575,台灣桃園市楊梅區大成路256號楊梅車站,桃園市,楊梅區
全家竹東新市店站,121.056965,24.769321,台灣新竹縣竹東鎮中央路92號,新竹縣,竹東鎮
A4 新莊副都心站(多站),121.445597,25.05903,台灣新北市新莊區新北大道四段188號,新北市,新莊區
新北市中和區景平路站,121.498466,24.999873,台灣新北市中和區景平路634-12號,新北市,中和區
中油新埤加油站,120.548482,22.469628,台灣屏東縣新埤鄉新中路72號,屏東縣,新埤鄉
中油茄萣加油站,120.184092,22.906892,台灣高雄市茄萣區白砂路6號,高雄市,茄萣區
中油元井加油站,120.540405,24.210146,台灣台中市龍井區中華路二段506號,台中市,龍井區
太平洋建設德行東路站(多站),121.534334,25.110008,台灣台北市士林區德行東路245號,台北市,士林區
全家台南長順店站,120.204614,23.002342,台灣台南市北區長北街112號,台南市,北區
中油安樂加油站,121.718752,25.12651,台灣基隆市安樂區麥金路441號,基隆市,安樂區
全家大里金大發店站,120.706791,24.095186,台灣台中市大里區仁化路343-1號,台中市,大里區
鹿港鎮北區遊客中心停車場站(多站),120.434945,24.058833,台灣彰化縣鹿港鎮復興路474號,彰化縣,鹿港鎮
台糖廣興加油站,120.489547,22.693792,台灣屏東縣屏東市忠孝路323號,屏東縣,屏東市
全聯台中福星店站,120.644776,24.184507,台灣台中市西屯區福星北路60號,台中市,西屯區
中油台糖光明加油站,120.449138,23.707705,台灣雲林縣虎尾鎮光明路105號,雲林縣,虎尾鎮
臺北市網球中心站(多站),121.596994,25.067603,台灣台北市內湖區民權東路六段208號網球運動中心,台北市,內湖區
中油台糖大湖加油站,120.248377,22.883668,台灣高雄市湖內區中山路一段200號,高雄市,湖內區
挪威森林行旅3號館站(多站),120.685896,24.138894,台灣台中市中區建國路189號,台中市,中區
台北捷運新店站(多站),121.537639,24.958688,台灣新北市新店區北宜路一段2號,新北市,新店區
7-ELEVEN 立東店站,120.234438,22.977225,台灣台南市東區182縣道220號,台南市,東區
台灣高鐵桃園站,121.216486,25.01445,台灣桃園市中壢區高鐵北路一段6號,桃園市,中壢區
全家高雄大坪頂店站,120.381676,22.556231,台灣高雄市小港區高坪二十二路471號,高雄市,小港區
7-ELEVEN 泰昌店站(多站),121.294872,24.987945,台灣桃園市桃園區泰昌三街51-1號,桃園市,桃園區
中油赤崁加油站,119.603063,23.667864,台灣澎湖縣白沙鄉北海遊客中心,澎湖縣,白沙鄉
山隆大發加油站(多站),120.405537,22.594708,台灣高雄市大寮區大寮路201號,高雄市,大寮區
中油平和加油站,120.48218,23.95672,台灣彰化縣溪湖鎮糖北東街3號,彰化縣,溪湖鎮
家樂福彰化店站(多站),120.542475,24.094564,台灣彰化縣彰化市金馬路二段321號2樓,彰化縣,彰化市
新莊鴻寶站(多站),121.465337,25.042181,台灣新北市新莊區中正路16號,新北市,新莊區
全家台中金美店站,120.636309,24.141238,台灣台中市南屯區南屯路二段872號,台中市,南屯區
新北市十八份坑溪機車停車場站(多站),121.412826,25.031059,台灣新北市新莊區新北大道七段410號,新北市,新莊區
中油吳鳳廟加油站,120.538413,23.442402,台灣嘉義縣中埔鄉阿里山公路87號,嘉義縣,中埔鄉
濱海停車場站(多站),120.269505,22.624185,台灣高雄市鼓山區哨船街95號,高雄市,鼓山區
中油新力加油站,120.223965,22.922265,台灣台南市仁德區二仁路一段235號,台南市,仁德區
中油芬園加油站,120.627382,24.018619,台灣彰化縣芬園鄉彰南路四段338號,彰化縣,芬園鄉
中油柑園楊梅加油站,121.150922,24.907244,台灣桃園市楊梅區中山北路一段43號,桃園市,楊梅區
全家太平光德店站(多站),120.721281,24.10145,台灣台中市太平區光德路101號,台中市,太平區
全聯嘉義大雅店站,120.46939,23.477525,台灣嘉義市東區大雅路二段561號,嘉義市,東區
全家美華店站(多站),121.556154,25.084952,104台灣台北市中山區北安路819 樓2 之1號,台北市,中山區
中油永秦加油站,121.448549,25.165842,台灣新北市淡水區中正東路36號,新北市,淡水區
統冠超市富安店站,121.598229,23.992741,台灣花蓮縣花蓮市富安路39號,花蓮縣,花蓮市
台亞新莊化成路加油站,121.464867,25.060795,台灣新北市新莊區化成路864號,新北市,新莊區
臺北市松隆平面停車場站(多站),121.575822,25.04833,台灣台北市信義區松隆路286-1號,台北市,信義區
7-ELEVEN 上楓樹店站,120.627528,24.118175,台灣台中市南屯區黎明路一段265號,台中市,南屯區
HiLife 台中中軍店站,120.71962,24.178299,台灣台中市北屯區軍福十八路196號,台中市,北屯區
全聯台中北屯二店站(多站),120.698946,24.175823,台灣台中市北屯區北屯路417-4號,台中市,北屯區
喜互惠順安店站(多站),121.761931,24.655222,台灣宜蘭縣冬山鄉永興路二段54號,宜蘭縣,冬山鄉
北投運動中心站,121.509634,25.116175,台灣台北市北投區石牌路一段39巷90號,台北市,北投區
高雄市文化中心站(多站),120.319454,22.625839,台灣高雄市苓雅區五福一路67號,高雄市,苓雅區
台亞汐止好市多加油站(多站),121.632033,25.05566,台灣新北市汐止區大同路一段154號,新北市,汐止區
全聯小港山明店站(多站),120.365563,22.565797,台灣高雄市小港區山明路118號,高雄市,小港區
中油新屋加油站,121.11021,24.970931,台灣桃園市新屋區中山路89號,桃園市,新屋區
7-ELEVEN 協元店站,121.441348,25.174153,台灣新北市淡水區101縣道174號,新北市,淡水區
新北市環河東路二段站(多站),121.524477,25.009794,台灣新北市永和區環河東路二段17號,新北市,永和區
中油大度山加油站,120.590698,24.184432,台灣台中市西屯區臺灣大道五段142號,台中市,西屯區
小北百貨新市店站,120.293498,23.075334,台灣台南市新市區仁愛街222號,台南市,區
中油彰化加油站,120.553863,24.084911,台灣彰化縣彰化市中山路三段29號,彰化縣,彰化市
中油中新加油站,121.126583,25.017071,台灣桃園市觀音區中山路二段236號,桃園市,觀音區
全家蘆竹吉林店站(多站),121.29606,25.05134,台灣桃園市蘆竹區吉林路2號,桃園市,蘆竹區
全聯鳳山保華一店站,120.346931,22.589357,台灣高雄市鳳山區保華一路208號,高雄市,鳳山區
中油竹塘加油站,120.429197,23.857975,台灣彰化縣竹塘鄉竹林路一段165號,彰化縣,竹塘鄉
臺中市廣停停車場站(多站),120.666014,24.154776,台灣台中市北區博館二街18號,台中市,北區
啄木鳥藥局埔里店站(多站),120.953626,23.969633,台灣南投縣埔里鎮中山路三段467號,南投縣,埔里鎮
台北捷運昆陽站(多站),121.594706,25.050816,台灣台北市南港區忠孝東路481號,台北市,南港區
喜互惠和平店站,121.766318,24.823656,台灣宜蘭縣礁溪鄉和平路120號,宜蘭縣,礁溪鄉
中油喜樹加油站,120.179956,22.946138,台灣台南市南區喜樹路61號,台南市,南區
全家林園鳳林店站,120.397856,22.504009,台灣高雄市林園區鳳林路一段92號,高雄市,林園區
中油永康加油站,120.254909,23.041786,台灣台南市永康區中正北路348號,台南市,永康區
臺中市東峰停車場站(多站),120.684813,24.122169,台灣台中市東區中興路二段419號,台中市,東區
宏佳騰中壢中山東店站(多站),121.248268,24.944236,台灣桃園市中壢區中山東路三段110號,桃園市,中壢區
台灣高鐵彰化站,120.573226,23.872778,台灣彰化縣田中鎮彰化縣田中鎮,彰化縣,田中鎮
中油頭份加油站,120.912481,24.691012,台灣苗栗縣頭份市忠孝一路220巷19號,苗栗縣,頭份市
全聯永靖中山店站,120.545954,23.916888,台灣彰化縣永靖鄉永社路291號,彰化縣,永靖鄉
北基朝陽加油站,121.311041,25.000529,台灣桃園市桃園區三民路二段236號,桃園市,桃園區
西歐台北士林加油站(多站),121.528397,25.095367,台灣台北市士林區中山北路五段576號,台北市,士林區
7-ELEVEN 精科店站(多站),120.611003,24.145256,台灣台中市南屯區嶺東路370巷3號,台中市,南屯區
高雄市養工處博愛三路50巷站(多站),120.304291,22.671846,台灣高雄市左營區博愛三路50號,高雄市,左營區
美廉社屏東新園店站,120.458931,22.490996,台灣屏東縣新園鄉南興路308號,屏東縣,新園鄉
全聯彰化育英店站,120.573937,23.969345,台灣彰化縣員林市育英路600號1樓,彰化縣,員林市
全家霧峰新六順店站(多站),120.703054,24.070718,台灣台中市霧峰區中108鄉道201號,台中市,霧峰區
中油南強加油站,121.3329,24.99303,台灣桃園市龜山區中和南路329號,桃園市,龜山區
7-ELEVEN 柏魁店站(多站),121.368056,25.024967,台灣桃園市龜山區振興路1021-1號,桃園市,龜山區
Gogoro 南屯大墩十四服務中心站,120.64548,24.15247,台灣台中市南屯區大墩十四街352號,台中市,南屯區
全家大港店站,121.521491,25.084798,104台灣台北市中山區北安路819 樓2 之1號,台北市,中山區
7-ELEVEN 和港店站,120.490086,24.131896,台灣彰化縣和美鎮頂好修里,彰化縣,和美鎮
台北捷運明德站(多站),121.519588,25.108937,台灣台北市北投區東華街一段54號,台北市,北投區
台亞麟洛交流道加油站,120.533452,22.643214,台灣屏東縣麟洛鄉中山路27號909,屏東縣,麟洛鄉
7-ELEVEN 新石岡店站,120.777115,24.274536,台灣台中市石岡區仁愛街73號,台中市,石岡區
高雄市養工處德民路站(多站),120.293848,22.721682,台灣高雄市楠梓區德民路731號,高雄市,楠梓區
台北捷運忠義站(多站),121.472615,25.130607,台灣台北市北投區中央北路四段331號號,台北市,北投區
7-ELEVEN 橫溪店站,121.398396,24.935507,台灣新北市三峽區溪北街109號,新北市,三峽區
全聯台中遊園店站,120.581171,24.174169,台灣台中市大肚區遊園路二段216號,台中市,大肚區
全聯關新西店站,121.019732,24.78951,台灣新竹市東區關東路171號,新竹市,東區
新北市交通公園站(多站),121.538003,24.976983,台灣新北市新店區民族路142號,新北市,新店區
7-ELEVEN 永在店站,120.654638,24.391794,台灣台中市大甲區黎明路2-12號,台中市,大甲區
7-ELEVEN 孔鳳店站,120.371697,22.579074,台灣高雄市小港區高鳳路332號,高雄市,小港區
中油世賢加油站,120.434056,23.460579,台灣嘉義市西區世賢路三段256號,嘉義市,西區
南投縣草屯鎮大成街停車場站(多站),120.688045,23.978026,台灣南投縣草屯鎮大成街80號,南投縣,草屯鎮
福懋燕巢加油站,120.349922,22.792407,台灣高雄市燕巢區安北路50號,高雄市,燕巢區
全聯朴子文化店站,120.241413,23.464506,台灣嘉義縣朴子市文化北路18號,嘉義縣,朴子市
延平北路5段臨時平面停車場站(多站),121.509935,25.078805,台灣台北市士林區延平北路五段1巷50號,台北市,士林區
中油瑞穗加油站,121.377251,23.493595,台灣花蓮縣瑞穗鄉中正南路一段105號,花蓮縣,瑞穗鄉
台糖萬泰加油站,120.484169,22.589878,台灣屏東縣萬丹鄉和平西路167號,屏東縣,萬丹鄉
桃園市建國一村停車場站(多站),121.324436,24.992034,台灣桃園市龜山區和平街71號,桃園市,龜山區
HiLife 中縣中航店站,120.60144,24.258345,台灣台中市沙鹿區中航路一段343-359號,台中市,沙鹿區
7-ELEVEN 鯤鯓店站,120.184152,22.959167,台灣台南市南區鯤鯓路20號,台南市,南區
7-ELEVEN 展穫店站,120.321497,22.879924,台灣高雄市阿蓮區中正路897號,高雄市,阿蓮區
中油大村加油站,120.550217,23.991739,台灣彰化縣大村鄉中正西路278號,彰化縣,大村鄉
中油草溪路加油站,120.67238,23.9586,台灣南投縣草屯鎮草溪路154之37號,南投縣,草屯鎮
中油大旺加油站,120.274137,22.969311,台灣台南市歸仁區中山路三段596號,台南市,歸仁區
全聯台中沙鹿店站,120.559117,24.239538,台灣台中市沙鹿區大同街119-2號,台中市,沙鹿區
Gogoro 永和樂華門市站(多站),121.514088,25.010279,台灣新北市永和區中山路一段7號,新北市,永和區
新北市清水社區公園站(多站),121.463261,24.984682,台灣新北市土城區清水路265號,新北市,土城區
臺北市公共運輸處大樓站,121.573623,25.031655,台灣台北市信義區信義路五段151巷150號,台北市,信義區
關聖里停車場站(多站),120.241078,22.985607,台灣台南市東區裕和二街262號號,台南市,東區
中油三仙台加油站,121.388368,23.114375,台灣台東縣成功鎮芝田路186之9號,台東縣,成功鎮
榮星花園地下停車場B1F站,121.538248,25.064194,台灣台北市中山區五常街40號,台北市,中山區
基隆東岸地下停車場B1F站,121.743701,25.130267,111台灣台北市士林區前港街39 樓5號,台北市,士林區
中油重陽路加油站,121.492899,25.071892,台灣新北市三重區104縣道148號,新北市,三重區
Gogoro 樹林三俊門市站,121.422564,25.014202,台灣新北市樹林區三俊街288號,新北市,樹林區
中油惠暘加油站,121.197925,24.974578,台灣桃園市中壢區中正路二段38號,桃園市,中壢區
814生鮮超市高雄大社店站(多站),120.343908,22.732159,台灣高雄市大社區中山路42-1號,高雄市,大社區
中油南寮加油站,120.927897,24.845864,台灣新竹市北區東大路四段304巷4號,新竹市,北區
臺鐵竹南車站(多站),120.880383,24.687066,台灣苗栗縣竹南鎮中山路170號,苗栗縣,竹南鎮
板橋第一體育場站(多站),121.467096,25.010119,台灣新北市板橋區海山路45號,新北市,板橋區
中油美得潭子加油站,120.702444,24.197028,台灣台中市潭子區中山路一段229號,台中市,潭子區
中油新樹加油站(多站),121.440719,25.033311,台灣新北市新莊區107縣道4號,新北市,新莊區
福懋新美加油站,120.529247,24.09573,台灣彰化縣和美鎮彰美路二段232號,彰化縣,和美鎮
臺北市萬華站前廣場站(多站),121.500275,25.033865,台灣台北市萬華區萬華,台北市,萬華區
蘭潭國小停14停車場站,120.472786,23.476024,台灣嘉義市東區雅竹路76號,嘉義市,東區
7-ELEVEN 期建店站,120.182161,22.988472,台灣台南市安平區建平路277號,台南市,安平區
Gogoro 桃園三民服務中心站,121.307576,24.983339,台灣桃園市桃園區台4線595號,桃園市,桃園區
中油竹山延平加油站,120.709679,23.77542,台灣南投縣竹山鎮集山路二段877號,南投縣,竹山鎮
山隆大里加油站(多站),120.684547,24.096565,台灣台中市大里區國光路一段69號,台中市,大里區
全家基隆中山店站,121.740529,25.13812,台灣基隆市中山區中山二路42號,基隆市,中山區
HiLife 高市神農店站(多站),120.391815,22.649519,台灣高雄市鳥松區高61鄉道66號,高雄市,鳥松區
中油好客加油站,121.07378,24.775366,台灣新竹縣芎林鄉富林路三段360號,新竹縣,芎林鄉
全家新竹金湖店站(多站),120.967357,24.78286,台灣新竹市東區明湖路399號,新竹市,東區
美廉社新竹崧嶺店站,120.95563,24.79521,台灣新竹市北區崧嶺路38號地下一層號,新竹市,北區
7-ELEVEN 金倫店站,120.963694,22.531401,台灣台東縣太麻里鄉金崙路262號,台東縣,太麻里鄉
7-ELEVEN 明城店站,120.32192,23.855759,台灣彰化縣大城鄉北平路76號,彰化縣,大城鄉
全聯豐原田心店站,120.72107,24.239562,台灣台中市豐原區田心路二段182號,台中市,豐原區
統冠超市慶豐店站(多站),121.569924,23.978401,台灣花蓮縣吉安鄉中山路三段336號,花蓮縣,吉安鄉
福懋中壢加油站,121.196617,24.975352,台灣桃園市中壢區中正路二段139號,桃園市,中壢區
Gogoro 北屯文心服務中心站,120.695002,24.171176,台灣台中市北屯區文心路四段953號,台中市,北屯區
新北市永和仁愛公園站(仁愛路側)C,121.506813,25.00996,台灣新北市永和區永貞路441號,新北市,永和區
順發3C潮州店站,120.540136,22.557923,台灣屏東縣潮州鎮延平路265號,屏東縣,潮州鎮
台糖大林加油站,120.459967,23.59673,台灣嘉義縣大林鎮民生路68號,嘉義縣,大林鎮
全聯台中龍門店站(多站),120.633922,24.162358,台灣台中市西屯區黎明路二段866號,台中市,西屯區
全家台南仁德仁紡店站(多站),120.253367,22.963297,台灣台南市仁德區中正路二段805號,台南市,仁德區
中油官田加油站,120.337432,23.179906,台灣台南市官田區八田路一段3號,台南市,官田區
7-ELEVEN 和全店站(多站),120.505733,24.114082,508台灣彰化縣和美鎮忠全路7號 號,彰化縣,和美鎮
全聯淡水中山店站(多站),121.444488,25.184408,台灣新北市淡水區中山北路二段102號,新北市,淡水區
中油板和加油站,121.480797,25.009746,台灣新北市中和區中正路686號,新北市,中和區
PGO 高雄明誠店站,120.314311,22.659934,台灣高雄市三民區明誠二路48-1號,高雄市,三民區
新北市老街第二停車場站,121.343251,24.949498,台灣新北市鶯歌區尖山埔路292號,新北市,鶯歌區
PGO 中壢元化店站,121.220304,24.962742,台灣桃園市中壢區元化路二段86號,桃園市,中壢區
台南市北區北成路38巷停車場站(多站),120.210561,23.018856,台灣台南市北區北成路46號,台南市,北區
全聯平鎮中豐店站,121.210527,24.910752,台灣桃園市平鎮區中豐路南勢二段326號,桃園市,平鎮區
高雄市養工處民族二路站(多站),120.3133,22.63463,台灣高雄市新興區同心路20號,高雄市,新興區
臺鐵臺北貨運所基隆車站,121.737896,25.131071,台灣基隆市中山區中山陸橋基隆中山陸橋,基隆市,中山區
宏佳騰台南東區店站(多站),120.229819,22.981652,台灣台南市東區中華東路二段337號,台南市,東區
台南市友愛街立體機車停車場站(多站),120.205876,22.991001,台灣台南市中西區友愛街7號,台南市,中西區
Gogoro 左營自由四服務中心站,120.317981,22.68667,台灣高雄市左營區自由四路433號,高雄市,左營區
車之輪嘉西門市站,120.42866,23.48066,台灣嘉義市西區北港路303號,嘉義市,西區
全聯長治潭頭店站,120.525335,22.675655,台灣屏東縣長治鄉潭頭路84號,屏東縣,長治鄉
臺中市文心路辦公園區站(多站),120.648401,24.160122,台灣台中市西屯區大墩十九街210號,台中市,西屯區
中油日清加油站,121.06432,24.78783,台灣新竹縣竹北市東興路二段896號,新竹縣,竹北市
Gogoro 桃園服務中心站,121.318503,24.990961,台灣桃園市桃園區台1甲線20號,桃園市,桃園區
全聯頭份中央店站,120.891643,24.694585,台灣苗栗縣頭份市中央路706號,苗栗縣,頭份市
桃園市上海停車場站,121.207039,24.913552,台灣桃園市平鎮區平鎮分局(中庸路),桃園市,平鎮區
全聯清水中興店站(多站),120.574976,24.271924,台灣台中市清水區中興街57號,台中市,清水區
Gogoro 中壢環西門市店站,121.207197,24.95936,台灣桃園市中壢區環西路64號,桃園市,中壢區
全聯新屋中山店站,121.101065,24.973058,台灣桃園市新屋區中山路409號,桃園市,新屋區
奇美醫院第五停車場站(多站),120.21744,23.019766,台灣台南市北區甲頂路220號,台南市,北區
新市法庭停車場站(多站),120.290036,23.07332,台灣台南市新市區信義街15-2號,台南市,區
中油勝中加油站,120.544489,24.02102,台灣彰化縣花壇鄉中山路一段311號,彰化縣,花壇鄉
中油坤業加油站,121.362999,25.001212,台灣桃園市龜山區廷美街34號,桃園市,龜山區
府前停18停車場站,120.18903,22.992178,台灣台南市中西區府前路二段312號,台南市,中西區
7-ELEVEN 見晴園店站(多站),121.158163,24.041202,台灣南投縣仁愛鄉見晴山莊,南投縣,仁愛鄉
東橋八街停車場站(多站),120.234118,23.020649,台灣台南市永康區東橋三路137號,台南市,永康區
新北市養工處淡水濱海路站(多站),121.444336,25.188901,台灣新北市淡水區淡水行政中心,新北市,淡水區
中油光明加油站,120.479941,24.001521,台灣彰化縣埔鹽鄉彰水路二段174號,彰化縣,埔鹽鄉
全聯南投學藝店站,120.688614,23.950059,台灣南投縣南投市學藝路27號,南投縣,南投市
新北市環河公園停車場站,121.450602,25.016546,台灣新北市板橋區南雅西路二段301巷41弄環河公園,新北市,板橋區
中油清水加油站,120.578493,24.277794,台灣台中市清水區中山路507-18號,台中市,清水區
新北市智興立體停車場站(多站),121.657203,25.064074,台灣新北市汐止區忠孝東路1-2號,新北市,汐止區
7-ELEVEN 港區店站,120.529627,24.253208,台灣台中市梧棲區文化路二段55號,台中市,梧棲區
全聯彰化伸港店站,120.48681,24.149015,台灣彰化縣伸港鄉新港路311號,彰化縣,伸港鄉
中油台糖建軍加油站,120.360871,22.598052,台灣高雄市鳳山區鳳頂路602號,高雄市,鳳山區
桃園市大溪區農會站,121.328708,24.831901,台灣桃園市大溪區復興路二段700號,桃園市,大溪區
全家仁愛賽德克店站,121.086942,24.003633,台灣南投縣仁愛鄉中正路87號,南投縣,仁愛鄉
Gogoro 三民鼎強服務中心站,120.320709,22.665479,台灣高雄市三民區鼎強街95-1號,高雄市,三民區
全聯神岡五權店站,120.713099,24.258702,台灣台中市神岡區五權路1號,台中市,神岡區
全聯桃園大業店站(多站),121.310998,25.017193,台灣桃園市桃園區大業路二段51號,桃園市,桃園區
全聯蘆竹南竹店站,121.283554,25.039077,台灣桃園市蘆竹區南竹路二段155-3號,桃園市,蘆竹區
新北市台65橋下站,121.442049,25.04497,台灣新北市泰山區信華六街25號,新北市,泰山區
台灣聯通大順場站(多站),120.327191,22.640504,台灣高雄市三民區大順二路41號,高雄市,三民區
全家台中萬代福店站(多站),120.679971,24.146474,台灣台中市中區公園路42號,台中市,中區
全聯台中豐樂店站,120.6432,24.133502,台灣台中市南屯區文心南三路690號,台中市,南屯區
HiLife 桃縣桃楚店站,121.258219,25.105567,台灣桃園市蘆竹區海山路二段262號,桃園市,蘆竹區
7-ELEVEN 鹽新店站,120.273603,23.310781,台灣台南市鹽水區忠孝路93號,台南市,鹽水區
中石化大社廠壘球場站(多站),120.32367,22.733716,台灣高雄市楠梓區惠正街183號,高雄市,楠梓區
光華數位新天地站(多站),121.53169,25.045537,台灣台北市中正區光華商場,台北市,中正區
中油武陵加油站,121.284829,24.988293,台灣桃園市桃園區中山路1018號,桃園市,桃園區
中油美得新城加油站,121.608803,24.022508,台灣花蓮縣新城鄉嘉里路206號,花蓮縣,新城鄉
全聯平鎮上海店站(多站),121.2062,24.916094,台灣桃園市平鎮區南京路201號,桃園市,平鎮區
中油沿海加油站,120.162944,23.610233,台灣雲林縣口湖鄉中山路2號,雲林縣,口湖鄉
台亞仁武加油站(多站),120.340417,22.709696,台灣高雄市仁武區183縣道308號,高雄市,仁武區
台糖大進加油站,121.417794,23.653372,台灣花蓮縣光復鄉中山路一段232號,花蓮縣,光復鄉
全家平鎮富民店站,121.203087,24.952979,台灣桃園市平鎮區324,桃園市,平鎮區
臺中市建國公有零售市場站(多站),120.693383,24.133968,401台灣台中市東區建成路500號3 樓,台中市,東區
車太炫自助洗車宜蘭嵐峰店站(多站),121.753972,24.74245,台灣宜蘭縣宜蘭市嵐峰路一段87號,宜蘭縣,宜蘭市
中油新生北路加油站,121.527967,25.056599,台灣台北市中山區新生北路二段73號,台北市,中山區
7-ELEVEN 豐收店站(多站),120.461412,23.562027,台灣嘉義縣民雄鄉大學路二段291號621,嘉義縣,民雄鄉
中油東河加油站,121.299926,22.966054,台灣台東縣東河鄉46,台東縣,東河鄉
台中 JMall 商場站(多站),120.616256,24.182875,台灣台中市西屯區台灣大道四段990號,台中市,西屯區
Gogoro 高雄岡山店站,120.296495,22.789816,台灣高雄市岡山區岡山路162號,高雄市,岡山區
大鳥摩哆站,120.623109,24.173656,台灣台中市西屯區朝馬路203-6號,台中市,西屯區
中油蘆洲加油站,121.473597,25.085095,台灣新北市蘆洲區三民路97號,新北市,蘆洲區
新北市淺水灣海濱公園站,121.47138,25.252216,台灣新北市三芝區北勢子42-11號,新北市,三芝區
Gogoro 仁武仁雄門市站,120.350645,22.680604,台灣高雄市仁武區仁雄澄合街口,高雄市,仁武區
全家八德櫻花店站,121.319223,24.949073,台灣桃園市八德區長安街375號,桃園市,八德區
璨揚企業站,120.154156,23.041927,台灣台南市安南區台南市安南區工業一路18號,台南市,安南區
7-ELEVEN 和緯店站,120.206329,23.012312,台灣台南市北區和緯路二段252號,台南市,北區
中油勝美加油站,120.50822,24.04635,台灣彰化縣秀水鄉彰水路一段489號,彰化縣,秀水鄉
Gogoro 西屯福星北服務中心站,120.644594,24.183963,台灣台中市西屯區漢翔公司(星享道),台中市,西屯區
7-ELEVEN 觀成店站,121.124185,25.054788,台灣桃園市觀音區成功路一段557號,桃園市,觀音區
臺中市政府衛生局站(多站),120.714238,24.248109,台灣台中市豐原區中興路125號,台中市,豐原區
竹光國民運動中心站(多站),120.95331,24.807285,台灣新竹市北區竹光路335號,新竹市,北區
Gogoro 台南大灣門市站,120.253906,22.999351,台灣台南市永康區180縣道984號,台南市,永康區
中油全鋒台茂加油站,121.27521,25.070848,台灣桃園市蘆竹區長興路三段256-1號,桃園市,蘆竹區
全聯鳳山經武店站,120.364188,22.64036,台灣高雄市鳳山區文龍東路369號,高雄市,鳳山區
台北捷運迴龍站(多站),121.410962,25.021181,台灣新北市新莊區中正路913號,新北市,新莊區
中油五分埔加油站,121.095922,24.821191,台灣新竹縣新埔鎮新關路五埔段938號,新竹縣,新埔鎮
Gogoro 泰山明志門市站,121.425077,25.041777,台灣新北市泰山區107縣道81號,新北市,泰山區
Gogoro 屏東和平服務中心站,120.477538,22.679856,台灣屏東縣屏東市和平路459號,屏東縣,屏東市
中油四海加油站(多站),121.621383,25.055113,台灣新北市汐止區大同路一段1號,新北市,汐止區
全聯嘉義吳鳳店站,120.457221,23.461048,台灣嘉義市東區吳鳳南路529、531號,嘉義市,東區
臺北市新生公園停車場站(多站),121.53104,25.068626,台灣台北市中山區新生高架道路新生公園,台北市,中山區
中油永交加油站,120.2476,23.042525,台灣台南市永康區中正北路319號,台南市,永康區
宏佳騰北屯中清店站(多站),120.662931,24.187878,台灣台中市北屯區中清路108-18號,台中市,北屯區
7-ELEVEN 逢喜店站,120.640748,24.176012,台灣台中市西屯區逢甲路247號,台中市,西屯區
HiLife 中縣中神店站(多站),120.655581,24.258931,台灣台中市神岡區三民路23號,台中市,神岡區
中油來來加油站,120.876316,24.660727,台灣苗栗縣竹南鎮公館里,苗栗縣,竹南鎮
全家大里河堤店站,120.69709,24.100778,台灣台中市大里區立中街9號,台中市,大里區
HiLife 新竹竹亮店站,120.979972,24.803544,台灣新竹市東區光復路二段962號八樓之2號,新竹市,東區
Gogoro 永康中華店站,120.235307,23.003071,台灣台南市永康區中華路138之1號,台南市,永康區
中油百祥加油站,120.926565,24.787022,台灣新竹市香山區中華路五段99之2號,新竹市,香山區
中油福雅加油站,120.628877,24.2053,台灣台中市西屯區福雅路693號,台中市,西屯區
臺北市公有成德市場站(多站),121.586801,25.046212,台灣台北市南港區東新街76號,台北市,南港區
第一銀行中山分行站,121.52322,25.056055,台灣台北市中山區中山北路二段59巷3弄7號,台北市,中山區
TOYOTA 蘇澳保修站,121.832801,24.623626,台灣宜蘭縣蘇澳鎮馬賽路177號,宜蘭縣,蘇澳鎮
中油學甲中正路加油站,120.189412,23.244193,台灣台南市學甲區中正路645號,台南市,學甲區
HiLife 北縣飛和店站,121.483745,25.011849,台灣新北市中和區永和路341號,新北市,中和區
7-ELEVEN 伸濱店站,120.486921,24.151623,台灣彰化縣伸港鄉新港路425號,彰化縣,伸港鄉
中油建興加油站,120.615771,24.412217,台灣台中市大甲區臨江路162之10號,台中市,大甲區
臺中市廣停130停車場站(多站),120.630032,24.159916,台灣台中市西屯區龍富路五段396號,台中市,西屯區
第一銀行草屯分行站,120.684366,23.976607,台灣南投縣草屯鎮和興三街11號,南投縣,草屯鎮
Gogoro 天母忠誠門市站,121.528455,25.104879,111台灣台北市士林區忠誠路一段101 樓5號,台北市,士林區
南科創新一館停車場B1F站,120.284606,23.098369,台灣台南市新市區南科三路3號,台南市,區
中油獅潭加油站,120.924426,24.546979,台灣苗栗縣獅潭鄉9-1,苗栗縣,獅潭鄉
Gogoro 豐原中正門市店站,120.721911,24.253142,台灣台中市豐原區中正路38號,台中市,豐原區
HiLife 豐原三和店站,120.704364,24.231719,台灣台中市豐原區三和路349巷2號,台中市,豐原區
中油正洋加油站,121.61276,24.997894,台灣新北市深坑區文山路三段15號,新北市,深坑區
新竹市中正路226巷路邊停車場站(多站),120.96552,24.8108,台灣新竹市北區中正路224號,新竹市,北區
7-ELEVEN 彰德店站,120.589611,24.082698,台灣彰化縣彰化市彰南路二段510號,彰化縣,彰化市
全家楊梅金山店站(多站),121.16225,24.912707,台灣桃園市楊梅區新農街606號,桃園市,楊梅區
宜蘭礁溪轉運站(多站),121.777652,24.830736,台灣宜蘭縣礁溪鄉礁溪路六段17號,宜蘭縣,礁溪鄉
金華屋婚宴會館站(多站),120.682312,24.183726,台灣台中市北屯區梅川東路五段340號,台中市,北屯區
高雄市仁武區農會大灣分部站(多站),120.341567,22.676891,台灣高雄市仁武區仁雄路100號,高雄市,仁武區
正一五金行更生店站(多站),121.144105,22.761046,950台灣台東縣台東市更生路299之2號1 樓,台東縣,台東市
中油廣源加油站,121.076837,24.770682,台灣新竹縣芎林鄉富林路三段147號,新竹縣,芎林鄉
新北市中正南路橋下停車場站,121.49314,25.060765,台灣新北市三重區重新路三段90號,新北市,三重區
WO Hotel 窩飯店站(多站),120.288832,22.630958,台灣高雄市前金區七賢二路392號,高雄市,前金區
明新科技大學站(多站),120.990379,24.864654,台灣新竹縣新豐鄉明新街24號,新竹縣,新豐鄉
中油陞泰加油站,120.709507,23.832968,台灣南投縣名間鄉員集路40之36號,南投縣,名間鄉
?亭停車場義華站,120.342716,22.642395,台灣高雄市三民區義忠街37號,高雄市,三民區
宏佳騰汐止康寧店站,121.627349,25.06742,台灣新北市汐止區金龍國小(康寧街),新北市,汐止區
中油九如東寧加油站,120.488893,22.720075,台灣屏東縣九如鄉九如路一段16號,屏東縣,九如鄉
迪卡儂台中北屯店站,120.660152,24.19108,台灣台中市北屯區中清路二段1075號,台中市,北屯區
統冠超市太昌店站(多站),121.574743,23.991339,台灣花蓮縣吉安鄉吉安路一段44號,花蓮縣,吉安鄉
愛買豐原店站(多站),120.734851,24.255753,台灣台中市豐原區水源路420號,台中市,豐原區
7-ELEVEN 姐妹店站(多站),121.55005,23.953448,台灣花蓮縣吉安鄉吉安路五段262之1號,花蓮縣,吉安鄉
Gogoro 五甲服務中心站,120.32698,22.592382,台灣高雄市鳳山區五甲三路57號,高雄市,鳳山區
中油縱貫永大加油站,120.257614,22.988174,台灣台南市仁德區中正路三段583號,台南市,仁德區
中油康寧加油站,121.608415,25.071809,台灣台北市內湖區康寧路三段30號,台北市,內湖區
中油大灣加油站,120.248888,22.998413,台灣台南市永康區復興路69號,台南市,永康區
福懋歸仁加油站,120.308245,22.963787,台灣台南市歸仁區中山路一段117之1號,台南市,歸仁區
臺南市北區公園路停車場站(多站),120.20966,23.00275,台灣台南市北區公園路293-1號,台南市,北區
中油國聖加油站,120.569661,24.094802,台灣彰化縣彰化市中山路三段708號,彰化縣,彰化市
新北市碧華國民小學地下停車場B1F站,121.48914,25.084437,台灣新北市三重區碧華街294巷13號對面號,新北市,三重區
7-ELEVEN 德緯店站,120.203629,23.014208,台灣台南市北區文成一路158號,台南市,北區
臺北市民權公園站(多站),121.558338,25.062066,台灣台北市松山區民權東路四段199號,台北市,松山區
千葉火鍋大昌店站(多站),120.331612,22.645641,台灣高雄市三民區大豐二路２４５巷12號,高雄市,三民區
全聯宜蘭健康店站(多站),121.751398,24.747998,台灣宜蘭縣宜蘭市健康路二段76號,宜蘭縣,宜蘭市
814生鮮超市枋寮店站,120.594594,22.367153,台灣屏東縣枋寮鄉中山路224號,屏東縣,枋寮鄉
Gogoro 三重成功門市站(多站),121.48764,25.05184,台灣新北市三重區成功路121號,新北市,三重區
7-ELEVEN 濱海店站,121.243208,25.104733,台灣桃園市大園區竹圍街45號,桃園市,大園區
eReady 台中旗艦店站(多站),120.692405,24.161347,台灣台中市北區北屯路22-5號,台中市,北區
全聯屏東林森店站,120.494274,22.668561,台灣屏東縣屏東市自由路163、165號,屏東縣,屏東市
全聯小港店北店站(多站),120.351212,22.562672,台灣高雄市小港區店中路159號,高雄市,小港區
中油台糖成功加油站,120.305109,22.596899,台灣高雄市前鎮區成功二路2-2號,高雄市,前鎮區
康是美鳳揚藥局店站(多站),120.35063,22.64083,台灣高雄市鳳山區文衡路379號,高雄市,鳳山區
宜家家居南屯店站,120.642856,24.147611,台灣台中市南屯區向上路二段198號,台中市,南屯區
家樂福便利購桃園文化七店站(多站),121.366802,25.051801,台灣桃園市龜山區文化七路173號,桃園市,龜山區
楓康超市青海店站,120.636411,24.176111,台灣台中市西屯區青海路二段520號,台中市,西屯區
全聯新莊龍安店站,121.413277,25.020932,台灣新北市新莊區中正路893巷2之1號,新北市,新莊區
中油八德路加油站,121.723453,25.104102,台灣基隆市七堵區八德路2-15號,基隆市,七堵區
全聯大園和平店站,121.200064,25.061972,台灣桃園市大園區和平東路65號,桃園市,大園區
車太炫自助洗車竹北嘉興店站,121.033282,24.823609,台灣新竹縣竹北市嘉興路507號,新竹縣,竹北市
佳里國小廣停二停車場站,120.172299,23.163047,台灣台南市佳里區文化路355號,台南市,佳里區
中油東大加油站,120.601056,24.182703,台灣台中市西屯區台灣大道四段1832號,台中市,西屯區
台亞龍潭交流道加油站,121.220292,24.85517,台灣桃園市龍潭區中正路605號,桃園市,龍潭區
西歐新竹中華加油站(多站),120.981899,24.808151,台灣新竹市東區中華路二段67號,新竹市,東區
摩斯漢堡格致店站(多站),121.546446,25.137979,台灣台北市士林區格致路59號,台北市,士林區
新北市石碇區公所站,121.658121,24.991437,台灣新北市石碇區碇坪路一段82號,新北市,石碇區
桃園市楊梅埔心車站後站停車場站,121.182955,24.919665,台灣桃園市楊梅區埔心車站,桃園市,楊梅區
全聯屏東南州店站,120.511703,22.489626,台灣屏東縣南州鄉人和路1-2號,屏東縣,南州鄉
全聯南投集集店站,120.79372,23.82785,台灣南投縣集集鎮民生路9號,南投縣,集集鎮
全聯竹山集山店站,120.700597,23.763265,台灣南投縣竹山鎮集山路三段245號,南投縣,竹山鎮
新北市永和國光路站(多站),121.51958,25.008443,台灣新北市永和區國光路8號,新北市,永和區
Gogoro 蘆洲中原門市店站,121.461656,25.083592,台灣新北市蘆洲區中原路7號,新北市,蘆洲區
Gogoro 鳳山五甲門市站,120.356744,22.620788,台灣高雄市鳳山區南門(兵仔市),高雄市,鳳山區
南投縣南投市公所站(多站),120.686976,23.911492,台灣南投縣南投市玉井街17號,南投縣,南投市
台南市南區萬年三街機車停車場站,120.187187,22.934257,台灣台南市南區明興路925巷146弄52號,台南市,南區
西歐桃園中山加油站,121.26598,24.975859,台灣桃園市桃園區中山路1536號,桃園市,桃園區
新北市中和公園站(多站),121.513233,24.999397,台灣新北市中和區安平路197號,新北市,中和區
全聯台中北屯店站,120.695583,24.167673,台灣台中市北屯區北屯路289-2號,台中市,北屯區
新北市三峽國小地下停車場站,121.367467,24.934933,台灣新北市三峽區中山路60號,新北市,三峽區
新北市養工處新莊思源路站(多站),121.459658,25.056104,台灣新北市新莊區思源路505號,新北市,新莊區
臺中市廣停二停車場站(多站),120.608706,24.106058,台灣台中市烏日區三榮三路118-128號,台中市,烏日區
新北市六張公園站(多站),121.493912,25.069906,台灣新北市三重區六張街66號2樓,新北市,三重區
中油蘇澳加油站(多站),121.847155,24.59617,台灣宜蘭縣蘇澳鎮中原路397號,宜蘭縣,蘇澳鎮
全家沙鹿正英店站(多站),120.580386,24.20982,台灣台中市沙鹿區正英路399號,台中市,沙鹿區
中油八里加油站,121.42297,25.158857,台灣新北市八里區中山路一段1號,新北市,八里區
全聯平鎮環南店站,121.218551,24.940482,台灣桃園市平鎮區環南路三段71號,桃園市,平鎮區
7-ELEVEN 聖華店站,120.93236,24.84112,台灣新竹市北區西濱路一段401號,新竹市,北區
日月亭廣明二站(多站),121.21426,24.95508,台灣桃園市中壢區廣明路139號,桃園市,中壢區
全聯白河國泰店站,120.412931,23.348053,台灣台南市白河區國泰路127號,台南市,白河區
eReady 新莊思源店站(多站),121.459666,25.047207,台灣新北市新莊區思源路245號,新北市,新莊區
全聯新竹武陵店站,120.967768,24.820544,台灣新竹市北區武陵路157-1號,新竹市,北區
Gogoro 蘆洲三民服務中心站,121.470657,25.087825,台灣新北市蘆洲區三民路144號,新北市,蘆洲區
Gogoro 台中公益門市站,120.660591,24.150771,台灣台中市西區公益路199號,台中市,西區
新北市四維公園地下停車場站,121.463922,25.025689,台灣新北市板橋區四維路177巷3弄6號,新北市,板橋區
台電楓港服務所站,120.691541,22.190412,台灣屏東縣枋山鄉德隆路12號,屏東縣,枋山鄉
臺鐵竹中車站(多站),121.031859,24.781093,台灣新竹縣竹東鎮竹中路188號,新竹縣,竹東鎮
中油荒野加油站,121.046966,22.691188,台灣台東縣太麻里鄉2-2,台東縣,太麻里鄉
新北市福營休閒廣場站(多站),121.424266,25.023881,台灣新北市新莊區富國路176巷7號,新北市,新莊區
中油興化加油站,121.464616,25.044648,242台灣新北市新莊區復興路三段115號1 樓,新北市,新莊區
中油大城加油站,120.329561,23.86391,台灣彰化縣大城鄉魚寮路50號,彰化縣,大城鄉
Gogoro 中和員山門市站(多站),121.481292,25.003016,台灣新北市中和區員山路316號,新北市,中和區
新竹士林市場站,120.96016,24.82087,台灣新竹市北區東大路二段477號,新竹市,北區
HiLife 中壢桃合店站,121.244508,24.997162,台灣桃園市中壢區合圳北路二段47號,桃園市,中壢區
淡江大學五虎崗停車場站(多站),121.453163,25.175233,台灣新北市淡水區英專路151號,新北市,淡水區
臺北市金湖路站(多站),121.601101,25.075923,台灣台北市內湖區金湖路268號,台北市,內湖區
華泰電子EMS站(多站),120.307546,22.721327,台灣高雄市楠梓區東三街6822號,高雄市,楠梓區
全聯永康大橋店站,120.230886,23.021062,台灣台南市永康區大橋二街218號,台南市,永康區
中油仁武加油站,120.344502,22.703342,台灣高雄市仁武區仁樂街2號,高雄市,仁武區
中油美得瑞里加油站,121.376592,23.515231,台灣花蓮縣瑞穗鄉30-8,花蓮縣,瑞穗鄉
台南市東區裕文圖書館停車場站,120.245843,22.982203,台灣台南市東區裕文路286號,台南市,東區
Gogoro 內湖西湖服務中心站,121.57188,25.082398,114台灣台北市內湖區內湖路一段411巷19弄17 樓3號,台北市,內湖區
7-ELEVEN 宮前店站,120.354365,23.555832,台灣嘉義縣新港鄉嘉民路164號,嘉義縣,新港鄉
中油明維加油站,120.688876,24.077081,台灣台中市大里區大峰路135號,台中市,大里區
中油鎮江加油站,121.194289,24.921711,台灣桃園市平鎮區南平路二段406之9號,桃園市,平鎮區
HiLife 彰縣彰花店站,120.552303,24.011307,台灣彰化縣花壇鄉中山路一段70號,彰化縣,花壇鄉
Gogoro 花蓮中華門市站(多站),121.600223,23.975269,台灣花蓮縣花蓮市台9丙線266號,花蓮縣,花蓮市
7-ELEVEN 宏旺店站(多站),120.688565,23.902807,台灣南投縣南投市復興路38號,南投縣,南投市
臺中市中華停車場站(多站),120.677917,24.148566,台灣台中市北區中華路一段225巷70弄4號,台中市,北區
應安168 永吉場停車場站(多站),121.570325,25.042337,110台灣台北市信義區永吉路120巷83 樓4號,台北市,信義區
中油茄拔加油站,120.327923,23.144619,台灣台南市善化區2-30號,台南市,善化區
家樂福桂林店站(多站),121.505378,25.038158,台灣台北市萬華區桂林路1號,台北市,萬華區
全家新竹龍山店站,121.012326,24.788816,台灣新竹市東區龍山東路230號,新竹市,東區
中油美濃加油站,120.546963,22.894087,台灣高雄市美濃區成功路137號,高雄市,美濃區
新北市中角灣站,121.633296,25.239515,台灣新北市金山區海興路180-3號,新北市,金山區
全聯內埔永光店站,120.564469,22.608832,台灣屏東縣內埔鄉永光路6號,屏東縣,內埔鄉
HiLife 烏日成中店站,120.590445,24.113818,台灣台中市烏日區中山路三段548號,台中市,烏日區
全家台南大興店站,120.182912,23.009285,台灣台南市北區大興街398號,台南市,北區
全聯彰化彰安店站,120.534445,24.064469,台灣彰化縣彰化市中正路二段828號,彰化縣,彰化市
花蓮國安郵局站(多站),121.603961,23.984192,台灣花蓮縣花蓮市中山路408號,花蓮縣,花蓮市
高雄市都發局鼎金後路站(多站),120.321696,22.673114,台灣高雄市三民區鼎金後路566號,高雄市,三民區
家樂福桃園店站,121.306213,25.024363,台灣桃園市桃園區春日路1593號,桃園市,桃園區
中油大林中正路加油站,120.461182,23.609991,台灣嘉義縣大林鎮中正路801號,嘉義縣,大林鎮
中油台中中正加油站,120.537737,24.252833,台灣台中市梧棲區港埠路二段68號,台中市,梧棲區
振興公園地下停車場B1F站(多站),121.523261,25.118785,台灣台北市北投區天母西路112號,台北市,北投區
中油梅山加油站,120.545367,23.58987,台灣嘉義縣梅山鄉中山路746號,嘉義縣,梅山鄉
中油柑園南榮加油站(多站),121.288727,25.057573,台灣桃園市蘆竹區南山路一段317號,桃園市,蘆竹區
中油大潮州加油站,120.516407,22.574498,台灣屏東縣竹田鄉大成路35號,屏東縣,竹田鄉
西湖公園站(多站),121.57061,25.083971,114台灣台北市內湖區內湖路一段411巷68 樓26號,台北市,內湖區
臺北市災害應變中心地下停車場B1F站,121.565942,25.029023,110台灣台北市信義區莊敬路391巷11弄2 樓7號,台北市,信義區
山隆員林加油站(多站),120.566004,23.951055,台灣彰化縣員林市中山路一段399號,彰化縣,員林市
HiLife 鳳山文東店站(多站),120.368378,22.640711,台灣高雄市鳳山區文龍東路245號,高雄市,鳳山區
全家沙鹿金斗店站(多站),120.569034,24.216638,台灣台中市沙鹿區南斗路29號,台中市,沙鹿區
和春技術學院大寮校區站(多站),120.391586,22.634332,台灣高雄市大寮區和春技術學院大寮校區,高雄市,大寮區
楓康超市崇德店站,120.686197,24.191275,台灣台中市北屯區崇德路三段463號,台中市,北屯區
7-ELEVEN 誠安店站,121.550004,25.038854,106台灣台北市大安區敦化南路一段247巷12 樓3號,台北市,大安區
7-ELEVEN 鼎利店站,120.32895,22.96459,台灣台南市關廟區南雄路二段210號,台南市,關廟區
Gogoro 桃園藝文店站,121.305131,25.014391,台灣桃園市桃園區大興西路一段163號,桃園市,桃園區
7-ELEVEN 航發店站,120.650286,24.175841,台灣台中市西屯區河南路二段242號,台中市,西屯區
府前廣場地下停車場B1F站,121.563119,25.036104,台灣台北市信義區松壽路1號B1樓,台北市,信義區
中油田中加油站,120.591092,23.849777,台灣彰化縣田中鎮員集路一段765號,彰化縣,田中鎮
全聯八德大湳店站(多站),121.29478,24.961064,台灣桃園市八德區福國北街79號,桃園市,八德區
Gogoro 板橋南雅西服務中心站,121.451628,25.014535,台灣新北市板橋區南雅西路二段247號,新北市,板橋區
台北捷運劍南路站(多站),121.55456,25.08464,台灣台北市中山區敬業二路200號,台北市,中山區
臺鐵大慶車站(多站),120.647547,24.118577,台灣台中市南區建國南路一段68號,台中市,南區
中油中正三路加油站,120.310532,22.630478,台灣高雄市新興區中正三路9號,高雄市,新興區
臺中市廣民停車場站(多站),120.673561,24.139147,台灣台中市西區大明街17巷37號,台中市,西區
中油挖仔加油站,120.43538,23.95325,台灣彰化縣二林鎮二溪路七段554號,彰化縣,二林鎮
屏東縣大灣路停車場站,120.796424,21.944979,台灣屏東縣恆春鎮大灣路262之1號,屏東縣,恆春鎮
7-ELEVEN 亮亞店站(多站),121.2578,25.020779,台灣桃園市蘆竹區大福路189號,桃園市,蘆竹區
中油申昌加油站,120.712752,24.569936,台灣苗栗縣後龍鎮中山路197號,苗栗縣,後龍鎮
全家路竹竹東店站,120.257211,22.864854,台灣高雄市路竹區中山路713號,高雄市,路竹區
全家新竹中華店站,120.952323,24.756943,台灣新竹市香山區五福路二段772號,新竹市,香山區
山隆林口加油站,121.383464,25.090349,台灣新北市林口區文化二路二段553號,新北市,林口區
新北市溪美立體停車場站(多站),121.490272,25.078156,台灣新北市三重區自強路四段55號,新北市,三重區
全家新健康店站,121.555217,25.053317,台灣台北市松山區南京東路四段133巷9弄2-2號,台北市,松山區
7-ELEVEN 明道店站,120.513172,23.869201,台灣彰化縣溪州鄉中山路四段627號,彰化縣,溪州鄉
長榮崇明停車場站,120.216129,22.982566,台灣台南市東區台南市東區,台南市,東區
HiLife 桃縣桃濱店站,121.030577,24.989052,台灣桃園市新屋區114縣道652號,桃園市,新屋區
中油永錡彭厝加油站,121.415669,24.971815,台灣新北市樹林區太平路395號,新北市,樹林區
中油潮州加油站,120.54029,22.557001,台灣屏東縣潮州鎮延平路226號,屏東縣,潮州鎮
全家台南三喜店站,120.178386,22.941226,台灣台南市南區喜樹路155號,台南市,南區
家樂福楠梓店站,120.291102,22.727367,台灣高雄市楠梓區藍田路288號,高雄市,楠梓區
新北市萬板高架橋下停車場站(多站),121.477644,25.025171,台灣新北市板橋區萬板路312巷310號,新北市,板橋區
臺鐵千甲車站,121.001892,24.807208,台灣新竹市東區千甲路131號千甲葡萄園(本地現採葡萄),新竹市,東區
新北市鷺江立體停車場站(多站),121.47674,25.086104,台灣新北市蘆洲區民權路26號,新北市,蘆洲區
臺中市永興停車場站(多站),120.681851,24.165032,台灣台中市北區太原路二段223號,台中市,北區
中油國賓加油站,120.18869,23.165475,台灣台南市佳里區1之9,台南市,佳里區
Gogoro 桃園中華門市店站,121.311672,24.991272,台灣桃園市桃園區統領百貨,桃園市,桃園區
中油萬隆加油站,121.539192,25.004494,台灣台北市文山區興隆路一段3號,台北市,文山區
三重後竹圍親子館站,121.491046,25.072145,台灣新北市三重區忠孝路一段57號,新北市,三重區
新北市慈化公園站(多站),121.488712,25.084536,台灣新北市三重區碧華街294巷25號,新北市,三重區
814生鮮超市龍泉店站(多站),120.600804,22.674976,台灣屏東縣內埔鄉榮民醫院,屏東縣,內埔鄉
中油千億加油站,121.197984,24.931689,台灣桃園市平鎮區快速路三段687號,桃園市,平鎮區
新北市新店高中地下停車場站(多站),121.534401,24.974688,台灣新北市新店區三民路165號,新北市,新店區
新北市仁信段平面停車場站(多站),121.495959,25.078995,台灣新北市三重區仁愛街225巷7弄33號,新北市,三重區
中油官田工業區加油站,120.322963,23.210508,台灣台南市官田區工業路23之1號,台南市,官田區
7-ELEVEN 亮宏店站,120.347648,22.641637,台灣高雄市鳳山區文衡路558號1F,高雄市,鳳山區
全家土城頂埔店站,121.414774,24.95681,台灣新北市土城??山公路262號,新北市,土城區
宏佳騰嘉義興業西店站,120.44584,23.468395,台灣嘉義市西區興業西路19號,嘉義市,西區
全家土城新亞店站,121.433338,24.971136,台灣新北市土城區亞洲路57號,新北市,土城區
臺中市東區區公所站(多站),120.703963,24.137038,台灣台中市東區長福路196號,台中市,東區
中油潭子加油站,120.708372,24.231314,台灣台中市潭子區中山路三段409號,台中市,潭子區
中油台糖龍林加油站,120.327562,23.719955,台灣雲林縣褒忠鄉46-18,雲林縣,褒忠鄉
深坑帝品苑前停車場站(多站),121.602151,25.003395,台灣新北市深坑區106縣道159號,新北市,深坑區
新北市臺北大學特定區停一停車場站(多站),121.378491,24.945283,台灣新北市樹林區大義路216號,新北市,樹林區
台亞精武加油站,120.706069,24.148027,台灣台中市東區東英路697號,台中市,東區
花蓮市公所站(多站),121.606733,23.982203,台灣花蓮縣花蓮市林森路254號,花蓮縣,花蓮市
全聯台南裕農店站(多站),120.231162,22.98758,台灣台南市東區裕農路400號,台南市,東區
統一速邁樂龍潭二加油站(多站),121.228071,24.872387,台灣桃園市龍潭區中興路448號,桃園市,龍潭區
宏佳騰新竹北大店站,120.961431,24.805695,台灣新竹市北區北大路350號,新竹市,北區
中油大埔加油站,121.366463,24.915079,台灣新北市三峽區台3線165號,新北市,三峽區
臺北市前港公園站(多站),121.521316,25.084961,台灣台北市士林區後港街054號,台北市,士林區
全家中壢青埔店站(多站),121.20221,25.00731,台灣桃園市中壢區民權路四段309號,桃園市,中壢區
全聯嘉義民國店站,120.460929,23.475652,台灣嘉義市東區民國路30號,嘉義市,東區
北昌路停車場站(多站),120.37233,22.64624,台灣高雄市鳳山區北昌路66號,高雄市,鳳山區
新北市養工處樹林大安路站(多站),121.422106,24.997698,台灣新北市樹林區大安路109號,新北市,樹林區
全家政富店站,121.577154,24.987453,台灣台北市文山區指南路二段147號,台北市,文山區
新北市永和仁愛公園站(永平路側)B,121.507917,25.012028,台灣新北市永和區永平路284巷6號,新北市,永和區
新北市國光公園停車場站(多站),121.453853,25.019846,台灣新北市板橋區中正路379巷3弄37號,新北市,板橋區
Global Mall 屏東站(多站),120.49305,22.673036,台灣屏東縣屏東市仁愛路75-7號,屏東縣,屏東市
全聯台南林森店站,120.220789,22.982401,台灣台南市東區崇善路23號,台南市,東區
Gogoro 安平中華門市站,120.186714,22.988071,台灣台南市安平區家樂福,台南市,安平區
臺北市興隆市場站(多站),121.547342,24.999647,台灣台北市文山區興隆路二段109號,台北市,文山區
全家霧峰朝科大店站(多站),120.714772,24.074542,台灣台中市霧峰區吉峰東自強路口,台中市,霧峰區
中油建工路加油站,120.324561,22.650694,台灣高雄市三民區新民路15號,高雄市,三民區
中油豐田加油站,120.540842,22.634658,台灣屏東縣內埔鄉中正路467號,屏東縣,內埔鄉
全聯台南新化店站,120.30702,23.039989,台灣台南市新化區中正路540-1號540-2號,台南市,新化區
台電土城服務所站(多站),121.439843,24.970886,台灣新北市土城區興城路120號,新北市,土城區
北基百利瑞光加油站(多站),120.502903,22.691814,台灣屏東縣屏東市瑞光路三段202號,屏東縣,屏東市
中油鹿港中正路加油站,120.441946,24.050184,台灣彰化縣福興鄉中正路72號,彰化縣,福興鄉
新北市環河西路二段站(多站),121.510265,25.017351,台灣新北市永和區環河西路二段3巷7號,新北市,永和區
台北喜來登大飯店站(多站),121.521595,25.044637,台灣台北市中正區忠孝東路一段12號17樓,台北市,中正區
耕讀園台中市政店站(多站),120.639992,24.157559,台灣台中市西屯區惠文五街68號,台中市,西屯區
全家太平新豐年店站(多站),120.724601,24.141833,台灣台中市太平區大源十八街1號,台中市,太平區
臺中市大墩停車場站(多站),120.648252,24.156259,台灣台中市西屯?大容東一街25號6樓,台中市,西屯區
中油歸仁加油站,120.282746,22.967883,台灣台南市歸仁區中山路三段199號,台南市,歸仁區
新北市基層選手游泳訓練館站(多站),121.52273,24.998371,台灣新北市永和區得和路202之1號,新北市,永和區
台灣表面黏著科技站,121.321589,24.978821,台灣桃園市桃園區桃鶯路322-2號,桃園市,桃園區
中油大昌八八加油站,121.221707,24.866703,台灣桃園市龍潭區大昌路二段78之1號,桃園市,龍潭區
全聯新竹振興店站(多站),120.960809,24.795364,台灣新竹市東區振興路114號,新竹市,東區
HiLife 竹北皇家店站,121.02618,24.824858,台灣新竹縣竹北市莊敬三路117號,新竹縣,竹北市
全聯鳳山國泰店站,120.362511,22.614691,台灣高雄市鳳山區國泰路一段125號,高雄市,鳳山區
中油義和加油站,120.478746,23.775305,台灣雲林縣西螺鎮埤源[日統],雲林縣,西螺鎮
新北市後港公園站(多站),121.428456,25.025839,台灣新北市新莊區建安街26巷6弄1號,新北市,新莊區
全聯大溪文化店站,121.293515,24.881696,台灣桃園市大溪區文化路82號,桃園市,大溪區
7-ELEVEN 山民店站(多站),121.324254,24.995423,台灣桃園市龜山區三民路100號,桃園市,龜山區
中油中苗加油站,120.821368,24.560281,台灣苗栗縣苗栗市中山路439號,苗栗縣,苗栗市
屏東縣琉球鄉立圖書館站,120.378297,22.34812,台灣屏東縣琉球鄉屏201鄉道49號,屏東縣,琉球鄉
中油福樂加油站,120.43618,24.03622,台灣彰化縣福興鄉員鹿路二段11號,彰化縣,福興鄉
中油金田加油站,120.304551,23.08454,台灣台南市新市區中山路10之16號,台南市,區
7-ELEVEN 芬農店站,120.627379,24.018041,台灣彰化縣芬園鄉彰南路四段337號1樓,彰化縣,芬園鄉
全家太平新興中店站(多站),120.720918,24.13053,台灣台中市太平區永平路一段11號,台中市,太平區
中油安順加油站,120.195624,23.043006,台灣台南市安南區安中路一段650號,台南市,安南區
臺北市南港自來水加壓站(多站),121.61638,25.048139,台灣台北市南港區六福公園,台北市,南港區
中油初鹿加油站,121.092317,22.853035,台灣台東縣卑南鄉忠孝路32號,台東縣,卑南鄉
Gogoro 台中三民店站,120.684871,24.151344,台灣台中市北區三民路三段146號,台中市,北區
楓康超市太平店站,120.71048,24.151428,台灣台中市太平區樹德路67-1號,台中市,太平區
麗車坊內湖旗艦店站(多站),121.57958,25.059463,台灣台北市內湖區舊宗路一段86號,台北市,內湖區
HiLife 高市藍田店站(多站),120.280502,22.72746,台灣高雄市楠梓區藍田路948號,高雄市,楠梓區
新竹南寮市場站,120.936306,24.841372,台灣新竹市北區東大路四段32號,新竹市,北區
中油信義加油站,121.323455,23.325211,台灣花蓮縣玉里鎮台9線20號,花蓮縣,玉里鎮
全家永康文化店站,120.257934,23.016012,台灣台南市永康區文化路118號,台南市,永康區
宜蘭縣五結鄉農會站(多站),121.797647,24.685154,台灣宜蘭縣五結鄉五結中路二段7號,宜蘭縣,五結鄉
桃園市八德國民運動中心站(多站),121.293186,24.960591,台灣桃園市八德區國際路42號,桃園市,八德區
中油橋頭加油站,120.307702,22.762285,台灣高雄市橋頭區德松路1-20號,高雄市,橋頭區
新北市公兒四站,121.410908,25.156588,台灣新北市八里區文昌路62號,新北市,八里區
全聯田中新福店站,120.587515,23.863562,台灣彰化縣田中鎮福安路285號,彰化縣,田中鎮
7-ELEVEN 巨峰店站,120.533386,24.061405,台灣彰化縣彰化市天祥路359號,彰化縣,彰化市
中油新集集加油站,120.772413,23.821959,台灣南投縣集集鎮名水路二段500號,南投縣,集集鎮
嘉義市港坪運動公園一停車場站,120.423052,23.476278,台灣嘉義市西區金山路277號號,嘉義市,西區
全家太平建興店站(多站),120.726768,24.127304,台灣台中市太平區建興路266號,台中市,太平區
中油枋寮北加油站,120.595983,22.382897,台灣屏東縣枋寮鄉中山路二段180號,屏東縣,枋寮鄉
中油崇善加油站,120.229883,22.973078,台灣台南市東區崇善六街1號,台南市,東區
中油文中南加油站,121.270949,24.992269,台灣桃園市蘆竹區文中路一段90號,桃園市,蘆竹區
中油南鼓山加油站,120.275132,22.622005,台灣高雄市鼓山區捷興二街46號,高雄市,鼓山區
第一銀行大稻埕分行站(多站),121.510055,25.055862,103台灣台北市大同區迪化街一段65號號 No,台北市,大同區
台灣柒天精品旅店站(多站),121.491088,25.032185,台灣台北市萬華區環河南路二段282號,台北市,萬華區
全家永康鹽洲店站(多站),120.232072,23.042177,台灣台南市永康區鹽忠街127號,台南市,永康區
7-ELEVEN 南濱店站,121.601341,23.955854,台灣花蓮縣吉安鄉南濱路一段116-1號,花蓮縣,吉安鄉
南山人壽新竹科技大樓站,121.004877,24.799743,台灣新竹市東區公道五路二段178號三樓號,新竹市,東區
UNIQLO 彰化中央路店站,120.528268,24.066731,台灣彰化縣彰化市中央路222號,彰化縣,彰化市
新北市訊塘廣場站(多站),121.395259,25.142856,台灣新北市八里區義民街41號,新北市,八里區
Gogoro 彰化中山門市站,120.544137,24.076705,台灣彰化縣彰化市中山路二段437號,彰化縣,彰化市
Gogoro 汐止大同服務中心站,121.65516,25.066324,台灣新北市汐止區大同路二段284號,新北市,汐止區
全家仁武仁龍店站(多站),120.374365,22.696391,台灣高雄市仁武區仁林路190號,高雄市,仁武區
中油瑞豐加油站,120.336488,22.604742,台灣高雄市前鎮區瑞福路6之1號,高雄市,前鎮區
中油白鷺加油站(多站),121.27538,24.95979,台灣桃園市八德區廣福路946號,桃園市,八德區
中油員林加油站,120.57136,23.971416,台灣彰化縣員林市中山路二段505號,彰化縣,員林市
家樂福內湖店站,121.575013,25.0605,台灣台北市內湖區民善街106號,台北市,內湖區
7-ELEVEN 金大安店站,120.588347,24.34415,台灣台中市大安區中山南路241號,台中市,大安區
中油光美加油站,120.904366,24.738554,台灣苗栗縣竹南鎮公義路2433之11號,苗栗縣,竹南鎮
Gogoro 竹東長春服務中心站,121.089391,24.736112,台灣新竹縣竹東鎮長春路一段278號,新竹縣,竹東鎮
中油彰秀加油站,120.50453,24.04086,台灣彰化縣秀水鄉安樂街20號,彰化縣,秀水鄉
HiLife 屏東崇朝店站,120.475239,22.687646,台灣屏東縣屏東市崇朝路189號,屏東縣,屏東市
新北市成州停車場站,121.447803,25.100646,台灣新北市五股區凌雲路一段149巷61號後方,新北市,五股區
南投埔里鎮公所站,120.969337,23.966754,台灣南投縣埔里鎮鎮公所,南投縣,埔里鎮
新北市永和仁愛公園站(仁愛路側)A,121.506013,25.00996,台灣新北市永和區仁愛路295-273號,新北市,永和區
Gogoro 東區崇德門市站,120.22744,22.971333,台灣台南市東區崇德路598號,台南市,東區
中油中華路東加油站,120.226121,22.977093,台灣台南市東區中華東路三段171號,台南市,東區
7-ELEVEN 鄭子寮店站,120.20153,23.01909,台灣台南市北區北成路442號,台南市,北區
中油高楠加油站,120.317252,22.671331,台灣高雄市左營區民族一路702-2號,高雄市,左營區
中油臨海工業區加油站,120.370755,22.543015,台灣高雄市小港區沿海二路2號,高雄市,小港區
中油桃園埔心加油站,121.174585,24.911862,台灣桃園市楊梅區中山北路二段308號,桃園市,楊梅區
中油大同加油站,121.604484,24.67134,台灣宜蘭縣大同鄉泰雅路一段60號,宜蘭縣,大同鄉
中油忠溪加油站,120.485595,23.948246,台灣彰化縣溪湖鎮崙子腳路142號,彰化縣,溪湖鎮
Gogoro 嘉義中山店站(多站),120.444464,23.479525,台灣嘉義市西區中山路440號,嘉義市,西區
7-ELEVEN 速達店站,121.222495,24.984965,台灣桃園市中壢區聖德學院,桃園市,中壢區
新北市野柳地質公園站,121.689941,25.20504,台灣新北市萬里區港東路159號,新北市,萬里區
中油群邦加油站,120.54259,23.91019,台灣彰化縣永靖鄉中山路一段420號,彰化縣,永靖鄉
台北捷運六張犁站(多站),121.553089,25.023707,台灣台北市大安區和平東路三段168號,台北市,大安區
7-ELEVEN 湳港店站(多站),120.54623,23.917418,台灣彰化縣永靖鄉中山路一段842-6號,彰化縣,永靖鄉
全聯岡山岡燕店站(多站),120.306956,22.791352,台灣高雄市岡山區岡燕路340號,高雄市,岡山區
Gogoro 屏東潮州門市站(多站),120.537457,22.549792,台灣屏東縣潮州鎮中山路175號,屏東縣,潮州鎮
臺中市大地生活廣場站(多站),120.707422,24.183154,台灣台中市北屯區舊社巷58-1號,台中市,北屯區
中油善化加油站,120.292798,23.132337,台灣台南市善化區移民署,台南市,善化區
中油元斗北斗加油站,120.513988,23.870399,台灣彰化縣北斗鎮中山路一段231號之1,彰化縣,北斗鎮
7-ELEVEN 寶豐店站,120.988151,24.768425,台灣新竹市東區高峰路536巷58-1號,新竹市,東區
中油二水加油站,120.620908,23.805431,台灣彰化縣二水鄉南通路二段678號,彰化縣,二水鄉
全聯台中松五店站,120.713462,24.177069,台灣台中市北屯區松竹五路二段180號,台中市,北屯區
18事紀館紅樓站(多站),120.322894,22.687801,台灣高雄市左營區榮總路522巷17號,高雄市,左營區
全聯竹北隘口店站(多站),121.033454,24.803375,台灣新竹縣竹北市隘口六街57號,新竹縣,竹北市
全聯羅東光榮店站,121.777907,24.673989,台灣宜蘭縣羅東鎮光榮路198號,宜蘭縣,羅東鎮
美濃中興路站,120.529578,22.886357,台灣高雄市美濃區中興路一段819號,高雄市,美濃區
更生保護會基隆路站(多站),121.555313,25.027044,台灣台北市大安區基隆路二段170號,台北市,大安區
中油五權西路加油站,120.641,24.141609,台灣台中市南屯區惠中路三段393-2號,台中市,南屯區
HiLife 中縣中秋店站,120.549583,24.148489,台灣台中市大肚區自由路200巷212號,台中市,大肚區
Gogoro 基隆基金門市站,121.696035,25.156003,台灣基隆市安樂區基金三路125號,基隆市,安樂區
中油柑園三峽加油站,121.387626,24.934222,台灣新北市三峽區介壽路一段385號,新北市,三峽區
全聯鹿港鹿草店站(多站),120.436666,24.066043,台灣彰化縣鹿港鎮鹿草路一段473號,彰化縣,鹿港鎮
7-ELEVEN 鑫工和店站(多站),120.589751,24.176291,台灣台中市西屯區順和二街33號,台中市,西屯區
臺中市南區區公所站(多站),120.663283,24.117163,台灣台中市南區工學路82號,台中市,南區
中油鶯桃路加油站,121.340461,24.952924,台灣新北市鶯歌區鶯桃路67巷2號,新北市,鶯歌區
臺北市玉泉公園站(多站),121.507894,25.049809,台灣台北市大同區西寧北路3巷1號,台北市,大同區
中油馬公加油站(多站),119.568292,23.565134,台灣澎湖縣馬公市民福路47號,澎湖縣,馬公市
中油昌平路加油站,120.690629,24.170884,台灣台中市北屯區昌平路一段95-5號,台中市,北屯區
高雄創新卓越站,120.32884,22.7508,台灣高雄市楠梓區芎蕉路216號,高雄市,楠梓區
HiLife 彰化國聖店站,120.569448,24.094589,台灣彰化縣彰化市中山路三段706號,彰化縣,彰化市
宏佳騰花蓮國聯店站,121.600827,23.98925,台灣花蓮縣花蓮市國聯一路199號,花蓮縣,花蓮市
7-ELEVEN 善和店站,120.298122,23.129703,台灣台南市善化區大成路319號,台南市,善化區
全聯西螺福來店站(多站),120.450393,23.798732,台灣雲林縣西螺鎮福來路390號,雲林縣,西螺鎮
7-ELEVEN 華電店站,121.553581,25.027565,台灣台北市大安區通化街175號,台北市,大安區
台南市北區北安路一段212巷停車場站(多站),120.208307,23.019032,台灣台南市北區北安路一段212巷29號,台南市,北區
A21 環北站,121.221041,24.967686,台灣桃園市中壢區中豐北路一段26號,桃園市,中壢區
中油中社加油站,120.993262,24.842901,台灣新竹縣竹北市中正西路461號,新竹縣,竹北市
中油光州加油站,120.159819,22.991259,台灣台南市安平區安平雅樂軒酒店,台南市,安平區
全家平溪十分店站,121.779322,25.044611,台灣新北市平溪區靜安路三段331號,新北市,平溪區
鳳頂路停車場站(多站),120.357761,22.590838,台灣高雄市鳳山區園茂路60號,高雄市,鳳山區
全家仁德二空店站(多站),120.227734,22.958014,台灣台南市仁德區崇德路10號,台南市,仁德區
新北市仁愛立體停車場站,121.471511,25.090698,台灣新北市蘆洲區民權路141號,新北市,蘆洲區
HiLife 屏東豐光店站,120.50795,22.678431,台灣屏東縣屏東市瑞光路二段230號900,屏東縣,屏東市
福懋文心路加油站(多站),120.685877,24.17234,台灣台中市北屯區文心路四段613號,台中市,北屯區
全家高雄美明店站(多站),120.288815,22.665652,台灣高雄市鼓山區美明路102號,高雄市,鼓山區
7-ELEVEN 福田店站,120.65923,24.1111,台灣台中市南區文心南路885號,台中市,南區
中油那拔林加油站,120.336858,23.064158,台灣台南市新化區71,台南市,新化區
中油九如加油站,120.488982,22.727922,台灣屏東縣九如鄉九如路二段26號,屏東縣,九如鄉
7-ELEVEN 林田山店站,121.422372,23.713961,台灣花蓮縣鳳林鎮長橋路108號1樓,花蓮縣,鳳林鎮
新北市瑞芳區立體停車場站,121.809399,25.108127,台灣新北市瑞芳區民權街3-1號,新北市,瑞芳區
車麗屋台中崇德店站,120.682585,24.177656,台灣台中市北屯區崇德二路二段225號,台中市,北屯區
中油軍校路加油站,120.292887,22.708762,台灣高雄市楠梓區軍校路745號,高雄市,楠梓區
全家台中金原店站(多站),120.692277,24.165089,台灣台中市北屯區太原路三段217號,台中市,北屯區
振宇五金鳳山店站,120.355977,22.641974,台灣高雄市鳳山區文龍東路665號,高雄市,鳳山區
特力屋高雄鳳山店站(多站),120.342937,22.605747,台灣高雄市鳳山區同明街9巷8號,高雄市,鳳山區
中華電信內壢服務中心站(多站),121.261672,24.969019,台灣桃園市中壢區興仁路一段188號,桃園市,中壢區
小北百貨新莊中港二店站,121.454762,25.041627,242台灣新北市新莊區中港路195、197、199 號,新北市,新莊區
Gogoro 高雄三多門市站,120.30659,22.614778,台灣高雄市苓雅區三多三路222號,高雄市,苓雅區
7-ELEVEN 湖華店站(多站),120.185863,23.003289,台灣台南市中西區西湖街58號,台南市,中西區
PGO 永康中華店站,120.229869,23.015237,台灣台南市永康區中華路670號,台南市,永康區
大潤發中和景平店B3F站(多站),121.515574,24.99254,台灣新北市中和區景平路200號,新北市,中和區
7-ELEVEN 祐瑄店站,120.570227,24.24387,台灣台中市沙鹿區賢忠街66號,台中市,沙鹿區
全聯台南歸仁店站(多站),120.295943,22.964822,台灣台南市歸仁區中正三街82號,台南市,歸仁區
臺中福利站(多站),120.687336,24.142862,台灣台中市東區立體停車場(自由路),台中市,東區
全家楊梅瑞溪店站,121.170332,24.907271,台灣桃園市楊梅區瑞溪路一段129號,桃園市,楊梅區
全家車城風車店站,120.713596,22.06913,台灣屏東縣車城鄉中山路2之1號,屏東縣,車城鄉
中油嘉義信義路加油站,120.42893,23.46881,台灣嘉義市西區博愛路二段519號,嘉義市,西區
建成國中地下停車場B1F站,121.519618,25.050452,台灣台北市大同區長安西路37號,台北市,大同區
7-ELEVEN 岦湖店站,120.906032,24.741642,台灣新竹市香山區內湖路138號,新竹市,香山區
中油通霄加油站,120.679911,24.493126,357台灣苗栗縣通霄鎮中山路27鄰339-1號 (中油通霄站北上50公尺處,苗栗縣,通霄鎮
全聯仁武八德店站,120.338733,22.685802,台灣高雄市仁武區八德中路56號,高雄市,仁武區
中油嘉義中山路加油站,120.459518,23.482253,台灣嘉義市東區中山路86號,嘉義市,東區
中油學甲加油站,120.18265,23.229819,台灣台南市學甲區華宗路311號,台南市,學甲區
臺中市中央公園公51站(多站),120.655118,24.175696,台灣台中市西屯區甘肅路二段143號,台中市,西屯區
新竹市台鐵新莊車站前停車場站(多站),121.021009,24.788369,台灣新竹市東區關東路256巷3號,新竹市,東區
龍山里停車場站(多站),120.220082,22.984107,台灣台南市東區東門路二段158巷74號,台南市,東區
Gogoro 中和華中橋服務中心站(多站),121.496606,25.006323,台灣新北市中和區立業路120號,新北市,中和區
桃園市復興停車場站(多站),121.251122,24.975097,台灣桃園市中壢區文化二路與號與號元生二街交叉口旁,桃園市,中壢區
中油信泰加油站,120.520891,23.442269,台灣嘉義縣中埔鄉1-4,嘉義縣,中埔鄉
桃園市南園停車場站,121.228639,24.971464,台灣桃園市中壢區南園二路277號,桃園市,中壢區
臺北市仁愛路林森路口站(多站),121.520866,25.039103,台灣台北市中正區仁愛林森路口,台北市,中正區
7-ELEVEN 怡平店站(多站),120.178925,22.993943,台灣台南市安平區文平路462號,台南市,安平區
國立臺北教育大學站(多站),121.546616,25.024132,台灣台北市大安區和平東路二段136巷21號,台北市,大安區
家樂福南投店站,120.689301,23.905919,台灣南投縣南投市三和三路21號,南投縣,南投市
中油安定交流道加油站,120.235225,23.113438,台灣台南市安定區258-41號,台南市,安定區
峨眉立體停車場B1F站,121.505249,25.044324,台灣台北市萬華區峨眉街83號,台北市,萬華區
中油大翔加油站,120.553893,23.953929,台灣彰化縣埔心鄉員鹿路一段418號,彰化縣,埔心鄉
臺中市惠文停車場站(多站),120.644465,24.146987,台灣台中市南屯區向上惠文路口,台中市,南屯區
停9北港路停車場站,120.433551,23.477877,台灣嘉義市西區北港路230號,嘉義市,西區
中油古坑加油站,120.560197,23.65044,台灣雲林縣古坑鄉中山路291之1號,雲林縣,古坑鄉
中油中寮加油站,120.761689,23.88021,台灣南投縣中寮鄉永平路349-13號,南投縣,中寮鄉
臺中市四民仁和人美同榮里聯合活動中心站(多站),120.680654,24.195515,台灣台中市北屯區豐樂一街78號,台中市,北屯區
Gogoro 東勢豐勢門市站,120.829737,24.25278,台灣台中市東勢區豐勢路259號,台中市,東勢區
星巴克中正河北店站(多站),120.32389,22.629717,台灣高雄市苓雅區輕軌凱旋公園站(中正一路),高雄市,苓雅區
中油民權路加油站,120.313404,22.609831,台灣高雄市前鎮區一心一路291號,高雄市,前鎮區
全聯八德興豐店站(多站),121.288976,24.929646,台灣桃園市八德區興豐路420號,桃園市,八德區
臺中市社南里活動中心站(多站),120.684652,24.243765,台灣台中市神??社南街185巷10號,台中市,神岡區
大潤發中壢店站(多站),121.23523,24.955348,台灣桃園市中壢區中北路二段468號,桃園市,中壢區
中油天滿加油站,121.15283,25.052733,台灣桃園市觀音區大觀路一段200號,桃園市,觀音區
臺中市文中臨時停車場站(多站),120.719526,24.157805,411台灣台中市太平區育賢路230 號,台中市,太平區
HiLife 桃縣桃正店站,121.195774,25.056578,台灣桃園市大園區華興路323號,桃園市,大園區
全聯竹北光明店站(多站),121.025609,24.820981,台灣新竹縣竹北市光明六路東一段223號302,新竹縣,竹北市
台糖民族三加油站,120.323873,22.701564,台灣高雄市仁武區高楠公路62號,高雄市,仁武區
7-ELEVEN 鐵鎮店站,121.230231,25.027522,台灣桃園市大園區中正東路二段428號,桃園市,大園區
中油宏福加油站,121.387329,24.933264,台灣新北市三峽區介壽路一段550號,新北市,三峽區
新北市建國一路平面停車場站(多站),121.434279,25.024116,台灣新北市新莊區建國一路306號9樓,新北市,新莊區
全聯台東更生店站(多站),121.130681,22.773233,台灣台東縣台東市台9線1049號,台東縣,台東市
臺中市精武廣場停車場站(多站),120.686559,24.145789,台灣台中市東區雙十路一段8-23號,台中市,東區
北基忠義加油站,121.34758,25.012286,台灣桃園市龜山區忠義路一段395-1號,桃園市,龜山區
新北市大漢橋下機車停車場站(多站),121.460845,25.03795,台灣新北市新莊區思源路68號,新北市,新莊區
中油信誠加油站,121.44091,25.081543,台灣新北市五股區中興路四段1之6號,新北市,五股區
中油前鎮漁港油氣加油站,120.318642,22.578522,台灣高雄市前鎮區漁港路2號,高雄市,前鎮區
中油鳳山加油站,120.363349,22.620321,台灣高雄市鳳山區中山東路10號,高雄市,鳳山區
國立中興大學站(多站),120.679082,24.121402,台灣台中市南區興大路145號實習商店,台中市,南區
中油上盛加油站,120.557372,22.5946,台灣屏東縣內埔鄉學人路76號,屏東縣,內埔鄉
台鈴工業平鎮廠站,121.198913,24.930229,台灣桃園市平鎮區延平路三段411巷75號,桃園市,平鎮區
新北市永和仁愛公園站(仁愛路側)B,121.506413,25.00996,台灣新北市永和區仁愛路263號,新北市,永和區
YAMAHA 西區美村店站,120.66171,24.134351,台灣台中市西區美村五權八街口,台中市,西區
全家台中太陽店站,120.66766,24.16486,台灣台中市北區太原路一段450-1號,台中市,北區
桃園市新榮平面停車場站,121.21436,24.944687,台灣桃園市平鎮區新德街186號,桃園市,平鎮區
臺鐵玉里站,121.311748,23.330953,台灣花蓮縣玉里鎮康樂街29號,花蓮縣,玉里鎮
中油池上加油站,121.212742,23.12088,台灣台東縣池上鄉中山路25號,台東縣,池上鄉
HiLife 桃縣桃翁店站,121.212399,24.888614,台灣桃園市龍潭區中豐路711號,桃園市,龍潭區
臺北市中山區興安街站(多站),121.540133,25.056206,104台灣台北市中山區興安街64 樓2號,台北市,中山區
中油二崙加油站,120.417315,23.773694,台灣雲林縣二崙鄉中山路一段102號,雲林縣,二崙鄉
中油南靖加油站,120.389446,23.419664,台灣嘉義縣水上鄉三鎮路101-1號,嘉義縣,水上鄉
寶熊漁樂碼頭站(多站),120.70593,24.220375,台灣台中市潭子區圓通南路211號,台中市,潭子區
7-ELEVEN 龍樂店站,120.79818,24.609941,台灣苗栗縣後龍鎮中山路426號,苗栗縣,後龍鎮
中油仁友加油站,120.695428,24.09627,台灣台中市大里區仁化至善路口,台中市,大里區
7-ELEVEN 仁善店站,121.279434,24.910535,台灣桃園市大溪區埔頂路二段181號,桃園市,大溪區
台南市東區前鋒路停車場站(多站),120.212764,22.992917,台灣台南市東區衛民街18之2號,台南市,東區
臺北市新壽公園站(多站),121.529723,25.063185,104台灣台北市中山區新生北路三段3巷55 樓2號,台北市,中山區
新北汐止福安站(多站),121.662436,25.065317,台灣新北市汐止區福安街15號,新北市,汐止區
民有市場地下停車場B1F站,121.546754,25.060856,台灣台北市松山區民權東路三段140巷15號B1-B4,台北市,松山區
全家斗六斗金店站(多站),120.534544,23.70102,台灣雲林縣斗六市中堅西路581號,雲林縣,斗六市
7-ELEVEN 正港店站(多站),120.256475,22.728943,台灣高雄市梓官區中正路186號,高雄市,梓官區
全聯泰山全興店站,121.433825,25.057218,台灣新北市泰山區全興路101號,新北市,泰山區
HiLife 台中中都店站,120.59484,24.19072,台灣台中市西屯區西屯路三段173-25號,台中市,西屯區
新北市義學立體停車場站,121.427022,25.049748,台灣新北市泰山區明志路二段192巷7號,新北市,泰山區
麗車坊安南店站(多站),120.217922,23.046136,台灣台南市安南區安和路三段105號,台南市,安南區
雅香茶莊站,121.649324,24.947535,台灣新北市石碇區北宜路六段13號股巷1號,新北市,石碇區
湖美街公有停車場站,120.180463,23.001348,台灣台南市中西區湖美街60巷19號,台南市,中西區
全聯彰化延平店站(多站),120.542747,24.062169,台灣彰化縣彰化市延平路397巷19弄11號,彰化縣,彰化市
全家中壢米干店站(多站),121.254516,24.93061,台灣桃園市中壢區中正五路228號,桃園市,中壢區
台中南屯運動中心站(多站),120.637541,24.137722,台灣台中市南屯區127縣道990號,台中市,西屯區
家樂福愛河店站,120.285723,22.634166,台灣高雄市三民區河東路356號,高雄市,三民區
全聯彰化溪湖店站,120.475914,23.963511,台灣彰化縣溪湖鎮大發路76號,彰化縣,溪湖鎮
HiLife 新北重武店站,121.492722,25.068296,台灣新北市三重區安慶街203之1號,新北市,三重區
臺中市土庫停車場站(多站),120.65749,24.141334,台灣台中市西區存中街57號,台中市,西區
小北百貨三多店站,120.328157,22.621467,台灣高雄市苓雅區三多一路335號,高雄市,苓雅區
HiLife 桃縣龍吟店站,121.199104,24.848084,台灣桃園市龍潭區中原路一段506號,桃園市,龍潭區
新竹國賓大飯店站(多站),120.97782,24.806758,台灣新竹市東區中華路二段170巷2號四樓之3號,新竹市,東區
全聯麻豆興中店站,120.259262,23.183574,台灣台南市麻豆區興中路248之21號,台南市,麻豆區
新北中和環球購物中心B3F站,121.474833,25.008214,台灣新北市中和區中山路三段122號1號,新北市,中和區
宏佳騰中正重慶店站,121.515211,25.030177,100台灣台北市中正區重慶南路二段73 樓6號,台北市,中正區
全聯彰化自強南店站,120.53032,24.078809,台灣彰化縣彰化市彰化縣彰化市,彰化縣,彰化市
7-ELEVEN 潭厝店站(多站),120.703731,24.201361,台灣台中市潭子區環中東路一段5號,台中市,潭子區
榮光停車場站(多站),120.321595,22.68477,台灣高雄市左營區榮總路341號,高雄市,左營區
中油東港加油站,120.455248,22.471725,台灣屏東縣東港鎮中正路一段87號,屏東縣,東港鎮
HiLife 高縣光明店站,120.420075,22.5909,台灣高雄市大寮區大寮路830號,高雄市,大寮區
中油草屯新豐加油站,120.689767,23.999841,台灣南投縣草屯鎮中正路1615號,南投縣,草屯鎮
新北市海關碼頭對面機車停車場站(多站),121.434842,25.173929,台灣新北市淡水區中正路26巷1號,新北市,淡水區
中油大林加油站,120.349751,22.524538,台灣高雄市小港區鳳華路1號,高雄市,小港區
台糖虎山加油站,120.219298,22.946901,台灣台南市仁德區大同路三段888號,台南市,仁德區
中油烏日高鐵加油站,120.624152,24.109233,台灣台中市烏日區建國路265號,台中市,烏日區
HiLife 仁德二仁店站,120.225661,22.918866,台灣台南市仁德區二仁路一段99號,台南市,仁德區
全家名門店站,121.56801,25.00509,台灣台北市文山區和平東路四段97號,台北市,文山區
台南市南區大成路一段停車場站(多站),120.200407,22.974872,台灣台南市南區大成路一段89號,台南市,南區
桃園市廈門街立體停車場站,121.298093,24.995161,台灣桃園市桃園區忠一路185巷16號,桃園市,桃園區
山隆蘆竹加油站,121.265221,25.063724,台灣桃園市蘆竹區南崁路二段530號,桃園市,蘆竹區
中油建國一路加油站,120.330243,22.632993,台灣高雄市苓雅區建國一路142號,高雄市,苓雅區
中油斗六南環路加油站,120.557314,23.712686,台灣雲林縣斗六市文化路536-2號,雲林縣,斗六市
小北百貨沙鹿北勢東店站,120.577689,24.222549,台灣台中市沙鹿區北勢東路431、433號435、437439號,台中市,沙鹿區
臺北市考選部國家考場站(多站),121.549068,24.98678,116台灣台北市文山區木柵路一段70巷3 之1號,台北市,文山區
新北市中山公園站(多站),121.471333,25.023065,台灣新北市板橋區莊敬路179號,新北市,板橋區
中油烏山頭交流道加油站,120.353667,23.212469,台灣台南市官田區78之15,台南市,官田區
臺鐵潭子車站(多站),120.706134,24.214116,台灣台中市潭子區潭子街一段31巷130號,台中市,潭子區
全家高雄崇明店站,120.330386,22.569622,台灣高雄市小港區崇明街148之6號,高雄市,小港區
員林市公2三角公園站(多站),120.571045,23.962694,台灣彰化縣員林市中山路二段99號員林三角公園,彰化縣,員林市
Gogoro 台南新營門市站,120.312768,23.310661,台灣台南市新營區民治路64號,台南市,新營區
新北市水柳腳立體停車場站,121.710113,24.935566,台灣新北市坪林區水柳腳36號,新北市,坪林區
大寮區公所站(多站),120.395503,22.605393,台灣高雄市大寮區大寮區公所,高雄市,大寮區
中油松本加油站,120.813716,24.539697,台灣苗栗縣苗栗市水源23之2號,苗栗縣,苗栗市
7-ELEVEN 善營店站,120.313715,23.128238,台灣台南市善化區成功路173之1號,台南市,善化區
7-ELEVEN 安安店站(多站),120.133971,23.061261,台灣台南市安南區安明路四段260之70號,台南市,安南區
新北市莊敬立體停車場站(多站),121.473692,25.028516,台灣新北市板橋區雙十路二段187號,新北市,板橋區
家樂福三民店2F站,121.563376,25.061727,台灣台北市松山區三民路160號,台北市,松山區
WorldGym 信義店 Sport 站(多站),121.751174,25.129282,台灣基隆市信義區義六路30號,基隆市,信義區
新北市大安高架橋下平面停車場站(多站),121.432675,24.966165,台灣新北市土城區大安路18號,新北市,土城區
全聯南投水里店站,120.852032,23.807242,台灣南投縣水里鄉南湖路271號,南投縣,水里鄉
臺鐵臺北貨運所樹林車站(多站),121.424694,24.990991,台灣新北市樹林區鎮前街124號,新北市,樹林區
中油大億加油站,120.696815,24.24169,台灣台中市神岡區大億加油站,台中市,神岡區
Gogoro 新店民權門市站,121.534204,24.982884,台灣新北市新店區民權路168號,新北市,新店區
中油車子路加油站(多站),121.504124,24.957271,台灣新北市新店區110縣道281號,新北市,新店區
台南市仁德區保學路停車場站(多站),120.235013,22.919666,台灣台南市仁德區保學路25號,台南市,仁德區
中油東勢加油站,120.824105,24.261643,台灣台中市東勢區豐勢路678號,台中市,東勢區
新北市永和823紀念公園站(多站),121.514838,25.002784,台灣新北市永和區安樂路240號,新北市,永和區
中油健康路加油站,120.174351,22.983791,台灣台南市安平區健康路三段238號,台南市,安平區
7-ELEVEN 萬鑫店站,121.088215,24.935375,台灣桃園市楊梅區民富路三段828號,桃園市,楊梅區
全家台中金頂店站(多站),120.733139,24.170293,台灣台中市北屯區?子路351號,台中市,北屯區
全家永康廣興店站,120.27657,23.020547,台灣台南市永康區西勢路167-203號,台南市,永康區
大社區公所站,120.346743,22.730183,台灣高雄市大社區自強街2號,高雄市,大社區
全聯台南和緯店站,120.207622,23.011943,台灣台南市北區和緯路二段172號,台南市,北區
HiLife 南投國姓店站,120.825901,24.023499,台灣南投縣國姓鄉中正路一段100-1號,南投縣,國姓鄉
新北市浮洲橋下站(機車區)A,121.441359,24.998638,台灣新北市板橋區三抱竹,新北市,板橋區
HiLife 屏東好豐年店站,120.506099,22.679109,台灣屏東縣屏東市豐年街149號,屏東縣,屏東市
新北市景新立體停車場B1F站,121.513148,24.98988,新北市中和區景新街399巷12號 New Taipei 235-10,新北市,中和區
814生鮮超市屏東內埔店站(多站),120.570786,22.614747,台灣屏東縣內埔鄉屏107-1鄉道216號,屏東縣,內埔鄉
全聯柳營中山店站,120.320837,23.278939,台灣台南市柳營區中山西路一段165號,台南市,柳營區
山隆永發加油站,120.245018,22.792839,台灣高雄市彌陀區鹽埕大路160號,高雄市,彌陀區
奇美實業站,120.243088,22.927446,台灣台南市仁德區中正路一段59-2號,台南市,仁德區
HiLife 桃縣頂湖店站,121.359936,25.048042,台灣桃園市龜山區頂湖一街1之1號,桃園市,龜山區
北基雅潭加油站,120.694418,24.215552,台灣台中市潭子區雅潭路二段107號,台中市,潭子區
中油高鐵加油站,121.217309,25.000451,台灣桃園市中壢區新生路三段728號,桃園市,中壢區
久井中庄加油站,120.444401,23.423976,台灣嘉義縣水上鄉131,嘉義縣,水上鄉
中油民雄雙福山加油站,120.437343,23.53123,台灣嘉義縣民雄鄉嘉義縣民雄鄉,嘉義縣,民雄鄉
Gogoro 太平樹德門市站(多站),120.713111,24.159769,台灣台中市太平區中89鄉道315號,台中市,太平區
7-ELEVEN 鳴人店站,120.485538,24.091727,台灣彰化縣鹿港鎮鹿和路四段343號,彰化縣,鹿港鎮
新北市樹林區公所站(多站),121.424404,24.989855,台灣新北市樹林區鎮前街113號,新北市,樹林區
中油彰工加油站,120.422101,24.075214,台灣彰化縣鹿港鎮彰濱五路二段332號,彰化縣,鹿港鎮
臺鐵臺北貨運所南樹林車站(多站),121.409536,24.980542,台灣新北市樹林區中山路二段222-8號,新北市,樹林區
台電新園服務所站,120.460159,22.541239,台灣屏東縣新園鄉台27線54號,屏東縣,新園鄉
全聯烏日長春店站(多站),120.634916,24.107936,台灣台中市烏日區長春街431號,台中市,烏日區
中油鎮安加油站,120.624745,24.131616,台灣台中市南屯區環中路四段558號,台中市,南屯區
Gogoro 三重光復服務中心站,121.471956,25.053521,台灣新北市三重區光復路二段4號,新北市,三重區
中油一品加油站,120.246795,23.434461,台灣嘉義縣朴子市14-16,嘉義縣,朴子市
板橋市民廣場地下停車場B1F站,121.465637,25.014036,台灣新北市板橋區縣民大道二段22號,新北市,板橋區
家樂福中清店站,120.6526,24.2068,台灣台中市西屯區中清路三段436號,台中市,西屯區
大魯閣棒壘球打擊練習場中正館站(多站),121.29363,25.02907,台灣桃園市桃園區中正路1409巷36號,桃園市,桃園區
新北市江翠水岸特區停二站(多站),121.472366,25.034876,台灣新北市板橋區稚匯公園,新北市,板橋區
國立臺北大學臺北校區站(多站),121.542128,25.059419,104台灣台北市中山區錦州街418巷8 樓4號,台北市,中山區
全家歸仁大順店站(多站),120.287952,22.965249,台灣台南市歸仁區大順街170號,台南市,歸仁區
臺鐵橋頭站(多站),120.310198,22.76096,台灣高雄市橋頭區橋頭車站,高雄市,橋頭區
桃園市中路力行停車場站,121.29221,24.99819,台灣桃園市桃園區文中一路95巷59號,桃園市,桃園區
新北市水尾停車場站,121.646641,25.222507,台灣新北市金山區民生路208號,新北市,金山區
全聯台南育安店站,120.215793,23.047001,台灣台南市安南區育安四街87巷22號,台南市,安南區
全聯台中南興店站,120.704305,24.17435,台灣台中市北屯區舊社巷16-1號,台中市,北屯區
車太炫自助洗車新北汐止店站,121.65448,25.068936,台灣新北市汐止區汐萬路一段39-3號,新北市,汐止區
中油中壢工二加油站,121.246983,24.980036,台灣桃園市中壢區吉林路37巷15號,桃園市,中壢區
A3 新北產業園區站(多站),121.459024,25.062153,台灣新北市新莊區五工路59號,新北市,新莊區
新北市養工處新莊復興路一段站(多站),121.44677,25.041936,台灣新北市新莊區新莊棒球場(立功里立德里),新北市,新莊區
中油泰源加油站,121.286858,23.004132,台灣台東縣東河鄉柑桔林路37-3號,台東縣,東河鄉
新北市頂溪國小地下停車場B1F站,121.510774,25.015636,台灣新北市永和區文化路133號,新北市,永和區
臺中市東區十甲里等三里多功能聯合活動中心站(多站),120.704237,24.141273,台灣台中市東區東英七街41號,台中市,東區
全聯屏東崇明店站(多站),120.478221,22.681537,台灣屏東縣屏東市自由崇明路口,屏東縣,屏東市
全家瑞芳龍川店站,121.803944,25.108608,台灣新北市瑞芳區明燈路三段105號,新北市,瑞芳區
享溫馨KTV 台東店站(多站),121.152509,22.757167,台灣台東縣台東市中山路233號,台東縣,台東市
台北捷運江子翠站(多站),121.472598,25.029505,台灣新北市板橋區雙十路二段239號,新北市,板橋區
全聯高雄鳳林店站,120.396096,22.507977,台灣高雄市林園區鳳林路二段37號,高雄市,林園區
台北市環保局三張犁分隊部站,121.570756,25.041486,台灣台北市信義區忠孝東路五段255巷8號,台北市,信義區
7-ELEVEN 安立店站,120.170009,23.049636,台灣台南市安南區本田路三段683巷40弄1號,台南市,安南區
中油南州加油站,120.501593,22.488602,台灣屏東縣南州鄉三民路270號,屏東縣,南州鄉
中油泰和加油站,121.644297,25.00898,台灣新北市石碇區文山路一段8號,新北市,石碇區
HiLife 永康巧遇店站,120.255122,23.015158,台灣台南市永康區永勝街1號,台南市,永康區
新北市淡水稽徵所旁機車場站(多站),121.438156,25.17146,台灣新北市淡水區中正路193號,新北市,淡水區
中油楠埔加油站,120.73526,23.98297,台灣南投縣草屯鎮中正路233之89號,南投縣,草屯鎮
Gogoro 竹北成功服務中心站(多站),121.019861,24.817222,台灣新竹縣竹北市成功八路207號,新竹縣,竹北市
府前永福停車場站(多站),120.200272,22.989632,台灣台南市中西區永福路一段與號359巷交叉口,台南市,中西區
全家善化興華店站(多站),120.297629,23.127156,台灣台南市善化區建國路38號,台南市,善化區
山隆彰化加油站,120.533995,24.053953,台灣彰化縣彰化市中山路一段56-3號,彰化縣,彰化市
全聯永康永大店站,120.260366,23.028514,台灣台南市永康區永大路埔聖街口,台南市,永康區
中油金陵加油站,121.223289,24.940301,台灣桃園市平鎮區金陵路二段123號,桃園市,平鎮區
中油成功路加油站,120.209382,22.998013,台灣台南市北區成功路16號,台南市,北區
中油鹿谷加油站,120.752416,23.748049,台灣南投縣鹿谷鄉中正路二段137號,南投縣,鹿谷鄉
中油台糖中華加油站,120.308152,22.598081,台灣高雄市前鎮區時代大道35號,高雄市,前鎮區
新北市壽德公園站(多站),121.466671,24.994109,台灣新北市中和區民德路332號,新北市,中和區
新北市湖光市民活動中心站,121.633946,25.068681,台灣新北市汐止區康寧街534巷12號,新北市,汐止區
臺灣大道市政大樓附屬平面停車場站(惠中路側)B,120.645466,24.161998,台灣台中市西屯區台中市西屯區,台中市,西屯區
全聯大里練武店站,120.727882,24.091271,台灣台中市大里區大愛一村,台中市,大里區
中油台糖鳳凰加油站,120.71719,24.095053,台灣台中市大里區鳳凰路50號,台中市,大里區
全聯竹北嘉豐店站(多站),121.036572,24.810694,台灣新竹縣竹北市嘉豐十一路一段20號,新竹縣,竹北市
大同社會住宅站(多站),120.293819,22.627095,台灣高雄市前金區自強二路161巷19號,高雄市,前金區
臺中市健體中心站(多站),120.700927,24.060097,台灣台中市霧峰區成功路156號望月峰獻堂登山步道,台中市,霧峰區
中油皇家加油站,120.867206,24.706517,台灣苗栗縣竹南鎮50-6,苗栗縣,竹南鎮
中油西定路加油站,121.732912,25.136227,台灣基隆市中山區西定路190號,基隆市,中山區
中油嘉保加油站(多站),120.299142,23.459116,台灣嘉義縣太保市嘉朴東路一段108號,嘉義縣,太保市
全聯台南中華西店站,120.186202,22.982613,台灣台南市南區西部濱海公路306號,台南市,南區
國立臺中教育大學站(多站),120.670403,24.144806,台灣台中市西區五權民生路口,台中市,西區
中油太麻里加油站,121.00682,22.612863,台灣台東縣太麻里鄉太麻里街157號963,台東縣,太麻里鄉
Gogoro 台北內湖服務中心站,121.608643,25.07039,114台灣台北市內湖區民權東路六段296巷66 之3號,台北市,內湖區
臺北市華山公園站(多站),121.52772,25.047259,台灣台北市中山區長安東路一段52巷66號,台北市,中山區
屏東縣潮州日式歷史建築文化園區站(多站),120.54046,22.552364,台灣屏東縣潮州鎮延平路48號,屏東縣,潮州鎮
7-ELEVEN ?富店站,120.195042,22.975012,台灣台南市南區大成路二段86號,台南市,南區
7-ELEVEN 永久店站,120.483146,22.89171,台灣高雄市旗山區延平一路442號,高雄市,旗山區
全聯竹北勝利店站,121.025536,24.825092,台灣新竹縣竹北市勝利六街34號,新竹縣,竹北市
八卦里停車場站(多站),120.332101,22.682962,台灣高雄市仁武區高53鄉道110號,高雄市,仁武區
福誠停車場站(多站),120.323369,22.593667,台灣高雄市鳳山區福誠三街75號,高雄市,鳳山區
中油幼獅加油站,120.64688,24.39659,台灣台中市大甲區中山路二段847號,台中市,大甲區
中油中森加油站,121.759082,24.77991,台灣宜蘭縣宜蘭市中山路五段501號,宜蘭縣,宜蘭市
中油和源加油站,120.849038,24.574175,台灣苗栗縣頭屋鄉尖豐路141之11號,苗栗縣,頭屋鄉
嘉義市田徑場三停車場站,120.46263,23.470569,台灣嘉義市東區興業東路338號,嘉義市,東區
中油東進加油站,121.13868,22.982488,台灣台東縣鹿野鄉中山路123號,台東縣,鹿野鄉
小北百貨新莊四維店站,121.423953,25.023526,台灣新北市新莊區四維路97巷7號,新北市,新莊區
新北市蘆洲國民運動中心站(多站),121.462069,25.090823,台灣新北市蘆洲區新北市蘆洲區,新北市,蘆洲區
7-ELEVEN 瓏埔店站,120.263524,23.034232,台灣台南市永康區龍埔街110號,台南市,永康區
遼寧街機車停車場站(多站),121.542705,25.053583,台灣台北市中山區遼寧街185巷7弄4-1號,台北市,中山區
中油台糖永安加油站,120.24129,23.049397,台灣台南市永康區永安路350號,台南市,永康區
中油斗南中興路加油站,120.463232,23.677689,台灣雲林縣斗南鎮中興路201號,雲林縣,斗南鎮
台北捷運麟光站(多站),121.558914,25.01827,台灣台北市大安區和平東路三段410號麟光,台北市,大安區
Gogoro 新竹北大店站,120.962147,24.805842,台灣新竹市北區北大路321號6樓,新竹市,北區
新北市養工處樹林三多路站(多站),121.414894,25.006804,台灣新北市樹林區三多路101號,新北市,樹林區
中油巨大加油站,120.941416,23.955802,台灣南投縣埔里鎮玉山景觀公路水里玉山線26號,南投縣,埔里鎮
新北市廣停七平面停車場站,121.367211,25.071873,台灣新北市林口區文化三路一段394巷32號,新北市,林口區
中油正塘加油站,120.92719,24.82729,台灣新竹市北區西濱路一段45號,新竹市,北區
Gogoro 苓雅三多門市站(多站),120.33078,22.622526,台灣高雄市苓雅區三多一路215號,高雄市,苓雅區
高雄市林園停車場站(多站),120.395793,22.502404,台灣高雄市林園區林園南路29號,高雄市,林園區
全聯竹北中華店站(多站),121.005402,24.843012,台灣新竹縣竹北市中華路535號,新竹縣,竹北市
台亞承德加油站(多站),121.503688,25.116727,台灣台北市北投區承德路七段303號,台北市,北投區
全聯士林中正店站,121.528597,25.09573,台灣台北市士林區中正路115號,台北市,士林區
全家嘉義布袋上海店站,120.160877,23.378946,台灣嘉義縣布袋鎮上海路211號,嘉義縣,布袋鎮
Gogoro 板橋民生門市站,121.466921,25.025918,台灣新北市板橋區民生路三段70號,新北市,板橋區
中油台大加油站,121.032016,24.824812,台灣新竹縣竹北市自強北路153號,新竹縣,竹北市
中油鼎山路加油站,120.321817,22.657292,台灣高雄市三民區鼎山街373號,高雄市,三民區
全聯龍井沙田店站(多站),120.548502,24.203421,台灣台中市龍井區沙田路五段382、386號,台中市,龍井區
全家玉井民生店站,120.464793,23.123923,台灣台南市玉井區民族路89號,台南市,玉井區
中油新園加油站(多站),120.463395,22.523886,台灣屏東縣新園鄉興安路54號,屏東縣,新園鄉
?亭中華東路停車場站(多站),120.230919,22.982047,台灣台南市東區東門路三段11巷16號,台南市,東區
新北市合安一路機車停車場站(多站),121.448435,24.998546,台灣新北市板橋區合宜路111號1樓,新北市,板橋區
全聯官田中山店站,120.313079,23.193024,台灣台南市官田區中山路一段226號,台南市,官田區
新北市民樂停車場站(多站),121.483563,25.001612,台灣新北市中和區民樂路67號,新北市,中和區
Gogoro 台中中港門市站(多站),120.619429,24.180489,407台灣台中市西屯區台灣大道四段771號 5號,台中市,西屯區
全家花蓮慈安店站,121.56541,23.996067,台灣花蓮縣吉安鄉花22鄉道876號,花蓮縣,吉安鄉
臺北市南港區向陽路站(多站),121.595508,25.051932,台灣台北市南港區向陽路61號,台北市,南港區
中油斗六加油站,120.52769,23.70079,台灣雲林縣斗六市雲林路二段334號,雲林縣,斗六市
全聯台中四平店站,120.681545,24.193067,台灣台中市北屯區四平路523號,台中市,北屯區
Gogoro 鼓山青海門市站(多站),120.289025,22.65109,台灣高雄市鼓山區青海路113號,高雄市,鼓山區
Gogoro 新竹東勝門市站(多站),120.989117,24.803282,300台灣新竹市東區東勝路5 號,新竹市,東區
景美國小地下停車場B1F站,121.540294,24.9885,台灣台北市文山區景文街142巷2號,台北市,文山區
全聯台中后里店站(多站),120.718117,24.309457,台灣台中市后里區甲后路587號,台中市,后里區
新竹市東大路橋下花園段停車場站(多站),120.97857,24.80356,台灣新竹市東區花園街3號,新竹市,東區
宏佳騰桃園三民店站(多站),121.309573,24.999663,台灣桃園市桃園區三民路二段286之1號,桃園市,桃園區
鴻寶電動車蘆洲三民店站,121.469275,25.088595,台灣新北市蘆洲區103縣道233號,新北市,蘆洲區
全聯永康中華店站(多站),120.230887,23.012833,台灣台南市永康區中華路575號號旁,台南市,永康區
金山停車場站(多站),120.318761,22.661907,台灣高雄市三民區金山路360號,高雄市,三民區
中油加泓加油站,120.243288,23.03525,台灣台南市永康區中正路353號,台南市,永康區
全聯淡水沙崙店站(多站),121.42221,25.181804,台灣新北市淡水區沙崙路64號,新北市,淡水區
中油鳳松加油站,120.362596,22.637151,台灣高雄市鳳山區鳳松路180巷6號,高雄市,鳳山區
中油金泉加油站,121.786558,24.837243,台灣宜蘭縣礁溪鄉礁溪路七段101號,宜蘭縣,礁溪鄉
中油東湖加油站,121.612125,25.067589,114台灣台北市內湖區五分街3 樓5號,台北市,內湖區
康是美虎尾藥局店站(多站),120.43066,23.70594,台灣雲林縣虎尾鎮中正路248之1號,雲林縣,虎尾鎮
基隆市源遠市場站,121.751653,25.097012,台灣基隆市暖暖區暖碇路36之1號,基隆市,暖暖區
台灣高鐵左營站,120.306186,22.685169,台灣高雄市左營區高鐵路105號新左營站,高雄市,左營區
中油通梁加油站,119.562916,23.659261,台灣澎湖縣白沙鄉澎8-1鄉道203號,澎湖縣,白沙鄉
中油詠安加油站,120.60226,24.31076,台灣台中市清水區中華北路299號,台中市,清水區
新北市停三平面停車場站(多站),121.38921,25.078738,台灣新北市林口區中山路121號,新北市,林口區
中油新店五城加油站,121.471149,24.940081,台灣新北市新店區安康路三段800號,新北市,新店區
統冠超市福興店站,121.561082,23.969882,台灣花蓮縣吉安鄉吉安路三段1號,花蓮縣,吉安鄉
中華電信新屋服務中心站(多站),121.108975,24.9713,台灣桃園市新屋區電信街21號,桃園市,新屋區
全家杉林農會店站,120.53212,22.96435,台灣高雄市杉林區杉林農會,高雄市,杉林區
台糖民族二加油站,120.325207,22.711866,台灣高雄市楠梓區高楠公路945號,高雄市,楠梓區
全聯線西中正店站,120.46194,24.129859,台灣彰化縣線西鄉西部濱海公路57號,彰化縣,線西鄉
7-ELEVEN 臻愛店站(多站),121.316112,25.00729,台灣桃園市桃園區大業路一段152號,桃園市,桃園區
中油快速交流道加油站,120.436025,23.435634,台灣嘉義縣水上鄉中義路998號,嘉義縣,水上鄉
全家觀音草漯店站,121.1401,25.045464,台灣桃園市觀音區大觀路二段190-7號,桃園市,觀音區
高雄市立新興高中站(多站),120.30282,22.62613,台灣高雄市新興區文橫一路60號,高雄市,新興區
新北市停七機車停車場站(多站),121.483716,25.05481,241台灣新北市三重區 福祉街 68號,新北市,三重區
新竹市金山十八街停車場站(多站),121.02511,24.777241,台灣新竹市東區金山十八街2-2號,新竹市,東區
臺中市豐原區公所站(多站),120.718374,24.24195,台灣台中市豐原區台中市豐原區,台中市,豐原區
中油柳橋加油站,120.281161,22.79043,台灣高雄市岡山區通校路210號,高雄市,岡山區
Gogoro 萬華南寧門市站,121.503807,25.035375,台灣台北市萬華區南寧路66號,台北市,萬華區
全家樹林三德店站,121.412681,25.012874,台灣新北市樹林區三德街4號之1號,新北市,樹林區
中油良奇加油站,121.07457,24.75306,台灣新竹縣竹東鎮中興路一段109號,新竹縣,竹東鎮
Gogoro 三重集賢門市站,121.48404,25.08824,台灣新北市三重區集賢路186-5號,新北市,三重區
桃園市中路一停車場站,121.290175,25.006915,台灣桃園市桃園區永安路765巷61號,桃園市,桃園區
便利停車場建國站(多站),121.537865,25.053472,台灣台北市中山區建國北路二段11巷1號,台北市,中山區
中油覺民路加油站,120.334571,22.640441,台灣高雄市三民區覺民路360之3號,高雄市,三民區
7-ELEVEN 歡雅店站,120.241721,23.292312,台灣台南市鹽水區26號,台南市,鹽水區
山隆華中加油站,121.498647,25.021848,台灣台北市萬華區萬大路388號,台北市,萬華區
全家台東新生店站(多站),121.138993,22.760306,台灣台東縣台東市開封街646號950,台東縣,台東市
Gogoro 基隆義一門市站,121.746746,25.134712,台灣基隆市中正區義一路87號7號,基隆市,中正區
中油百鼎加油站,121.207722,25.06017,台灣桃園市大園區中正東路340號,桃園市,大園區
家樂褔便利購豐南店站(多站),120.714666,24.239249,台灣台中市豐原區豐南街120號,台中市,豐原區
全家永和國和店站,121.524758,25.005979,台灣新北市永和區國中路86巷2號,新北市,永和區
山隆大雅加油站(多站),120.641383,24.229857,台灣台中市大雅區中清路四段259號,台中市,大雅區
全聯永康北灣店站,120.263246,23.016164,台灣台南市永康區永大路二段936號,台南市,永康區
台亞汐止大同加油站,121.64765,25.063573,台灣新北市汐止區大同路二段41巷8號,新北市,汐止區
中油加豐加油站,120.546324,24.231642,台灣台中市梧棲區中華路一段679號,台中市,梧棲區
台糖大發加油站,120.429165,22.592559,台灣高雄市大寮區大寮路1303號,高雄市,大寮區
中油苗栗豐富加油站,120.830073,24.601626,台灣苗栗縣後龍鎮造豐路170號,苗栗縣,後龍鎮
全家基隆富港店站,121.783701,25.145848,台灣基隆市中正區台2線250號,基隆市,中正區
台亞彰化中央路加油站,120.526816,24.068425,台灣彰化縣彰化市中央路270巷92號,彰化縣,彰化市
福懋水上加油站,120.39336,23.43535,台灣嘉義縣水上鄉嘉朴路222號,嘉義縣,水上鄉
高雄市養工處同盟一路站(多站),120.311114,22.648628,台灣高雄市三民區同盟一路綜合集會場,高雄市,三民區
中油三星加油站,121.657552,24.667171,台灣宜蘭縣三星鄉三星路四段235號,宜蘭縣,三星鄉
中油虎尾新生路加油站,120.436238,23.707167,台灣雲林縣虎尾鎮新生路153之1號,雲林縣,虎尾鎮
天母大葉高島屋百貨公司站(多站),121.53174,25.111278,台灣台北市士林區忠誠路二段53巷17號,台北市,士林區
新北市土城國民運動中心站(多站),121.457384,24.985064,台灣新北市土城區金城路二段247-1號,新北市,土城區
中油社寮加油站,120.7172,23.807027,台灣南投縣竹山鎮集山路一段2100-6號,南投縣,竹山鎮
中油南平路加油站,120.884336,24.677908,台灣苗栗縣頭份市蘆竹路270號,苗栗縣,頭份市
中油長源加油站,121.024421,24.848318,台灣新竹縣新埔鎮義民路三段799號,新竹縣,新埔鎮
中油社頭加油站,120.58357,23.904473,台灣彰化縣社頭鄉員集路二段583號,彰化縣,社頭鄉
楓康超市三民店站,120.690108,24.158255,台灣台中市北區三民路三段369號,台中市,北區
桃園市新成立體停車場站(多站),121.146809,24.9119,台灣桃園市楊梅區光復北街20號,桃園市,楊梅區
中油埔鹽加油站,120.460764,24.00451,台灣彰化縣埔鹽鄉員鹿路二段99號,彰化縣,埔鹽鄉
新北市環翠段停車場站(多站),121.479463,25.035146,台灣新北市板橋區文新路與號仁化街交叉口,新北市,板橋區
中油恆春加油站,120.743601,22.009168,台灣屏東縣恆春鎮省北路7號,屏東縣,恆春鎮
中油積穗加油站,121.483658,25.00524,台灣新北市中和區中山路二段552號,新北市,中和區
全聯大雅學府店站,120.650395,24.218666,台灣台中市大雅區學府路109-13號,台中市,大雅區
屏東縣林邊鄉公所站(多站),120.509727,22.431639,台灣屏東縣林邊鄉和平路53號3樓927,屏東縣,林邊鄉
中油三灣加油站,120.954683,24.648337,台灣苗栗縣三灣鄉中正路7之2號,苗栗縣,三灣鄉
新北市長安市場站(多站),121.461892,25.080913,台灣新北市蘆洲區新北市蘆洲區,新北市,蘆洲區
台北捷運永寧站,121.435547,24.966767,台灣新北市土城區中央路三段100號,新北市,土城區
全聯中壢領航店站(多站),121.207509,25.000408,台灣桃園市中壢區領航南路一段218號,桃園市,中壢區
中油燕巢加油站(多站),120.362561,22.787919,台灣高雄市燕巢區中興路14號,高雄市,燕巢區
全聯吉安自強店站(多站),121.587948,23.981482,台灣花蓮縣吉安鄉自強路237號,花蓮縣,吉安鄉
臺北市新生北廣場停車場站,121.532354,25.04601,台灣台北市中山區新生北路一段36號,台北市,中山區
北基新海加油站,121.460224,25.023359,台灣新北市板橋區新海路137號,新北市,板橋區
Gogoro 歸仁中山門市站,120.28044,22.96822,台灣台南市歸仁區中山路三段313號,台南市,歸仁區
全家大園田心店站,121.194925,25.062827,台灣桃園市大園區新興路85號,桃園市,大園區
Gogoro 草屯太平門市站,120.68314,23.970945,台灣南投縣草屯鎮太平路二段66號,南投縣,草屯鎮
全聯仁德中清店站(多站),120.256143,22.97347,台灣台南市仁德區中清路178號,台南市,仁德區
臺中市社會住宅預定地臨時停車場站(多站),120.724249,24.254953,台灣台中市豐原區豐勢路一段147巷16號,台中市,豐原區
全家和平農會店站,120.879081,24.17366,台灣台中市和平區東關路三段235號,台中市,和平區
7-ELEVEN 雙榮店站,121.179214,24.958938,台灣桃園市平鎮區民族路雙連三段8號,桃園市,平鎮區
全家新忠隆店站,121.567279,25.04178,110台灣台北市信義區忠孝東路五段71巷8 樓4號,台北市,信義區
中油土庫加油站,120.393428,23.678779,台灣雲林縣土庫鎮建國路109號,雲林縣,土庫鎮
7-ELEVEN 喬興店站(多站),120.202379,23.117196,台灣台南市西港區新興街8-77.8-78號,台南市,西港區
中油大里加油站,121.928403,24.971653,台灣宜蘭縣頭城鎮濱海路七段81號,宜蘭縣,頭城鎮
中油嘉樂福加油站,121.48547,24.998724,台灣新北市中和區建八路63號,新北市,中和區
中油山上加油站,120.350875,23.106028,台灣台南市山上區山上加油站,台南市,山上區
中油永晉加油站,120.398961,22.49563,台灣高雄市林園區中芸三路300號,高雄市,林園區
新竹市湳雅街停車場站(多站),120.97203,24.81872,台灣新竹市北區湳雅街86巷2號,新竹市,北區
本原街三段停1停車場站(多站),120.177553,23.053059,台灣台南市安南區本原街三段26號,台南市,安南區
中油李斯特加油站,120.460651,23.697177,台灣雲林縣虎尾鎮60,雲林縣,虎尾鎮
台北捷運輔大站(3號出口)A,121.436536,25.032529,台灣新北市新莊區中正路510之1號,新北市,新莊區
高雄市梓官區光明路站(多站),120.249831,22.733796,台灣高雄市梓官區光明路180之1號,高雄市,梓官區
Gogoro 鹿港民族門市站,120.436213,24.0556,台灣彰化縣鹿港鎮民族路90號,彰化縣,鹿港鎮
中油建德加油站,121.642875,25.008331,台灣新北市石碇區楓子林路55號,新北市,石碇區
全家龜山忠義店站,121.344362,25.003837,台灣桃園市龜山區忠義路一段58號,桃園市,龜山區
車麗屋桃園八德店站,121.300633,24.966243,台灣桃園市八德區介壽路一段678號,桃園市,八德區
全家大園都心店站,121.196984,25.064752,台灣桃園市大園區中山北路31號,桃園市,大園區
Gogoro 大里中興門市站,120.688343,24.102626,台灣台中市大里區中興路二段93-3號,台中市,大里區
福懋彰益加油站,120.509003,24.053465,台灣彰化縣彰化市彰鹿路180號,彰化縣,彰化市
TR9 關山會館站,121.16877,23.059798,956台灣台東縣關山鎮18-6 號,台東縣,關山鎮
UNIQLO 台中福科路店站(多站),120.626003,24.181864,台灣台中市西屯區福科路196號,台中市,西屯區
全家林口文義店站,121.375336,25.082033,台灣新北市林口區文化三路二段9號,新北市,林口區
中油慶平路加油站,120.173668,22.996833,台灣台南市安平區慶平路485號,台南市,安平區
三義鄉農會站,120.772466,24.414642,台灣苗栗縣三義鄉中正路80號,苗栗縣,三義鄉
台南市安平區育平九街停車場站(多站),120.171359,22.995162,台灣台南市安平區國平路425號,台南市,安平區
高雄市養工處民生一路站(多站),120.302138,22.626954,台灣高雄市新興區竹圍二巷32-7號,高雄市,新興區
臺北市光復民權站(多站),121.55465,25.061077,台灣台北市松山區民權東路四段42號,台北市,松山區
中油大甲加油站,120.632163,24.355022,台灣台中市大甲區中山路一段1122巷12號,台中市,大甲區
三重國民運動中心站(多站),121.487847,25.054286,台灣新北市三重區集美街61之1號,新北市,三重區
林口八德路站,121.363279,25.065898,台灣新北市林口區文化二路八德路口,新北市,林口區
基隆市中山區公所站(多站),121.729445,25.153132,台灣基隆市中山區文化路168號,基隆市,中山區
全家龜山大湖店站(多站),121.357856,25.055976,台灣桃園市龜山區忠義路二段626號,桃園市,龜山區
Gogoro 桃園八德店站(多站),121.297698,24.949452,台灣桃園市八德區介壽路二段312號,桃園市,八德區
新北市金龍公園站(多站),121.631557,25.069218,台灣新北市汐止區湖前街31巷7號,新北市,汐止區
Gogoro 永康永大服務中心站,120.261567,23.006345,台灣台南市永康區永大路二段169號,台南市,永康區
中油宜梧加油站,120.194737,23.549122,台灣雲林縣口湖鄉光明路2號,雲林縣,口湖鄉
中油建國二路加油站,120.310587,22.637703,台灣高雄市三民區建國二路121-81號,高雄市,三民區
HiLife 八里聖心店站,121.448198,25.140372,台灣新北市八里區龍米路二段57-59號,新北市,八里區
YAMAHA 台南中華店站(多站),120.218314,23.023331,台灣台南市永康區中華路997號,台南市,永康區
全聯台南開元店站,120.21904,23.006966,台灣台南市北區中樓,台南市,北區
中油長安加油站,121.078359,24.885732,台灣新竹縣湖口鄉八德路二段461號,新竹縣,湖口鄉
山隆草屯加油站,120.679335,23.987096,台灣南投縣草屯鎮博愛路642號,南投縣,草屯鎮
高雄市區監理所苓雅監理站,120.320595,22.637408,台灣高雄市苓雅區安康路22號,高雄市,苓雅區
Gogoro 土城裕民門市站(多站),121.453663,24.984303,台灣新北市土城區裕民路193之1號,新北市,土城區
全聯埔里中正店站(多站),120.96314,23.972309,台灣南投縣埔里鎮中正路597號,南投縣,埔里鎮
中油府前路加油站,120.190783,22.992069,台灣台南市中西區府前路二段256號,台南市,中西區
台灣聯通台南崇明場站(多站),120.216577,22.979817,台灣台南市東區崇明五街28號,台南市,東區
全聯高雄大寮二店站(多站),120.383815,22.618634,台灣高雄市大寮區鳳林四路301號,高雄市,大寮區
九號倉會館站,120.288303,22.648815,台灣高雄市三民區美都路9號,高雄市,三民區
臺中市清水區公所站(多站),120.559556,24.268645,台灣台中市清水區中社路5-2號號,台中市,清水區
中油左鎮加油站,120.415989,23.060169,台灣台南市左鎮區睦光里,台南市,左鎮區
桃園市五福停車場站,121.210168,24.959883,台灣桃園市中壢區中正路655號,桃園市,中壢區
Gogoro 大安潮州服務中心站(多站),121.524987,25.02902,台灣台北市大安區潮州街92號,台北市,大安區
中油北興加油站,120.433131,23.491936,台灣嘉義市西區自由路436號,嘉義市,西區
中油宜蘭龍潭加油站,121.745382,24.775417,台灣宜蘭縣宜蘭市大坡路二段63號,宜蘭縣,宜蘭市
中油后庄加油站,120.892907,24.691831,台灣苗栗縣頭份市八德一路185號,苗栗縣,頭份市
中油旱溪加油站,120.701994,24.140515,台灣台中市東區旱溪街217號,台中市,東區
松山區公所站(多站),121.577131,25.049567,台灣台北市松山區市民大道六段121號,台北市,松山區
中油海寮加油站,120.21043,23.090763,台灣台南市安定區海寮7-10號,台南市,安定區
臺北市龍門國中站(多站),121.537959,25.023654,台灣台北市大安區建國南路二段305號,台北市,大安區
中油石卓加油站,120.689629,23.464569,台灣嘉義縣阿里山鄉114,嘉義縣,阿里山鄉
Gogoro 竹北中正東門市站,121.015323,24.835189,台灣新竹縣竹北市中正東路174號,新竹縣,竹北市
7-ELEVEN 愿景店站(多站),121.373993,25.056844,台灣桃園市龜山區文化一路44號,桃園市,龜山區
YAMAHA 基隆中山店站,121.736875,25.13025,台灣基隆市中山區中山一路19號,基隆市,中山區
中油金嘉旺加油站,120.257918,23.19238,台灣台南市麻豆區23-22,台南市,麻豆區
中油山海關加油站,120.886181,22.294549,台灣台東縣達仁鄉復興路37號,台東縣,達仁鄉
HiLife 八德桃尊店站,121.290966,24.952818,台灣桃園市八德區建國路871號,桃園市,八德區
臺北市台新金控大樓站(多站),121.550074,25.037214,106台灣台北市大安區仁愛路四段112巷3弄8 樓2號,台北市,大安區
康橋商旅六合夜市七賢館站(多站),120.30093,22.635364,台灣高雄市新興區八德二路21巷69號,高雄市,新興區
中油壽豐加油站,121.508758,23.867444,台灣花蓮縣壽豐鄉壽豐路一段1號,花蓮縣,壽豐鄉
臺北市健康公宅站(多站),121.565225,25.054337,台灣台北市松山區健康路305號,台北市,松山區
北基中和加油站(多站),121.476708,25.005472,台灣新北市中和區中山路三段61號,新北市,中和區
台亞新店中興路加油站(多站),121.544407,24.979099,台灣新北市新店區中興路三段131號,新北市,新店區
榮譽街停車場站,120.219301,22.977182,台灣台南市東區崇明路266巷50號,台南市,東區
中油鼓山三路加油站,120.277161,22.647877,台灣高雄市鼓山區鼓山三路8-12號,高雄市,鼓山區
新北市樹林停二平面停車場站(多站),121.382079,24.947436,台灣新北市樹林區大成路120號,新北市,樹林區
家樂福便利購竹北福興東店站,121.02822,24.81492,台灣新竹縣竹北市福興東路二段97號,新竹縣,竹北市
JOS CAFE & WORK 站,121.521246,25.003394,台灣新北市永和區永利路106號,新北市,永和區
新北市養工處永和永亨路站(多站),121.521207,25.005941,台灣新北市永和區永亨路67號,新北市,永和區
7-ELEVEN 東糖店站(多站),121.126106,22.768996,台灣台東縣台東市台9線360號,台東縣,台東市
中油萬年加油站,121.093554,22.801812,台灣台東縣卑南鄉賓朗路321號,台東縣,卑南鄉
全聯善化中山店站(多站),120.304,23.133305,台灣台南市善化區中山路76號,台南市,善化區
中油竹泰加油站,120.71211,23.808823,台灣南投縣竹山鎮南雲路10-9號,南投縣,竹山鎮
中油嘉昕加油站(多站),121.297921,24.941063,台灣桃園市八德區介壽路二段631號,桃園市,八德區
麗車坊環中店站(多站),121.228907,24.943765,台灣桃園市中壢區環中東路二段695號,桃園市,中壢區
中油國賓七股加油站,120.13279,23.130828,台灣台南市七股區3之28號,台南市,七股區
Gogoro 楊梅中山門市站(多站),121.146683,24.907454,台灣桃園市楊梅區台1線80號,桃園市,楊梅區
7-ELEVEN 益慶店站(多站),120.418503,22.639582,台灣高雄市大寮區義和社區,高雄市,大寮區
啄木鳥藥局麻豆店站(多站),120.24719,23.176944,台灣台南市麻豆區興國路56-23號,台南市,麻豆區
Gogoro 汐止中興門市站,121.631539,25.065811,台灣新北市汐止區福德二路120號,新北市,汐止區
全聯南投名間店站,120.702504,23.839168,台灣南投縣名間鄉彰南路46-2號,南投縣,名間鄉
7-ELEVEN 美溪店站(多站),120.481342,23.963417,台灣彰化縣溪湖鎮大溪路二段451號,彰化縣,溪湖鎮
7-ELEVEN 新台店站,121.450771,25.061964,台灣新北市五股區五工六路8號,新北市,五股區
中油集集加油站,120.775667,23.826231,台灣南投縣集集鎮民生路317號,南投縣,集集鎮
中油四維三路加油站,120.311445,22.619276,台灣高雄市苓雅區永定街89-3號,高雄市,苓雅區
中油觀音三和加油站,121.086378,25.025279,台灣桃園市觀音區濱海路武威段2號,桃園市,觀音區
7-ELEVEN 大崙店站,121.181346,24.98811,台灣桃園市中壢區中正路四段33號,桃園市,中壢區
全聯清水鰲峰店站,120.556702,24.266251,台灣台中市清水區鰲新路5號,台中市,清水區
小北百貨新陽明店站,120.341013,22.638442,台灣高雄市三民區陽明路51號,高雄市,三民區
林仔鐘厝自辦重劃停車場站(多站),120.261583,22.96925,台灣台南市仁德區義林六街67號,台南市,仁德區
中油松建加油站,120.320007,23.126593,台灣台南市善化區成功路1-1號,台南市,善化區
臺中市惠安停車場站(多站),120.642135,24.163786,台灣台中市西屯區惠來路二段245號,台中市,西屯區
新北市國慶停車場站(多站),121.463193,24.999956,台灣新北市板橋區重慶路276號,新北市,板橋區
新北市永和國民運動中心站(多站),121.524109,25.003108,台灣新北市永和區永利路250號,新北市,永和區
臺中市停六停車場站(大雅區)A,120.666244,24.215976,台灣台中市大雅區建興路140巷2號,台中市,大雅區
全家安定善高店站(多站),120.250975,23.124897,台灣台南市安定區真護宮,台南市,安定區
中油三多三路加油站,120.305111,22.614723,台灣高雄市苓雅區三多三路264號,高雄市,苓雅區
第一銀行新興分行站(多站),120.301028,22.631035,台灣高雄市新興區中正四路11號,高雄市,新興區
全聯大溪員林店站,121.283608,24.898445,台灣桃園市大溪區員林路一段5之7號,桃園市,大溪區
中油台東富岡加油站,121.176999,22.778543,台灣台東縣台東市吉林路二段101號,台東縣,台東市
中油埔里中山路加油站,120.97212,23.968807,台灣南投縣埔里鎮中山路二段141號,南投縣,埔里鎮
全聯林口麗都店站,121.367358,25.070357,台灣新北市林口區文化二路一段106、108號,新北市,林口區
全家仁德新德店站(多站),120.258365,22.947259,台灣台南市仁德區德善路273巷6弄22號,台南市,仁德區
桃園市正光二街停車場站,121.205404,24.959335,台灣桃園市中壢區正光二街116號,桃園市,中壢區
中油台糖崇蘭加油站,120.49055,22.69365,台灣屏東縣屏東市忠孝路230號,屏東縣,屏東市
新北市保生路平面停車場站(多站),121.505008,25.012017,台灣新北市永和區新北市永和區,新北市,永和區
高雄市大榮高中站(多站),120.281193,22.653654,台灣高雄市鼓山區大榮街2號,高雄市,鼓山區
中油寶山加油站,120.986505,24.763031,台灣新竹縣寶山鄉寶新路一段65號,新竹縣,寶山鄉
靜宜大學站(多站),120.576623,24.226544,台灣台中市沙鹿區靜宜大學(下車),台中市,沙鹿區
全聯平鎮育達店站,121.206823,24.951348,台灣桃園市平鎮區環南路237號,桃園市,平鎮區
全聯台中軍功店站(多站),120.719011,24.176361,台灣台中市北屯區軍功路二段39號,台中市,北屯區
中油大城太平加油站,120.730599,24.112489,台灣台中市太平區興隆路一段232號,台中市,太平區
康橋商旅覺民館站(多站),120.336294,22.639547,台灣高雄市三民區淵明街16號,高雄市,三民區
中油振興路加油站,120.694139,24.13355,台灣台中市東區建成路540號,台中市,東區
中油銅鑼加油站,120.786905,24.487765,台灣苗栗縣銅鑼鄉中正路153-1號,苗栗縣,銅鑼鄉
啄木鳥藥局大里店站(多站),120.68705,24.097232,台中市大里區中興路二段62號,台中市,大里區
苗栗福利站(多站),120.81704,24.54233,台灣苗栗縣苗栗市中正路1329號,苗栗縣,苗栗市
高雄市養工處十全一路站(多站),120.305204,22.64533,台灣高雄市三民區十全一路393號,高雄市,三民區
家樂福北門店站,120.455883,23.489379,台灣嘉義市東區忠孝路346巷21號,嘉義市,東區
高雄市區監理所站,120.317072,22.73115,台灣高雄市楠梓區德民路101號,高雄市,楠梓區
全家岡山竹圍店站(多站),120.297895,22.797443,台灣高雄市岡山區中山北忠誠街口,高雄市,岡山區
全聯竹南光復店站(多站),120.877728,24.688425,台灣苗栗縣竹南鎮光復路193巷48號,苗栗縣,竹南鎮
全家霧峰中投店站(多站),120.662394,24.071977,台灣台中市霧峰區中投西路二段430號,台中市,霧峰區
家樂福便利購台中南屯店站(多站),120.64833,24.13706,台灣台中市南屯區南屯路二段276號,台中市,南屯區
7-ELEVEN 三多利店站,120.490972,22.746501,台灣屏東縣九如鄉九如路三段56號,屏東縣,九如鄉
全家台中龍富二店站(多站),120.626345,24.148893,台灣台中市南屯區新生北巷2-1號,台中市,南屯區
中油新關加油站,121.04782,24.827346,台灣新竹縣新埔鎮文山路亞東段871號,新竹縣,新埔鎮
臺南市善化國小站,120.288948,23.136141,台灣台南市善化區善化國小,台南市,善化區
文藻美語土城站,121.465249,24.988665,台灣新北市土城區延和路42之1號,新北市,土城區
桃園建國國小站(多站),121.31491,24.98195,台灣桃園市桃園區昆明路95號,桃園市,桃園區
桃園市莊敬停車場站,121.257327,24.971788,台灣桃園市中壢區莊敬路38號,桃園市,中壢區
中油斗煥和昌加油站,120.942603,24.681692,台灣苗栗縣頭份市中正二路78號,苗栗縣,頭份市
中油新店北新路加油站,121.542045,24.968751,新北市新店區北新路一段92號 New Taipei 231-47,新北市,新店區
全聯社頭民生店站(多站),120.589124,23.89604,台灣彰化縣社頭鄉民生路702號,彰化縣,社頭鄉
宏佳騰宜蘭復興店站,121.745296,24.74978,台灣宜蘭縣宜蘭市復興路二段178號,宜蘭縣,宜蘭市
中油楓港加油站(多站),120.689346,22.199393,台灣屏東縣枋山鄉舊庄路53號,屏東縣,枋山鄉
台亞堤頂交流道加油站(多站),121.574901,25.069112,台灣台北市內湖區舊宗路二段113號,台北市,內湖區
啄木鳥藥局軍輝店站(多站),120.458779,23.45492,台灣嘉義市東區軍輝路228號,嘉義市,東區
中油崙背加油站,120.35905,23.76104,台灣雲林縣崙背鄉正義路123號,雲林縣,崙背鄉
全家霧峰新錦峰店站(多站),120.707369,24.076312,台灣台中市霧峰區錦州路331號,台中市,霧峰區
新北市白沙灣遊客中心站,121.522015,25.285653,台灣新北市石門區白沙灣,新北市,石門區
過港里里民活動中心站(多站),121.738183,25.104883,台灣基隆市暖暖區寧靜街88號,基隆市,暖暖區
全家台中培鶯店站(多站),120.741069,24.180103,台灣台中市北屯區東山路二段51-11號,台中市,北屯區
全聯台南民權店站,120.177677,22.999255,台灣台南市中西區西賢一街5號,台南市,中西區
桃園市廣興停車場站,121.284709,24.93626,台灣桃園市八德區仁德路11號,桃園市,八德區
中油台糖儒林加油站,120.373741,23.902978,台灣彰化縣二林鎮二溪路一段248號,彰化縣,二林鎮
全聯苑裡中山店站,120.655051,24.447681,台灣苗栗縣苑裡鎮中山路320號,苗栗縣,苑裡鎮
中油豐興加油站,121.09952,24.725214,台灣新竹縣竹東鎮北興路一段40號,新竹縣,竹東鎮
家樂福經國店站,121.305525,25.016021,台灣桃園市桃園區桃園市桃園區經國路369號B1樓之3,桃園市,桃園區
中油欣欣加油站(多站),121.517364,24.981669,台灣新北市新店區安和路三段35號,新北市,新店區
春光公園地下停車場B1F站,121.581141,25.0425,台灣台北市信義區忠孝東路五段666號,台北市,信義區
龍潭區公所站(多站),121.222418,24.870881,台灣桃園市龍潭區中興路700號,桃園市,龍潭區
臺中市兒童福利服務中心站(多站),120.565618,24.231065,台灣台中市沙鹿區福幼街2號,台中市,沙鹿區
第一銀行北投分行站(多站),121.50229,25.134338,台灣台北市北投區光明路131-2號,台北市,北投區
家樂福便利購文山木新店站(多站),121.569088,24.984234,台灣台北市文山區木新路二段132號,台北市,文山區
Gogoro 新竹關新服務中心站,121.019534,24.78808,台灣新竹市東區關新路219號,新竹市,東區
中油台糖來義加油站,120.622761,22.527303,台灣屏東縣萬巒鄉新隆路75之26號,屏東縣,萬巒鄉
Gogoro 信義信安門市站,121.554854,25.022739,110台灣台北市信義區信安街200 樓4號,台北市,信義區
全家永康兵仔市店站,120.236621,23.004203,台灣台南市永康區中華一路65號,台南市,永康區
中油將軍加油站,120.159018,23.204361,台灣台南市將軍區132之6號,台南市,將軍區
全家竹北勝利店站(多站),121.031279,24.825602,台灣新竹縣竹北市莊敬七街122號,新竹縣,竹北市
陽光市民加油站(多站),121.536869,25.044464,台灣台北市大安區建國南路一段67號,台北市,大安區
台灣高鐵新竹站,121.03962,24.805301,台灣新竹縣竹北市文興路二段&號高鐵五路,新竹縣,竹北市
新北市深坑國小站(多站),121.616164,25.001773,台灣新北市深坑區文化街108號思源亭號,新北市,深坑區
Gogoro 林口仁愛店站(多站),121.375322,25.076039,台灣新北市林口區仁愛路二段235號,新北市,林口區
中油嘉和加油站,120.176335,23.058353,台灣台南市安南區海佃路四段205號,台南市,安南區
Gogoro 三峽復興門市站,121.373466,24.937192,台灣新北市三峽區復興路60號,新北市,三峽區
新北市寶橋立體停車場站(多站),121.545736,24.974904,台灣新北市新店區寶橋路52號1號,新北市,新店區
台亞土城城林橋加油站(多站),121.434666,24.972113,台灣新北市土城區亞洲路9號,新北市,土城區
新科國民運動中心站(多站),121.024164,24.77972,台灣新竹市東區光復路一段89巷90號,新竹市,東區
中油西湖加油站,120.7579,24.569235,台灣苗栗縣西湖鄉9-3,苗栗縣,西湖鄉
7-ELEVEN 潮欣店站,120.428868,22.562747,台灣高雄市大寮區華中南路275號,高雄市,大寮區
台中朝馬運動中心站(多站),120.63403,24.167823,台灣台中市西屯區朝貴路199號,台中市,西屯區
EVOASIS 桃園青埔站,121.206545,25.009673,台灣桃園市中壢區永能路231~237號,桃園市,中壢區
全家桃園莊園店站(多站),121.29,25.021224,台灣桃園市桃園區桃18鄉道243號,桃園市,桃園區
小北百貨左營新莊店站(多站),120.297897,22.67245,台灣高雄市左營區華夏路365號,高雄市,左營區
中油日茂加油站,120.522766,23.949483,台灣彰化縣埔心鄉員鹿路四段321號,彰化縣,埔心鄉
全家彰化大村寶山店站(多站),120.582659,23.992828,台灣彰化縣大村鄉山腳路98-20號,彰化縣,大村鄉
全家豐原新水源店站(多站),120.745045,24.255146,台灣台中市豐原區水源路17號,台中市,豐原區
宏佳騰彰化金馬店站,120.531116,24.075991,台灣彰化縣彰化市金馬路三段625號,彰化縣,彰化市
台南市北區東興路口站(多站),120.22929,22.99965,台灣台南市北區180縣道289號,台南市,北區
臺南環河街停車場站,120.192112,22.993039,台灣台南市中西區環河街52號,台南市,中西區
臺北市民權東路四段站(多站),121.557486,25.062237,台灣台北市松山區民權公園,台北市,松山區
臺北市中山市場站(多站),121.520947,25.050067,台灣台北市中山區長安西路3號,台北市,中山區
中油水美加油站,120.399303,22.658649,台灣高雄市鳥松區北平路49號,高雄市,鳥松區
中油頭城加油站,121.828366,24.864404,台灣宜蘭縣頭城鎮開蘭路300號,宜蘭縣,頭城鎮
PGO 永和福和店站,121.515361,25.007245,台灣新北市永和區福和路338號,新北市,永和區
欣桃天然氣站,121.296274,24.992555,台灣桃園市桃園區法治路10號,桃園市,桃園區
中油隆田加油站,120.316097,23.19942,台灣台南市官田區中華路二段23號,台南市,官田區
全家八德豐吉店站(多站),121.289841,24.926976,台灣桃園市八德區豐田路63號,桃園市,八德區
全聯蘆竹光明店站(多站),121.292399,25.039863,台灣桃園市蘆竹區南福街102號,桃園市,蘆竹區
中油君朋加油站,121.057363,24.898786,台灣新竹縣湖口鄉中平路一段280號,新竹縣,湖口鄉
eReady 汐止康寧店站,121.631973,25.068303,台灣新北市汐止區康寧街472號,新北市,汐止區
宏佳騰板橋文化店站(多站),121.464665,25.017929,台灣新北市板橋區內山公路98號,新北市,板橋區
屏東市國民運動中心站(多站),120.499048,22.677627,台灣屏東縣屏東市勝利東路50號,屏東縣,屏東市
享溫馨KTV 五甲店站(多站),120.334778,22.601806,台灣高雄市鳳山區三商街252號二樓號,高雄市,鳳山區
中油內埔加油站,120.557658,22.622541,台灣屏東縣內埔鄉南寧路455號,屏東縣,內埔鄉
全聯嘉義仁愛店站,120.442207,23.474598,台灣嘉義市西區仁愛路335號,嘉義市,西區
台北捷運輔大站(4號出口)B,121.436853,25.033049,242台灣新北市新莊區中正路510之1號之 B1輔大,新北市,新莊區
HiLife 仁武鳳成店站,120.360985,22.671726,台灣高雄市仁武區鳳仁路4-6號,高雄市,仁武區
新北市中正停車場站,121.503208,25.254489,台灣新北市三芝區中正路二段48之1號,新北市,三芝區
北基九如路加油站(多站),120.318357,22.640238,台灣高雄市三民區九如一路878號,高雄市,三民區
新北市西盛公園站(多站),121.427621,25.017581,台灣新北市新莊區龍安路529號,新北市,新莊區
臺中市育樂停車場站(多站),120.691753,24.157504,台灣台中市北區育樂街11-2號,台中市,北區
全家六龜農會店站,120.635129,22.995242,台灣高雄市六龜區六龜農會(光復路),高雄市,六龜區
高原交流道站,121.205304,24.826958,台灣桃園市龍潭區龍源路2-20號,桃園市,龍潭區
大光郵局站,120.217972,23.012846,台灣台南市北區長榮路五段276號,台南市,北區
中油林內加油站,120.610665,23.752329,台灣雲林縣林內鄉中正路532號,雲林縣,林內鄉
安通自辦重劃區停車場站(多站),120.210262,23.031631,台灣台南市安南區安和路一段263巷66號,台南市,安南區
橋頭區公所站,120.30575,22.757665,台灣高雄市橋頭區隆豐路1號2樓,高雄市,橋頭區
全鋒石門水庫加油站,121.2825,24.85973,台灣桃園市大溪區康莊路三段80號,桃園市,大溪區
中油永成路加油站,120.195822,22.956318,台灣台南市南區永成路二段828號,台南市,南區
全聯三民金獅湖店站,120.32171,22.662374,台灣高雄市三民區鼎力路17號,高雄市,三民區
賢北街公有路外停車場站,120.183325,23.009258,台灣台南市北區大興街380號號旁,台南市,北區
中油竹林加油站,121.085644,24.764484,台灣新竹縣芎林鄉富林路二段738號,新竹縣,芎林鄉
耕讀園台中國光店站(多站),120.680841,24.105103,台灣台中市大里區國光德芳路口,台中市,大里區
全聯高雄明誠店站,120.324122,22.660007,台灣高雄市三民區明誠一路360號,高雄市,三民區
嘉義縣政府站,120.289044,23.460568,台灣嘉義縣朴子市朴子三路口,嘉義縣,朴子市
中油宜蘭加油站,121.756584,24.770631,台灣宜蘭縣宜蘭市中山路五段139號,宜蘭縣,宜蘭市
臺南市長勝營區免費公有停車場站(多站),120.303201,23.300456,台灣台南市新營區新進路二段215-27號,台南市,新營區
全家桃園元富店站,121.317997,25.004477,台灣桃園市桃園區大業路一段48號,桃園市,桃園區
Gogoro 台南公園店站(多站),120.205513,22.994652,台灣台南市中西區公園路38號,台南市,中西區
台北捷運府中站(多站),121.459951,25.009438,台灣新北市板橋區府中路7號,新北市,板橋區
中油福員加油站,120.810514,24.500426,台灣苗栗縣銅鑼鄉131-5,苗栗縣,銅鑼鄉
全家新竹金元寶店站(多站),121.02082,24.777064,台灣新竹市東區金山九街68號,新竹市,東區
楓康超市大慶店站,120.653397,24.113382,台灣台中市南區復興路一段184號,台中市,南區
新北市福壽公園站(多站),121.457705,25.052285,台灣新北市新莊區昌明街1號,新北市,新莊區
棒球場現有機車停車場站,120.464329,23.480731,台灣嘉義市東區啟明路116號,嘉義市,東區
新北市環河快速高架橋停車場站(多站),121.503658,25.071473,台灣新北市三重區河邊北街124號,新北市,三重區
全家大里善化店站,120.702592,24.098534,台灣台中市大里區善化路102-3號,台中市,大里區
政大加油站(多站),121.571019,24.988278,台灣台北市文山區指南路一段59巷5號,台北市,文山區
中油九份加油站,121.771898,24.666527,台灣宜蘭縣冬山鄉冬山路五段165號,宜蘭縣,冬山鄉
台北捷運輔大站(3號出口)B,121.436936,25.032529,台灣新北市新莊區福營路37號,新北市,新莊區
中油褒忠加油站,120.316481,23.70162,台灣雲林縣褒忠鄉三民路231號,雲林縣,褒忠鄉
全聯佳里仁愛店站(多站),120.176644,23.154619,台灣台南市佳里區仁愛路388號,台南市,佳里區
新光草衙道站(多站),120.328726,22.581873,台灣高雄市前鎮區中山四路100號,高雄市,前鎮區
?亭停車場高鐵路站,120.31016,22.6875,台灣高雄市左營區文府路93-123號,高雄市,左營區
全家高雄凱歌店站,120.317877,22.636483,台灣高雄市三民區凱歌路91號,高雄市,三民區
太平區農會站(多站),120.714789,24.124673,台灣台中市太平區太平農會,台中市,太平區
7-ELEVEN 安興店站,120.265474,23.014348,台灣台南市永康區北興路51號,台南市,永康區
高雄市興達港立體停車場站,120.194354,22.871867,台灣高雄市茄萣區民族路51號,高雄市,茄萣區
7-ELEVEN 朱丹灣店站,120.530489,23.715782,台灣雲林縣斗六市正心中學,雲林縣,斗六市
Gogoro 北屯中清門市站,120.665892,24.182787,台灣台中市北屯區中清路二段592號5號,台中市,北屯區
7-ELEVEN 吉峰店站(多站),120.699323,24.068567,台灣台中市霧峰區德泰街11號,台中市,霧峰區
全家斗六新中興店站,120.581761,23.723612,台灣雲林縣斗六市中興路30之2號,雲林縣,斗六市
Gogoro 朴子山通門市站,120.241535,23.463946,台灣嘉義縣朴子市文化北路2號2樓,嘉義縣,朴子市
Gogoro 文心崇德門市站,120.68573,24.173576,台灣台中市北屯區崇德路二段200號,台中市,北屯區
高雄市養工處海光環保公園站(多站),120.364438,22.634593,台灣高雄市鳳山區經武路78號,高雄市,鳳山區
中油清境娜嚕灣加油站,121.167411,24.062741,台灣南投縣仁愛鄉仁和路207-6號,南投縣,仁愛鄉
家樂福中正店站(多站),120.228008,23.032391,台灣台南市永康區中正南路352號,台南市,永康區
全聯和美仁昌店站(多站),120.494107,24.106796,台灣彰化縣和美鎮仁昌路150號,彰化縣,和美鎮
南投縣草屯鎮公所站,120.680145,23.973612,台灣南投縣草屯鎮草鞋墩一街8號,南投縣,草屯鎮
米格國際站,121.289083,24.946372,台灣桃園市八德區建國路620號,桃園市,八德區
新北市第八平面停車場站,121.414489,24.985971,台灣新北市樹林區復興路390巷20號,新北市,樹林區
全家高雄鄭和店站,120.315207,22.606287,台灣高雄市前鎮區鄭和南路418號,高雄市,前鎮區
中油特新加油站,121.089683,22.812345,台灣台東縣卑南鄉賓朗路612號,台東縣,卑南鄉
中油和興加油站,121.050088,24.910552,台灣新竹縣湖口鄉中山路三段126號,新竹縣,湖口鄉
臺北市公有環南市場站(多站),121.489204,25.02876,台灣台北市萬華區環河南路二段247號,台北市,萬華區
愛來超市高雄大樹店站,120.432042,22.690645,台灣高雄市大樹區實踐街3號,高雄市,大樹區
7-ELEVEN 奇蹟店站,120.259372,23.034563,台灣台南市永康區永大路三段路橋下,台南市,永康區
臺北市榮星公園站(多站),121.539824,25.062499,台灣台北市中山區榮星花園(民權),台北市,中山區
中油泉益大武崙加油站,121.699569,25.14836,台灣基隆市安樂區武訓街72號,基隆市,安樂區
臺中市大鵬臨時停車場站(多站),120.665734,24.175641,台灣台中市西屯區中清西二街94號,台中市,西屯區
臺鐵臺北貨運所楊梅車站前站(多站),121.146132,24.913885,台灣桃園市楊梅區326,桃園市,楊梅區
桃園市永福停車場站(多站),121.298273,24.962759,台灣桃園市八德區永福西街37號,桃園市,八德區
全家永康車行店站,120.276144,23.051,台灣台南市永康區王行路563號,台南市,永康區
中油三多二路加油站,120.327,22.621424,台灣高雄市苓雅區三多二路80號,高雄市,苓雅區
中油港口加油站,121.631429,23.997331,台灣花蓮縣花蓮市吉林路2號,花蓮縣,花蓮市
中油萬里加油站,121.687055,25.184555,台灣新北市萬里區日光路27號,新北市,萬里區
中油阿里山新加油站,120.792471,23.504323,台灣嘉義縣阿里山鄉中山村、605,嘉義縣,阿里山鄉
HiLife 台中愛萊店站,120.658541,24.195213,台灣台中市西屯區中清路170-1號,台中市,西屯區
家樂福便利購左營南屏店站,120.299729,22.668167,台灣高雄市左營區南屏路369號,高雄市,左營區
全聯大社金龍店站(多站),120.353484,22.724558,台灣高雄市大社區金龍路353號,高雄市,大社區
中油春日路加油站,121.310283,25.010487,台灣桃園市桃園區台4線971號,桃園市,桃園區
家樂福光華店站(多站),120.317139,22.610579,台灣高雄市前鎮區光華二路104號,高雄市,前鎮區
全聯虎尾中正店站(多站),120.431245,23.707607,台灣雲林縣虎尾鎮林森路二段23號,雲林縣,虎尾鎮
高雄市大社區農會站(多站),120.346726,22.729546,台灣高雄市大社區三民路391號,高雄市,大社區
中油民安加油站,120.240252,22.95935,台灣台南市仁德區民安路一段325號,台南市,仁德區
中油台糖仁德加油站,120.218726,22.950798,台灣台南市仁德區大同路三段525號,台南市,仁德區
台電鳳山區營業處站(多站),120.349646,22.621943,台灣高雄市鳳山區光華路122之2號,高雄市,鳳山區
臺南市下營區下營農會超市站(多站),120.267528,23.237503,台灣台南市下營區中山路一段301號,台南市,下營區
中油南崗工業區加油站,120.671945,23.922895,台灣南投縣南投市仁和路13號,南投縣,南投市
台北捷運淡水站(多站),121.44705,25.166938,台灣新北市淡水區鼻頭街15號,新北市,淡水區
中油上豐加油站,120.310731,22.67143,台灣高雄市左營區自由三路157號,高雄市,左營區
中油永炬加油站,120.882911,24.637463,台灣苗栗縣頭份市尖豐路931號,苗栗縣,頭份市
山隆重慶加油站(多站),121.608269,23.971611,台灣花蓮縣花蓮市重慶路456號970,花蓮縣,花蓮市
臺北市環山路站(多站),121.566445,25.086316,台灣台北市內湖區環山路一段60巷2號,台北市,內湖區
814生鮮超市屏東潮州店站(多站),120.539582,22.545287,台灣屏東縣潮州鎮興隆路198號,屏東縣,潮州鎮
中油中正加油站,120.494808,22.685544,台灣屏東縣屏東市中正路375號,屏東縣,屏東市
YAMAHA 宜蘭中山店站(多站),121.754109,24.763004,台灣宜蘭縣宜蘭市中山路三段293號,宜蘭縣,宜蘭市
新北市水湳洞遊客中心站,121.861629,25.121676,台灣新北市瑞芳區洞頂路155-4號,新北市,瑞芳區
HiLife 中縣中武店站(多站),120.654965,24.095297,台灣台中市烏日區五光路178號,台中市,烏日區
台灣高鐵雲林站,120.415533,23.734516,台灣雲林縣虎尾鎮站前東路301號,雲林縣,虎尾鎮
中油向陽加油站,120.26204,22.745118,台灣高雄市梓官區大舍南路92號,高雄市,梓官區
中油泉益加油站,121.726058,25.117281,台灣基隆市安樂區麥金路82號,基隆市,安樂區
中油佳順加油站,121.268524,24.984178,台灣桃園市桃園區龍壽街194號,桃園市,桃園區
Gogoro 屏東民族門市站(多站),120.485336,22.670559,台灣屏東縣屏東市民族路108號,屏東縣,屏東市
HiLife 中縣中連店站,120.64483,24.059221,台灣台中市烏日區溪南路二段475號,台中市,烏日區
中油靖海加油站,120.359832,22.730788,台灣高雄市大社區中山路665-20號,高雄市,大社區
全聯台中大昌店站(多站),120.652051,24.141954,台灣台中市南屯區大墩五街98號,台中市,南屯區
台北捷運萬芳社區站(多站),121.567731,24.998737,台灣台北市文山區萬芳路60號,台北市,文山區
中油集鹿加油站,120.785279,23.822313,台灣南投縣集集鎮名水路二段208號,南投縣,集集鎮
7-ELEVEN 美珍店站,120.291533,22.661042,台灣高雄市鼓山區明誠四路17號,高雄市,鼓山區
全家長治交流店站,120.55601,22.696344,台灣屏東縣長治鄉水源路195號,屏東縣,長治鄉
宏佳騰沙鹿福德店站(多站),120.567432,24.251657,台灣台中市沙鹿區福德路193號,台中市,沙鹿區
臺北市安祥公園旁平面停車場站(多站),121.54297,25.034246,台灣台北市大安區信義路三段157巷42號,台北市,大安區
全家吉安宜昌店站(多站),121.582443,23.97348,台灣花蓮縣吉安鄉中華路二段167之1號,花蓮縣,吉安鄉
PGO 三重成功店站(多站),121.486974,25.052275,台灣新北市三重區成功路147號2樓,新北市,三重區
7-ELEVEN 麻學店站,120.220446,23.190672,台灣台南市麻豆區麻學路一段807號,台南市,麻豆區
車麗屋高雄鳳山店站,120.353759,22.616364,台灣高雄市鳳山區五甲一路295-2號,高雄市,鳳山區
彰化市清潔隊站(多站),120.541765,24.067899,台灣彰化縣彰化市仁愛東街17號,彰化縣,彰化市
台亞經國路一加油站,120.9848,24.81486,台灣新竹市東區經國路一段243-2號,新竹市,東區
全聯楠梓土庫店站,120.329859,22.737719,台灣高雄市楠梓區土庫三路55、57號,高雄市,楠梓區
7-ELEVEN 欣高店站,121.145116,24.916889,台灣桃園市楊梅區梅高路52-8號,桃園市,楊梅區
中油上順加油站,121.408301,24.959764,台灣新北市樹林區柑園街一段1-2號,新北市,樹林區
旭益汽車百貨草屯店站(多站),120.683315,23.9859,台灣南投縣草屯鎮博愛路501號,南投縣,草屯鎮
臺北市四維廣場停車場站(多站),121.548145,25.033906,台灣台北市大安區敦化南路1段366號,台北市,大安區
新北市烏來立體停車場站(多站),121.551455,24.866382,台灣新北市烏來區新烏公路43號,新北市,烏來區
全聯鳳山頂豐店站,120.356388,22.585956,台灣高雄市鳳山區頂豐街135巷21號,高雄市,鳳山區
新北市央北新村平面停車場站(多站),121.527901,24.977358,台灣新北市新店區央北一路90號,新北市,新店區
7-ELEVEN 福音店站,121.143597,25.041982,台灣桃園市觀音區五福三街81號,桃園市,觀音區
全家霧峰九德店站(多站),120.691562,24.066203,台灣台中市霧峰區四德路204號,台中市,霧峰區
全家埔里牛埔店站,120.974373,23.989587,台灣南投縣埔里鎮西安路二段90號545,南投縣,埔里鎮
中油台糖月眉加油站,120.696033,24.313138,台灣台中市后里區甲后路819號,台中市,后里區
台北捷運竹圍站(多站),121.459687,25.135983,台灣新北市淡水區民權路48號,新北市,淡水區
玉成國小地下停車場B1F站,121.592755,25.053203,台灣台北市南港區昆陽街23號,台北市,南港區
台灣聯通日月潭中興場站(多站),120.911443,23.865651,台灣南投縣魚池鄉中興路28號,南投縣,魚池鄉
中油台中和平加油站,120.903836,24.169213,台灣台中市和平區東關路三段5號,台中市,和平區
全家台南和緯店站,120.195891,23.009742,台灣台南市北區和緯路三段333號,台南市,北區
中油白河中山加油站,120.412031,23.345364,台灣台南市白河區中山路1之62號,台南市,白河區
7-ELEVEN 勇伯店站,121.306716,24.969485,台灣桃園市八德區東勇北路380號,桃園市,八德區
台糖六甲加油站,120.277398,22.946757,台灣台南市歸仁區中正南路一段2200號,台南市,歸仁區
中油宏益加油站,120.85194,24.03599,台灣南投縣國姓鄉國姓路462-3號,南投縣,國姓鄉
福懋中正加油站,120.504505,23.7563,台灣雲林縣莿桐鄉中正路20號,雲林縣,莿桐鄉
臺北市大龍公園站(多站),121.515863,25.070358,台灣台北市大同區大龍公園,台北市,大同區
中油長流加油站,120.876568,24.064045,台灣南投縣國姓鄉大長路577之13號,南投縣,國姓鄉
瑞福停車場站(多站),120.33541,22.607753,台灣高雄市前鎮區瑞福路公共停車場,高雄市,前鎮區
台南安平港風景區停車場站,120.1604,22.9974,台灣台南市安平區運河路55號,台南市,安平區
小港區公所站,120.337872,22.565204,台灣高雄市小港區小港路160巷9號,高雄市,小港區
台亞文中加油站,121.276943,24.993717,台灣桃園市桃園區文中路666號,桃園市,桃園區
樹林柑園市民活動中心站,121.386239,24.950982,台灣新北市樹林區景觀萬坪公園(公厝仔),新北市,樹林區
Gogoro 南區建成門市站,120.674835,24.126329,台灣台中市南區建成路1633號,台中市,南區
統冠超市國聯店站,121.605082,23.992907,台灣花蓮縣花蓮市花17鄉道152號,花蓮縣,花蓮市
大興公園停車場站(多站),120.192293,23.011465,台灣台南市北區大興街64號,台南市,北區
全聯台中軍太店站,120.715901,24.165354,台灣台中市北屯區軍功路一段183號,台中市,北屯區
全家台中新文山店站(多站),120.611885,24.148642,台灣台中市南屯區文山六街34-42號,台中市,南屯區
公館水岸新世界機車臨時平面停車場站(多站),121.534087,25.012842,台灣台北市中正區汀州路三段104巷39號,台北市,中正區
中油健行加油站,121.308669,25.022014,台灣桃園市桃園區健行路29號,桃園市,桃園區
Gogoro 板橋館前店站,121.46037,25.006936,台灣新北市板橋區後埔街8號,新北市,板橋區
7-ELEVEN 新同安店站(多站),120.188056,23.038808,台灣台南市安南區海佃路二段432號,台南市,安南區
7-ELEVEN 復中店站(多站),120.310316,22.617665,台灣高雄市苓雅區興中一路142號,高雄市,苓雅區
臺中市東勢區公所站(多站),120.827972,24.258953,台灣台中市東勢區第六橫街110號,台中市,東勢區
新北市養工處三重民生街站(多站),121.489626,25.063675,台灣新北市三重區民生街92號,新北市,三重區
Gogoro 蘆竹南崁服務中心站,121.289098,25.051317,台灣桃園市蘆竹區南崁路一段58號,桃園市,蘆竹區
台南市東區立德停車場站(多站),120.214671,22.976452,台灣台南市東區立德一路102號,台南市,東區
臺中草悟廣場站(多站),120.66481,24.149716,台灣台中市西區英才路530號,台中市,西區
全家高雄宏光店站(多站),120.363795,22.568162,台灣高雄市小港區漢民路786號門口號,高雄市,小港區
新北市忠孝高架橋下重安段停車場站,121.49088,25.057287,台灣新北市三重區重安街21號,新北市,三重區
家樂福新楠店站(多站),120.330897,22.73614,台灣高雄市楠梓區土庫一路60號,高雄市,楠梓區
7-ELEVEN 福上店站,120.659355,24.175474,台灣台中市西屯區河南路二段69-1號,台中市,西屯區
中油永華路東加油站,120.180856,22.990045,台灣台南市安平區永華路二段216號,台南市,安平區
家樂福便利購桃園南平店站,121.301971,25.019705,台灣桃園市桃園區南平路182號,桃園市,桃園區
中油南投成功路加油站,120.6847,23.98884,台灣南投縣草屯鎮成功路一段716號,南投縣,草屯鎮
中油旭昇加油站,121.147642,25.053285,台灣桃園市觀音區成功路一段188號,桃園市,觀音區
全聯竹北莊敬南店站,121.02002,24.815923,台灣新竹縣竹北市成功十一街5號,新竹縣,竹北市
中油大來加油站,120.383057,22.636484,台灣高雄市大寮區大漢路330號,高雄市,大寮區
臺中市春安停車場站(多站),120.607513,24.13636,台灣台中市南屯區建功南九巷61號,台中市,南屯區
臺中市三塊厝停車場站(多站),120.632649,24.148148,台灣台中市南屯區大墩十一江和街口,台中市,南屯區
Gogoro 士林承德服務中心站,121.517444,25.090101,111台灣台北市士林區承德路四段340 樓2號,台北市,士林區
福華加油站(多站),121.553904,25.000718,台灣台北市文山區興隆路二段244巷3號,台北市,文山區
家樂福蘆洲店B1F站,121.486609,25.087527,台灣新北市三重區五華街282號1樓,新北市,三重區
中油中正四路加油站,120.291287,22.627548,台灣高雄市前金區中正四路251號,高雄市,前金區
臺中市港區藝術中心站(多站),120.557799,24.269443,台灣台中市清水區港區藝術中心(鎮政路),台中市,清水區
台北捷運新北投站(多站),121.501881,25.136804,台灣台北市北投?七星街2號,台北市,北投區
中油台一加油站,121.012615,23.981295,台灣南投縣埔里鎮中山路一段149號,南投縣,埔里鎮
中油東林加油站,121.364302,24.956807,台灣新北市鶯歌區中正一路461-5號,新北市,鶯歌區
中油龍東加油站,121.247322,24.915002,台灣桃園市平鎮區平東路308號,桃園市,平鎮區
全家八德仁興店站(多站),121.288121,24.936646,台灣桃園市八德區建國路241號,桃園市,八德區
全家橋頭建樹店站,120.307587,22.763296,台灣高雄市橋頭區成功北路63號,高雄市,橋頭區
全聯大園?林店站,121.258361,25.075361,337台灣桃園市大園區?林路77號1 樓,桃園市,大園區
7-ELEVEN 榮鑫店站,121.536794,25.065632,台灣台北市中山區建國北路三段91-1號,台北市,中山區
Gogoro 光華八德店站,121.531252,25.044102,台灣台北市中正區八德路一段27號,台北市,中正區
中油光騏加油站,120.904295,24.738976,台灣苗栗縣竹南鎮公義路2433之10號,苗栗縣,竹南鎮
7-ELEVEN 金宴店站,121.537998,25.061754,104台灣台北市中山區建國北路二段151巷8 樓7號,台北市,中山區
HiLife 蘆洲光榮店站,121.463277,25.088642,台灣新北市蘆洲區光榮路70號,新北市,蘆洲區
千葉火鍋竹北店站(多站),121.029082,24.820443,台灣新竹縣竹北市自強北路20號,新竹縣,竹北市
中油民生路加油站,120.19152,22.99682,台灣台南市中西區市8鄉道299號,台南市,中西區
全家太平金城店站(多站),120.712989,24.159181,台灣台中市太平區樹德路275號,台中市,太平區
7-ELEVEN 新宏昌店站(多站),120.287675,22.716711,台灣高雄市楠梓區右昌街468號,高雄市,楠梓區
YAMAHA 楊梅文化店站(多站),121.185162,24.916041,台灣桃園市楊梅區文化街15號,桃園市,楊梅區
全聯虎尾林森店站(多站),120.424594,23.698851,台灣雲林縣虎尾鎮林森路二段23號,雲林縣,虎尾鎮
新北市永和區公所站,121.520375,25.008849,台灣新北市永和區竹林路202號,新北市,永和區
台糖大社加油站,120.352556,22.750895,台灣高雄市大社區中正路598號,高雄市,大社區
臺中市大甲區長青活動中心站(多站),120.627045,24.340731,台灣台中市大甲區水源路210號,台中市,大甲區
全聯花蓮太昌店站(多站),121.578109,23.992068,台灣花蓮縣花蓮市建國路二段268巷1號,花蓮縣,花蓮市
台糖土庫加油站,120.506437,22.822015,台灣屏東縣里港鄉北安路1-36號,屏東縣,里港鄉
HiLife 高市瑞福店站,120.33551,22.609087,台灣高雄市前鎮區瑞福路191號,高雄市,前鎮區
台糖人生加油站,120.276658,23.437806,"611台灣嘉義縣鹿草鄉10號, 馬稠後農場",嘉義縣,鹿草鄉
全聯南投南陽店站(多站),120.681489,23.912494,台灣南投縣南投市南陽路452號,南投縣,南投市
全聯新埔中正店站,121.082912,24.826864,台灣新竹縣新埔鎮中正路137號,新竹縣,新埔鎮
7-ELEVEN 田正店站(多站),120.524634,23.887352,台灣彰化縣田尾鄉中山路一段191號,彰化縣,田尾鄉
中油口湖加油站,120.185033,23.581828,台灣雲林縣口湖鄉中正路一段99號,雲林縣,口湖鄉
台亞板橋信義路加油站(多站),121.460586,24.990566,台灣新北市板橋區信義路265巷20號,新北市,板橋區
eReady 台中中清店站,120.677062,24.155975,台灣台中市北區中清路一段178號,台中市,北區
小北百貨鳳山經武店站,120.364696,22.638567,台灣高雄市鳳山區經武路276號,高雄市,鳳山區
中油彰水加油站,120.465614,23.905332,台灣彰化縣埤頭鄉彰水路四段75號,彰化縣,埤頭鄉
台灣聯通士林官邸場站(多站),121.53151,25.095367,台灣台北市士林區福林路80巷13號,台北市,士林區
中油新竹明湖加油站,120.978409,24.767997,台灣新竹市東區明湖路1036號,新竹市,東區
千葉火鍋屏東店站(多站),120.485519,22.683601,台灣屏東縣屏東市自由路586-5號,屏東縣,屏東市
7-ELEVEN 大營店站(多站),120.313261,23.09653,台灣台南市新市區136-1號,台南市,區
檜村里機6臨時停車場站,120.455208,23.489244,台灣嘉義市東區忠孝路346巷21號,嘉義市,東區
臺中市麗園停車場站(多站),120.733442,24.158614,台灣台中市北屯區麗園公園,台中市,北屯區
瑞豐停車場站(多站),120.335749,22.606676,台灣高雄市前鎮區瑞福路115號,高雄市,前鎮區
全家桃園縣安店站,121.300032,24.996392,台灣桃園市桃園區民安路99號,桃園市,桃園區
家樂福便利購漢口店站(多站),120.680354,24.167216,台灣台中市北區漢口路四段295號,台中市,北區
7-ELEVEN 昇沅店站,120.426025,24.042144,台灣彰化縣福興鄉沿海路四段750號,彰化縣,福興鄉
全聯南投草屯店站,120.679846,23.983064,台灣南投縣草屯鎮信義街368號,南投縣,草屯鎮
台電永和服務所站,121.520934,25.001743,台灣新北市永和區得和路243巷41號,新北市,永和區
桃園市宏昌六街停車場站,121.291828,24.98708,台灣桃園市桃園區宏昌六街220號,桃園市,桃園區
新生驛站,121.222804,24.976463,台灣桃園市中壢區新生路二段23之1號,桃園市,中壢區
中油迴龍加油站,121.400228,25.016175,台灣桃園市龜山區萬壽路一段383號,桃園市,龜山區
中油五股工業區加油站,121.456264,25.064244,台灣新北市新莊區五工路99之3號,新北市,新莊區
全聯台中大坑店站,120.726061,24.17619,台灣台中市北屯區東山路一段346號,台中市,北屯區
福懋南亞加油站(多站),120.376037,23.49749,台灣嘉義縣太保市北港路二段203-1號,嘉義縣,太保市
中油大家加油站,119.583286,23.569504,台灣澎湖縣馬公市203縣道101-130號,澎湖縣,馬公市
臺中市外埔區公所旁停車場站(多站),120.654734,24.332264,台灣台中市外埔區六分路376號,台中市,外埔區
中油順宇加油站,120.349613,23.216221,台灣台南市官田區烏山頭91之100號,台南市,官田區
中油復興北路加油站,121.544229,25.049405,台灣台北市松山區復興北路23號,台北市,松山區
7-ELEVEN 和峰店站(多站),120.499193,24.106664,台灣彰化縣和美鎮道周路279號,彰化縣,和美鎮
中油大嘉好加油站,121.477801,25.259897,台灣新北市三芝區錫板路14-35號,新北市,三芝區
中油新市加油站,120.299824,23.073547,台灣台南市新市區中山路156號,台南市,區
鳳山捷運站機車停車場站(多站),120.356273,22.625852,台灣高雄市鳳山區光遠路335號,高雄市,鳳山區
7-ELEVEN 將富店站,120.135354,23.214927,台灣台南市將軍區49之8號,台南市,將軍區
新北市浮洲橋下站(機車區)B,121.441759,24.998638,台灣新北市板橋區114縣道313號,新北市,板橋區
中油梓官加油站,120.262661,22.760228,台灣高雄市梓官區和平路317號,高雄市,梓官區
愛買復興店站(多站),120.654411,24.11493,台灣台中市南區復興路一段351號,台中市,南區
臺北市中山公園站(多站),121.558805,25.037804,台灣台北市信義區仁愛路四段452號,台北市,信義區
全家台中太順店站(多站),120.725005,24.158328,台灣台中市北屯區太和路一段100號,台中市,北屯區
高雄市養工處九如一路站(多站),120.323828,22.63962,台灣高雄市三民區科工館,高雄市,三民區
新北市後港公園地下停車場B1F站,121.42404,25.026007,新北市新莊區後港一路19號 New Taipei 242-59,新北市,新莊區
中油歸仁高鐵加油站,120.277834,22.928959,台灣台南市歸仁區中正南路二段11號,台南市,歸仁區
中油台糖崇德加油站,120.227707,22.964644,台灣台南市東區生產路257號,台南市,東區
中油台中三民路加油站,120.66683,24.12812,台灣台中市南區復興路二段205巷4號,台中市,南區
台北捷運內湖機廠站,121.617835,25.06172,台灣台北市南港區經貿一路265號,台北市,南港區
中油土城加油站,121.440594,24.974409,台灣新北市土城區中央路二段278巷1號,新北市,土城區
家樂福中華店站,120.230297,23.008413,台灣台南市永康區中華二路354號,台南市,永康區
中油冬山加油站,121.786942,24.641399,台灣宜蘭縣冬山鄉冬山路二段260號,宜蘭縣,冬山鄉
HiLife 林口麗園店站,121.371525,25.069528,台灣新北市林口區文化一路一段52號,新北市,林口區
臺中市藍興停車場站(多站),120.66887,24.133783,台灣台中市西區,台中市,西區
Gogoro 桃園文中服務中心站,121.277317,24.993419,台灣桃園市桃園區桃53-1鄉道663號,桃園市,桃園區
中油文一加油站(多站),121.380542,25.051536,台灣桃園市龜山區文化一路73號,桃園市,龜山區
全聯大里益民店站,120.692871,24.107146,台灣台中市大里區益民路一段175號,台中市,大里區
中油泰山加油站,121.426882,25.064576,台灣新北市泰山區泰林路二段414巷3號,新北市,泰山區
全聯三民大順二店站(多站),120.323002,22.65073,台灣高雄市三民區大順二路510號,高雄市,三民區
全聯斗南中山店站(多站),120.480416,23.674321,台灣雲林縣斗南鎮中山路32巷6號,雲林縣,斗南鎮
新北市重新機械塔停車場站(多站),121.489843,25.058457,台灣新北市三重區重安街1號,新北市,三重區
Gogoro 北投文林北門市站(多站),121.514125,25.108432,台灣台北市北投區文林北路222號b1,台北市,北投區
中油中豐路加油站,120.724327,24.225784,台灣台中市豐原區鎌村路481-465號,台中市,豐原區
中油華城加油站(多站),121.521892,24.963498,台灣新北市新店區安康路一段319號,新北市,新店區
新和社內停一停車場站(多站),120.288138,23.079897,台灣台南市新市區民生路112號,台南市,區
全聯關西北平店站(多站),121.171397,24.794802,台灣新竹縣關西鎮北平路467號,新竹縣,關西鎮
7-ELEVEN 九份子店站(多站),120.185051,23.02186,台灣台南市安南區九份子大道6號1樓,台南市,安南區
Gogoro 台南新市門市站(多站),120.295165,23.084758,台灣台南市新市區復興路203號,台南市,區
全家斗六保明店站(多站),120.528557,23.705509,台灣雲林縣斗六市保長路52之6號,雲林縣,斗六市
士林運動中心站(多站),121.521481,25.08928,台灣台北市士林區士商路1號,台北市,士林區
Gogoro 北區中清服務中心站,120.675468,24.160652,台灣台中市北區中清路一段328號,台中市,北區
全聯豐原豐東店站,120.73195,24.25033,台灣台中市豐原區豐東路179號,台中市,豐原區
臺中市停六停車場站(大雅區)B,120.666644,24.215976,台灣台中市大雅區雅潭路四段31號,台中市,大雅區
全聯鼓山明誠店站(多站),120.301367,22.661062,台灣高雄市鼓山區明誠三路461號,高雄市,鼓山區
台糖豐泰加油站,120.520953,22.708086,台灣屏東縣屏東市海豐街231號,屏東縣,屏東市
宏佳騰士林承德店站,121.523571,25.08281,台灣台北市士林區承德路四段83號4樓之1,台北市,士林區
PGO 台南文賢店站(多站),120.193294,23.016377,台灣台南市北區文賢路811號,台南市,北區
Gogoro 中壢環中東門市站,121.255246,24.962406,台灣桃園市中壢區環中東路238號三樓號,桃園市,中壢區
阿蓮區公所站,120.327218,22.883114,台灣高雄市阿蓮區阿蓮區公所,高雄市,阿蓮區
中油復興加油站,121.35403,24.823145,台灣桃園市復興區中正路410號,桃園市,復興區
Gogoro 楠梓德惠門市站,120.302689,22.725814,台灣高雄市楠梓區德惠路19號,高雄市,楠梓區
中油台糖公正加油站,120.493781,22.913598,台灣高雄市旗山區旗甲路二段10號,高雄市,旗山區
小北百貨高雄中正店站,120.331398,22.628656,台灣高雄市苓雅區中正一路170號,高雄市,苓雅區
中油大園國際二加油站,121.198112,25.071351,台灣桃園市大園區台15線338號,桃園市,大園區
中油烏日加油站,120.634136,24.10581,台灣台中市烏日區中山路一段539號,台中市,烏日區
臺北市永吉路120巷平面停車場站(多站),121.569756,25.044365,110台灣台北市信義區永吉路120巷50弄6 樓2號,台北市,信義區
全聯麥寮橋頭店站,120.273057,23.794078,台灣雲林縣麥寮鄉雲林縣麥寮鄉橋頭村橋頭160號,雲林縣,麥寮鄉
臺北市蔣渭水紀念公園站(多站),121.516971,25.060042,台灣台北市大同區錦西街51號,台北市,大同區
中油林園加油站,120.395134,22.511827,台灣高雄市林園區林園北路350號,高雄市,林園區
特力屋高雄大順店站(多站),120.32382,22.631806,台灣高雄市苓雅區武廟路222號,高雄市,苓雅區
中油台糖德隆加油站,120.716887,24.10174,台灣台中市太平區工業路108號,台中市,太平區
中油金滿益加油站,121.457117,25.164443,台灣新北市淡水區淡金路101號,新北市,淡水區
Gogoro 馬公同和門市站(多站),119.572122,23.567456,台灣澎湖縣馬公市同和路158號3樓,澎湖縣,馬公市
臺鐵彰化車站(多站),120.538159,24.080921,台灣彰化縣彰化市三民路1號,彰化縣,彰化市
全聯新營金華店站(多站),120.300517,23.30803,台灣台南市新營區營新醫院,台南市,新營區
桃園大溪低碳轉運站,121.285424,24.883134,台灣桃園市大溪區普濟路84號,桃園市,大溪區
Gogoro 台中柳川服務中心站,120.681318,24.155132,台灣台中市北區柳川東路四段112號,台中市,北區
車麗屋新北板橋店站(多站),121.469441,25.013778,台灣新北市板橋區中山路一段279號,新北市,板橋區
HiLife 潭子曇晨店站(多站),120.700261,24.211571,台灣台中市潭子區勝利九街11號,台中市,潭子區
台糖平和加油站,121.524632,23.887766,台灣花蓮縣壽豐鄉中華路二段172號,花蓮縣,壽豐鄉
全聯高雄大樹店站(多站),120.417541,22.656857,台灣高雄市大樹區新鎮路850.858.866號,高雄市,大樹區
中油文賢路加油站,120.193452,23.004531,台灣台南市中西區文賢路229號,台南市,中西區
Gogoro 頭份自強門市站,120.905289,24.686668,351台灣苗栗縣頭份市自強路216號1 樓,苗栗縣,頭份市
福懋虎尾加油站,120.425019,23.717177,台灣雲林縣虎尾鎮文科路1131號,雲林縣,虎尾鎮
中油千越鳥松加油站,120.365442,22.653694,台灣高雄市鳥松區中正路44之77號,高雄市,鳥松區
全聯麻豆中正店站,120.252575,23.188837,台灣台南市麻豆區中正路346號,台南市,麻豆區
全家大里成功店站(多站),120.703372,24.092044,台灣台中市大里區光明路547號,台中市,大里區
中和錦和運動公園站(多站),121.490747,24.992733,台灣新北市中和區錦和路163號,新北市,中和區
中油大園民生加油站,121.202301,25.06458,台灣桃園市大園區民生南路163號,桃園市,大園區
7-ELEVEN 康平店站,120.16821,22.987315,台灣台南市安平區健康三街81號,台南市,安平區
金華郵局站,120.192727,22.981665,台灣台南市南區健康路二段182號,台南市,南區
7-ELEVEN 鈺英店站,120.618883,24.3543,台灣台中市大甲區育英路283號,台中市,大甲區
統冠超市海岸店站,121.592042,23.95363,台灣花蓮縣吉安鄉海岸路335號,花蓮縣,吉安鄉
中油霧峰林森路加油站,120.694823,24.061329,台灣台中市霧峰區林森路455號,台中市,霧峰區
新北市三鶯轉運站北側平面停車場站,121.357513,24.953956,台灣新北市鶯歌區文化路117巷10號,新北市,鶯歌區
城光重劃停車場站,120.243178,22.976194,台灣台南市仁德區文宏路160號,台南市,仁德區
HiLife 竹東巨星店站,121.05872,24.76503,台灣新竹縣竹東鎮三重路2巷8號,新竹縣,竹東鎮
中油屏東泰山加油站,120.614965,22.784476,台灣屏東縣高樹鄉產業路2號,屏東縣,高樹鄉
新北市大漢停車場機車區站(多站),121.463381,25.031541,台灣新北市板橋區民生路三段333號,新北市,板橋區
寶雅興楠店站(多站),120.331869,22.728517,台灣高雄市楠梓區興楠路355號,高雄市,楠梓區
桃園市桃園區公所站(多站),121.301246,24.993907,台灣桃園市桃園區縣府路9號,桃園市,桃園區
全聯關廟南雄店站,120.32802,22.965986,台灣台南市關廟區南雄路二段417號,台南市,關廟區
中油名揚加油站(多站),121.28401,25.01859,台灣桃園市桃園區富國路590號,桃園市,桃園區
台北捷運亞東醫院站(多站),121.452885,24.999719,台灣新北市板橋區南雅南路二段120號,新北市,板橋區
全家台南府南店站(多站),120.192941,22.971857,台灣台南市南區金華路一段484巷85號,台南市,南區
全聯斗六西平店站,120.535376,23.712018,台灣雲林縣斗六市電力公司,雲林縣,斗六市
中油金樹林加油站,121.414484,24.980203,台灣新北市樹林區中華路357號,新北市,樹林區
中油長馨加油站,121.459245,23.324063,台灣台東縣長濱鄉長濱271號,台東縣,長濱鄉
中油台中公園路加油站,120.682893,24.146555,台灣台中市北區三民路三段50號,台中市,北區
宏佳騰苓雅中華店站,120.302045,22.612773,台灣高雄市苓雅區中華四路35號,高雄市,苓雅區
洛陽綜合立體停車場B1F站,121.505002,25.047537,台灣台北市萬華區環河南路一段11巷9號,台北市,萬華區
中油員立加油站,120.585696,23.967669,台灣彰化縣員林市浮圳路二段35號,彰化縣,員林市
板橋八德公園站,121.476965,25.025483,台灣新北市板橋區雙十路二段21號,新北市,板橋區
7-ELEVEN 正大店站,121.475879,25.070634,台灣新北市三重區中正北路235號,新北市,三重區
7-ELEVEN 晨希店站,120.997233,24.866089,台灣新竹縣湖口鄉榮光路617號號,新竹縣,湖口鄉
Gogoro 永和成功服務中心站(多站),121.526481,24.997085,台灣新北市永和區成功路二段144號,新北市,永和區
家樂福便利購永康二王店站,120.24448,23.020141,台灣台南市永康區中山南路692號,台南市,永康區
新北市中興低碳停車場站(多站),121.547295,24.977326,台灣新北市新店區中興路三段6號,新北市,新店區
?亭高雄民生停車場站(多站),120.292356,22.624589,台灣高雄市前金區民生二路184號,高雄市,前金區
中油民雄加油站,120.433472,23.551,台灣嘉義縣民雄鄉嘉義縣民雄鄉,嘉義縣,民雄鄉
全家大里永興店站,120.687997,24.100389,台灣台中市大里區中興路二段156號,台中市,大里區
7-ELEVEN 龍侑店站,121.250121,24.925225,台灣桃園市平鎮區龍德路8號,桃園市,平鎮區
全家高雄明鳳店站,120.336725,22.585882,台灣高雄市前鎮區明鳳三路65號,高雄市,前鎮區
台北捷運芝山站(多站),121.522685,25.101371,台北市士林區福華路 芝山捷運站1號出口(捷運站機車轉乘停車場,台北市,士林區
新竹縣北埔鄉公所站(多站),121.056727,24.701879,台灣新竹縣北埔鄉中山路25號,新竹縣,北埔鄉
統一速邁樂華亞加油站(多站),121.376428,25.05428,台灣桃園市龜山區文化一路86之6號,桃園市,龜山區
安富街廣停6停車場站(多站),120.199082,23.027292,台灣台南市安南區安富街133號,台南市,安南區
安南區自辦重劃廣停1停車場站(多站),120.205965,23.032643,台灣台南市安南區慈安路181號,台南市,安南區
大學路社E2 停車場站,120.216609,22.995596,台灣台南市東區育樂街48號,台南市,東區
中油大內加油站,120.354833,23.121129,台灣台南市大內區石子瀨122之12號,台南市,大內區
中油玉里加油站,121.312275,23.333611,台灣花蓮縣玉里鎮大同路219號,花蓮縣,玉里鎮
臺中市中山地政事務所站(多站),120.673757,24.136714,台灣台中市西區三民路一段158號,台中市,西區
7-ELEVEN 社和店站,120.808221,24.252364,台灣台中市新社區中和街五段115號,台中市,新社區
中油大坪加油站,120.891819,24.614491,台灣苗栗縣造橋鄉7之30號,苗栗縣,造橋鄉
臺北市樹德公園站(多站),121.51657,25.067156,台灣台北市大同區大龍街91巷7號,台北市,大同區
孝忠里民活動中心站(多站),121.781191,25.130526,台灣基隆市信義區深溪路8號,基隆市,信義區
車麗屋彰化金馬店站,120.531923,24.086601,台灣彰化縣彰化市金馬路三段198號,彰化縣,彰化市
全聯台中永興店站(多站),120.682492,24.165426,台灣台中市北區太原路二段231號,台中市,北區
中油亮漢白沙屯加油站,120.705136,24.556936,台灣苗栗縣通霄鎮中山路128號,苗栗縣,通霄鎮
全聯新化忠孝店站,120.300611,23.036851,台灣台南市新化區忠孝路198-7、202號,台南市,新化區
社子國小地下停車場B1F站,121.502127,25.091367,台灣台北市士林區延平北路六段308號,台北市,士林區
7-ELEVEN 忠柯店站,121.378877,25.068429,台灣新北市林口區忠孝路642號,新北市,林口區
阿毅輪胎鳳山青年店站(多站),120.350474,22.635934,台灣高雄市鳳山區青年路二段150-6號,高雄市,鳳山區
迪卡儂台中南屯店站(多站),120.649932,24.130811,台灣台中市南屯區大墩南路199號,台中市,南屯區
中油大同路加油站,120.213935,22.975234,台灣台南市南區大同路二段380號,台南市,南區
全聯嘉義民雄店站(多站),120.426492,23.558919,台灣嘉義縣民雄鄉復興路226號,嘉義縣,民雄鄉
寶雅六甲中正店站(多站),120.351575,23.232305,台灣台南市六甲區中正路591號,台南市,六甲區
全聯員林浮圳店站,120.583319,23.967488,台灣彰化縣員林市浮圳路二段135號510,彰化縣,員林市
7-ELEVEN 福新店站(多站),120.687039,23.968852,台灣南投縣草屯鎮虎山路495號,南投縣,草屯鎮
中油全通加油站,120.442592,22.715201,台灣高雄市大樹區大坑路109號,高雄市,大樹區
全聯彰化福興店站,120.431427,24.050827,台灣彰化縣福興鄉沿海路五段363號,彰化縣,福興鄉
7-ELEVEN 星光店站,120.46291,23.794191,台灣雲林縣西螺鎮興農西路56號,雲林縣,西螺鎮
全聯蘆竹山腳店站(多站),121.28734,25.08816,台灣桃園市蘆竹區南山路三段435號,桃園市,蘆竹區
家樂福新屏店站(多站),120.48905,22.663359,台灣屏東縣屏東市台糖街3號,屏東縣,屏東市
全聯佳里中山店站,120.177323,23.164411,台灣台南市佳里區中山路452、456號,台南市,佳里區
中油順興加油站,121.036497,24.880017,台灣新竹縣湖口鄉八德路一段392號,新竹縣,湖口鄉
家樂福嘉義店站,120.431152,23.470922,台灣嘉義市西區600,嘉義市,西區
全家鳥松濱湖店站(多站),120.358363,22.662763,台灣高雄市鳥松區文前路3巷21之1號,高雄市,鳥松區
中油台糖國泰加油站,120.353674,22.615387,台灣高雄市鳳山區國泰路一段273號,高雄市,鳳山區
中油台糖曾文加油站,120.270713,23.164486,台灣台南市善化區溪底寮67號,台南市,善化區
7-ELEVEN 真嘉店站(多站),120.475978,23.672497,台灣雲林縣斗南鎮延平路二段520號,雲林縣,斗南鎮
湖廣停10站停車場站,120.441446,23.450621,台灣嘉義市西區湖子內路227號,嘉義市,西區
中油九曲堂加油站,120.417654,22.642524,台灣高雄市大寮區鳳屏二路297號,高雄市,大寮區
中油羅東加油站,121.769263,24.697271,台灣宜蘭縣五結鄉中正路二段90號,宜蘭縣,五結鄉
全聯岡山壽華店站,120.292002,22.800159,台灣高雄市岡山區壽華路131巷1號,高雄市,岡山區
中油台糖加昌加油站,120.299704,22.715217,台灣高雄市楠梓區加昌路633-1號,高雄市,楠梓區
7-ELEVEN 宏橋店站,121.026532,24.870261,台灣新竹縣湖口鄉工業一路7號號,新竹縣,湖口鄉
中油三多加油站,121.415374,25.008859,台灣新北市樹林區116縣道433號,新北市,樹林區
全聯台東漢陽店站(多站),121.137871,22.741963,台灣台東縣台東市漢陽南路89號,台東縣,台東市
中油追分加油站,120.573343,24.119666,台灣台中市大肚區沙田路一段167號,台中市,大肚區
7-ELEVEN 立揚店站,121.295373,24.995533,台灣桃園市桃園區正光路116號,桃園市,桃園區
7-ELEVEN 鎮豐店站(多站),121.208209,24.900175,台灣桃園市平鎮區南豐路99號,桃園市,平鎮區
全家新莊龍鳳店站,121.422858,25.028864,台灣新北市新莊區107縣道729號,新北市,新莊區
嘉義市文化局站(多站),120.451794,23.487879,台灣嘉義市東區忠孝路275號,嘉義市,東區
中油台西加油站,120.20286,23.699045,台灣雲林縣台西鄉中山路36號,雲林縣,台西鄉
新北市新埔立體停車場站(多站),121.458061,25.023793,台灣新北市板橋區龍泉街199號,新北市,板橋區
全家竹北新崙店站(多站),120.998646,24.829621,台灣新竹縣竹北市光明十一路37號,新竹縣,竹北市
全聯嘉義南京店站,120.436282,23.464524,台灣嘉義市西區南京路416號,嘉義市,西區
全家竹東上舜店站,121.056052,24.772233,台灣新竹縣竹東鎮光明路261號263號,新竹縣,竹東鎮
新北市光明平面停車場站,121.374118,24.930429,台灣新北市三峽區光明路39-1號,新北市,三峽區
新北市龍埔公園平面停車場站(多站),121.374158,24.938514,台灣新北市三峽區國光街60號,新北市,三峽區
應安168 福州停車場站(多站),121.514618,25.026534,台灣台北市中正區汀州路二段13巷9號,台北市,中正區
全家台中金工店站(多站),120.612677,24.171507,台灣台中市西屯區工業區一路111號,台中市,西屯區
大道停6停車場站(多站),120.215819,23.009493,台灣台南市北區北門路二段506號,台南市,北區
福懋大甲加油站,120.62767,24.35081,台灣台中市大甲區中山路一段970號,台中市,大甲區
臺北市建國北路高架橋下停車場站(多站),121.536697,25.046727,台灣台北市中山區台北市中山區,台北市,中山區
7-ELEVEN 翔盛店站,120.381369,22.658767,台灣高雄市鳥松區神農路479號,高雄市,鳥松區
加昌駕訓班站(多站),120.311423,22.713983,台灣高雄市楠梓區學專路101號,高雄市,楠梓區
7-ELEVEN 丹榮店站(多站),120.49194,22.588824,台灣屏東縣屏東市和平東路2號,屏東縣,屏東市
臺中市廣兼停八停車場站(多站),120.705196,24.174317,台灣台中市北屯區台中市北屯區,台中市,北屯區
新北市玫瑰中正路停車場站(多站),121.454511,25.024427,台灣新北市板橋區板橋國中(435藝文特區),新北市,板橋區
全聯台中大鵬店站(多站),120.663308,24.177976,台灣台中市西屯區大鵬路107號,台中市,西屯區
中油大佳加油站,121.831078,24.613767,台灣宜蘭縣蘇澳鎮蘇澳鎮海山西路300號,宜蘭縣,蘇澳鎮
中油中工加油站,121.23864,24.965232,台灣桃園市中壢區中華路二段200號,桃園市,中壢區
中油台糖博學加油站,120.37072,22.563186,台灣高雄市小港區博學路481號,高雄市,小港區
中油嘉義忠孝路加油站,120.44109,23.518032,台灣嘉義市東區忠孝路808號,嘉義市,東區
中油玉井加油站,120.465319,23.120863,台灣台南市玉井區中山路91號,台南市,玉井區
家樂福鳳山店站,120.347984,22.627902,台灣高雄市鳳山區中山西路245之2號,高雄市,鳳山區
7-ELEVEN 興達港店站,120.19275,22.874362,台灣高雄市茄萣區民治路188號,高雄市,茄萣區
全聯新營民生店站,120.307183,23.31157,台灣台南市新營區民生路170號,台南市,新營區
臺北市樂活公園站(多站),121.618587,25.06844,114台灣台北市內湖區康樂街61巷2 樓3號,台北市,內湖區
7-ELEVEN 東馳店站,121.219029,23.12292,台灣台東縣池上鄉忠孝路213號,台東縣,池上鄉
中油必勝加油站,120.906892,24.730505,台灣苗栗縣竹南鎮公義路2000號,苗栗縣,竹南鎮
7-ELEVEN 永嘉店站(多站),120.24903,23.01867,台灣台南市永康區二王路139號,台南市,永康區
中油茄苳加油站,121.269632,24.977043,台灣桃園市八德區中華路575號,桃園市,八德區
Gogoro 蘆竹中正門市站,121.292728,25.046538,台灣桃園市蘆竹區中正路124號,桃園市,蘆竹區
台北捷運民權西路站(多站),121.519983,25.061228,台灣台北市中山區台北市中山區,台北市,中山區
全家竹南崁頂店站,120.885283,24.690468,台灣苗栗縣竹南鎮永貞路二段149號,苗栗縣,竹南鎮
中油龍潭交流道加油站,121.217391,24.870976,台灣桃園市龍潭區大昌路一段160號,桃園市,龍潭區
嘉義福利站(多站),120.462403,23.484121,台灣嘉義市東區民權路50-1號,嘉義市,東區
中油中彰彰興加油站,120.588191,24.091605,台灣彰化縣彰化市彰興路二段48-11號,彰化縣,彰化市
HiLife 鳳山鳳頂店站,120.366166,22.588277,台灣高雄市鳳山區頂庄路50號,高雄市,鳳山區
CITYLINK 內湖店站(多站),121.59399,25.08462,台灣台北市內湖區金龍路30號,台北市,內湖區
家樂福中原店B2F站,121.231388,24.962454,台灣桃園市中壢區中華路二段501號,桃園市,中壢區
台北捷運士林站(多站),121.526304,25.092362,台灣台北市士林區中山北路五段505巷35號號,台北市,士林區
全家東港東光店站(多站),120.459232,22.467423,台灣屏東縣東港鎮新興三街202號,屏東縣,東港鎮
花蓮醫院站(多站),121.61132,23.979628,台灣花蓮縣花蓮市中正路600號,花蓮縣,花蓮市
統冠超市府前店站,121.619273,24.004064,台灣花蓮縣花蓮市府前路606號,花蓮縣,花蓮市
全家頭份田寮店站,120.88222,24.682551,台灣苗栗縣頭份市自強路二段628號,苗栗縣,頭份市
全聯台中建國南店站(多站),120.658105,24.124761,台灣台中市南區建國南路一段259號,台中市,南區
新莊運動中心站(多站),121.449293,25.039681,台灣新北市新莊區公園路60號,新北市,新莊區
全聯前鎮和誠店站,120.321422,22.579013,台灣高雄市前鎮區和誠街117號,高雄市,前鎮區
家樂福安平店站(多站),120.187136,22.988416,台灣台南市中西區中華西路二段16號,台南市,中西區
HiLife 竹縣東光店站,121.028468,24.869726,台灣新竹縣湖口鄉光復東路152號,新竹縣,湖口鄉
全家台東大竹店站,120.943541,22.454968,台灣台東縣大武鄉965,台東縣,大武鄉
順發3C新竹店站,121.001516,24.793641,台灣新竹市東區金城一路7號,新竹市,東區
嘉義市中央廣場站(多站),120.449402,23.481125,台灣嘉義市東區中央廣場[幸福巴士],嘉義市,東區
新北市捷運環狀線A區停車場站(多站),121.519198,24.991508,台灣新北市中和區景平路71-3號,新北市,中和區
中油岡山交流道加油站,120.317019,22.787108,台灣高雄市燕巢區安招路1044號,高雄市,燕巢區
中油林森二路加油站(多站),120.305676,22.623418,台灣高雄市新興區忠孝一路69巷12號,高雄市,新興區
勝利加油站(多站),121.537682,25.030964,台灣台北市大安區建國南路二段75-1號,台北市,大安區
Gogoro 中山松江服務中心站,121.533086,25.066903,104台灣台北市中山區松江路530 樓6號,台北市,中山區
山隆鶯歌加油站(多站),121.336648,24.971653,台灣新北市鶯歌區鶯歌路276號,新北市,鶯歌區
中油新南投交流道加油站,120.68451,23.91764,台灣南投縣南投市華陽路258號,南投縣,南投市
臺中市建成停車場站(多站),120.699116,24.155028,台灣台中市北區東光五街112號,台中市,北區
大魯閣棒壘球打擊練習場中壢館站(多站),121.249674,24.957432,台灣桃園市中壢區普忠路407號,桃園市,中壢區
新北市雙溪低碳鐵馬驛站,121.866403,25.038991,台灣新北市雙溪區自強路5-1號,新北市,雙溪區
中油豐濱加油站,121.520327,23.602346,台灣花蓮縣豐濱鄉光豐路977號,花蓮縣,豐濱鄉
中油南庄加油站,121.001593,24.605764,台灣苗栗縣南庄鄉中正路197號,苗栗縣,南庄鄉
全聯新竹大庄店站(多站),120.92808,24.792318,台灣新竹市香山區香北路58號,新竹市,香山區
全聯中壢普忠店站,121.256297,24.949516,台灣桃園市中壢區普忠路1168號,桃園市,中壢區
享溫馨KTV 巨蛋店站(多站),120.303008,22.66381,台灣高雄市鼓山區博愛二路357號,高雄市,鼓山區
全聯新竹金山店站,121.02001,24.778504,台灣新竹市東區金山七街6巷1號,新竹市,東區
家樂福豐原店站,120.70678,24.25195,台灣台中市豐原區成功路500號,台中市,豐原區
星巴克屏東東港店站(多站),120.454939,22.469251,台灣屏東縣東港鎮光復路一段356號,屏東縣,東港鎮
宏佳騰大安和平店站(多站),121.553152,25.020517,台灣台北市大安區安居街60巷18號,台北市,大安區
Nova 資訊廣場中壢店站,121.215123,24.95571,台灣桃園市中壢區民族路22號,桃園市,中壢區
燕巢區公所站,120.361954,22.787963,台灣高雄市燕巢區中安路1號,高雄市,燕巢區
新北市蘆洲中山立體停車場站(多站),121.473118,25.083567,台灣新北市蘆洲區得勝街107號,新北市,蘆洲區
中油大益加油站,120.41185,22.548368,台灣高雄市大寮區鳳林一路502號,高雄市,大寮區
HiLife 苗縣頂尖店站,120.925978,24.70636,台灣苗栗縣頭份市中華路1770號,苗栗縣,頭份市
新北市廣停一平面停車場站(多站),121.372261,25.075485,台灣新北市林口區文化二路一段413號,新北市,林口區
中油北屯加油站,120.701449,24.179614,台灣台中市北屯區北屯路438號,台中市,北屯區
臺北植物園站(多站),121.508477,25.030803,台灣台北市中正區和平西路二段102號,台北市,中正區
山隆高雄加油站,120.37023,22.52982,台灣高雄市小港區沿海三路26之3號,高雄市,小港區
中油梧棲加油站,120.532083,24.26079,台灣台中市梧棲區八德路2號,台中市,梧棲區
中油前鋒路加油站,120.215415,23.004692,台灣台南市北區前鋒路285號,台南市,北區
全家高雄德昌店站,120.293879,22.723613,台灣高雄市楠梓區惠民路220號,高雄市,楠梓區
全家竹南環營店站,120.873055,24.682179,台灣苗栗縣竹南鎮環市路一段162號1樓,苗栗縣,竹南鎮環市
家樂福五甲店站,120.336313,22.597134,台灣高雄市鳳山區林森路291號3樓,高雄市,鳳山區
全聯台中新民店站(多站),120.689623,24.158914,台灣台中市北區健行路37號,台中市,北區
中油楠梓加油站,120.325393,22.719667,台灣高雄市楠梓區高楠公路1376號,高雄市,楠梓區
7-ELEVEN 宣宏店站(多站),121.764162,24.690715,台灣宜蘭縣羅東鎮復興路二段257號,宜蘭縣,羅東鎮
Gogoro 虎尾光復門市站,120.433871,23.711194,台灣雲林縣虎尾鎮光復路482號,雲林縣,虎尾鎮
台北捷運復興崗站(多站),121.486349,25.137717,台灣台北市北投區中央北路三段11-1號1樓,台北市,北投區
全聯中和新生店站(多站),121.484047,24.99845,台灣新北市中和區新生街251號,新北市,中和區
Gogoro 彰化中正門市站,120.537293,24.079178,台灣彰化縣彰化市中正路二段130號,彰化縣,彰化市
高雄市苓雅區成功一路站(多站),120.297872,22.613204,台灣高雄市苓雅區成功一路55號,高雄市,苓雅區
家樂福花蓮店站(多站),121.610095,24.01566,台灣花蓮縣新城鄉嘉里路15號,花蓮縣,新城鄉
中油和美加油站,120.502774,24.106851,台灣彰化縣和美鎮彰美路五段89號,彰化縣,和美鎮
桃園市僑愛平面停車場站,121.294076,24.921752,台灣桃園市大溪區介壽路92號,桃園市,大溪區
中油冠遠加油站,120.66509,23.849342,台灣南投縣名間鄉出林虎路一段146號,南投縣,名間鄉
7-ELEVEN 友樂店站,120.436061,23.537462,台灣嘉義縣民雄鄉建國路二段146-61號,嘉義縣,民雄鄉
全家內門羅漢門店站,120.454139,22.9233,台灣高雄市內門區南屏路233號,高雄市,內門區
中油屏東交流道加油站,120.505359,22.69519,台灣屏東縣屏東市海豐街2-25號號,屏東縣,屏東市
Gogoro 安南北安店站(多站),120.202787,23.039598,台灣台南市安南區北安路三段,台南市,安南區
7-ELEVEN 三中店站(多站),120.661351,24.158891,台灣台中市西區博館路231號,台中市,西區
台糖綠揚加油站,120.537533,23.675959,台灣雲林縣斗六市仁義路110號,雲林縣,斗六市
全家鹽埔高朗店站(多站),120.584361,22.739021,台灣屏東縣鹽埔鄉三民路80-1號,屏東縣,鹽埔鄉
臺中市林森停車場站(多站),120.673331,24.134072,台灣台中市西區林森路27巷19號,台中市,西區
仁德116停車場站(多站),120.397822,22.593031,台灣高雄市大寮區仁勇路69號,高雄市,大寮區
台北捷運石牌站(多站),121.514772,25.115368,台灣台北市北投區西安街二段230號,台北市,北投區
7-ELEVEN 淵安店站,120.180916,23.050219,台灣台南市安南區仁安四街9號,台南市,安南區
山隆龍興加油站(多站),121.245065,24.944899,台灣桃園市中壢區龍興路693號,桃園市,中壢區
中油宏苗加油站,120.79645,24.58748,台灣苗栗縣苗栗市圓墩,苗栗縣,苗栗市
全家太平普拉斯店站(多站),120.733365,24.154344,台灣台中市太平區大興路115-1號,台中市,太平區
寶雅高雄路竹店站(多站),120.26143,22.852894,台灣高雄市路竹區中山路886號,高雄市,路竹區
中油台糖高鐵加油站,120.321494,22.693556,台灣高雄市仁武區高楠公路55號,高雄市,仁武區
新北市自強公園站(多站),121.470368,24.999806,台灣新北市中和區國光街85巷10號,新北市,中和區
7-ELEVEN 南門城店站,120.204114,22.983656,台灣台南市中西區南門路229號,台南市,中西區
中油鳳仁加油站,120.348399,22.69497,台灣高雄市仁武區鳳仁路177號,高雄市,仁武區
HiLife 湖口德成店站,121.04147,24.892803,台灣新竹縣湖口鄉中山路一段506號,新竹縣,湖口鄉
山隆苓雅加油站(多站),120.33594,22.616498,台灣高雄市苓雅區武營路433號,高雄市,苓雅區
中油廣進加油站,121.768826,24.724303,台灣宜蘭縣宜蘭市中山路一段118號,宜蘭縣,宜蘭市
7-ELEVEN 景竹店站(多站),121.26069,25.025638,台灣桃園市蘆竹區南竹路五段200號,桃園市,蘆竹區
中油員山加油站(多站),121.731057,24.747404,台灣宜蘭縣員山鄉員山路一段31號,宜蘭縣,員山鄉
7-ELEVEN 青文店站,120.352379,22.64042,台灣高雄市鳳山區文衡路343號,高雄市,鳳山區
北基世貿加油站(多站),120.61822,24.187084,台灣台中市西屯區福康路145號,台中市,西屯區
中油神崗加油站,120.67093,24.25684,台灣台中市神岡區中山路1130號,台中市,神岡區
全家竹北新華興店站,120.999799,24.837543,台灣新竹縣竹北市華興街289號,新竹縣,竹北市
中油永錡泰山加油站,121.435248,25.057544,台灣新北市泰山區泰林路二段64號,新北市,泰山區
中油台南土庫加油站,120.250259,22.991191,台灣台南市仁德區太子五街2號,台南市,仁德區
全家大發仁愛店站,120.394738,22.636579,台灣高雄市大寮區仁愛路22號,高雄市,大寮區
中油台糖成功嶺加油站,120.60723,24.127163,台灣台中市南屯區忠勇路1號,台中市,南屯區
全聯龍潭三林店站,121.230988,24.848274,台灣桃園市龍潭區中正路三林段298號,桃園市,龍潭區
7-ELEVEN 東泓店站(多站),120.699866,24.127188,台灣台中市東區東門路140號,台中市,東區
UNIQLO 桃園春日路店站(多站),121.306362,25.023602,台灣桃園市桃園區鹽庫西街46巷28號,桃園市,桃園區
新北市永和名利橋站(多站),121.50095,25.007849,台灣新北市永和區仁愛路352巷98號,新北市,永和區
中油辰鴻加油站,121.009752,24.772095,台灣新竹縣寶山鄉園區三路3號,新竹縣,寶山鄉
中油內湖麗山街加油站,121.570914,25.08132,台灣台北市內湖區內湖路一段362號,台北市,內湖區
中油新厝高鳳加油站,120.371693,22.577511,台灣高雄市小港區高鳳路272號,高雄市,小港區
華夏科技大學站(多站),121.507926,24.980303,台灣新北市中和區聚鈺樓,新北市,中和區
全家永康龍橋店站,120.264658,23.03779,台灣台南市永康區自強路830號號旁,台南市,永康區
中油新水加油站,121.826966,24.680266,台灣宜蘭縣五結鄉五濱路二段206號,宜蘭縣,五結鄉
新北市福和國中停車場站,121.522936,25.004817,台灣新北市永和區永亨路99-85號,新北市,永和區
板橋體育館站(多站),121.456419,25.013029,台灣新北市板橋區板橋戶政事務所(黃石中繼市場),新北市,板橋區
中油苗交加油站,120.819161,24.528198,台灣苗栗縣公館鄉76-1,苗栗縣,公館鄉
台亞大林加油站,120.448038,23.603422,台灣嘉義縣大林鎮明華路48之9號,嘉義縣,大林鎮
五妃街南側停車場站(多站),120.208775,22.982461,台灣台南市中西區法華街164號,台南市,中西區
全聯豐原成功店站(多站),120.708785,24.245768,台灣台中市豐原區成功路198號,台中市,豐原區
全聯羅東中正店站(多站),121.771759,24.669795,台灣宜蘭縣羅東鎮中正南路88號,宜蘭縣,羅東鎮
中油復興路加油站,120.487985,22.661074,台灣屏東縣屏東市復興路261號,屏東縣,屏東市
大潤發台中忠明店站(多站),120.671618,24.163088,台灣台中市北區忠明路485-499號,台中市,北區
正濱海濱聯合里民活動中心站(多站),121.771861,25.151416,台灣基隆市中正區中正路623號,基隆市,中正區
7-ELEVEN 海裕店站(多站),120.199681,23.006395,台灣台南市北區海安路三段219巷5號1樓,台南市,北區
新北市澳底公園地下停車場站,121.925722,25.053533,台灣新北市貢寮區仁愛路58號,新北市,貢寮區
左營福利站,120.291952,22.690531,台灣高雄市左營區實踐路46號,高雄市,左營區
山隆軍校加油站(多站),120.268624,22.771236,台灣高雄市岡山區石潭路102號,高雄市,岡山區
臺中市潭子區聯合辦公大樓站(多站),120.723014,24.20389,台灣台中市潭子區潭興路一段114號,台中市,潭子區
遠傳總部大樓站,121.570202,25.078347,台灣台北市內湖區瑞光港墘路口,台北市,內湖區
八百屋旗艦自由店站(多站),120.310456,22.67068,台灣高雄市左營區自由自由三路101巷口西北側,高雄市,左營區
中油墾丁加油站,120.7927,21.946029,台灣屏東縣恆春鎮墾丁路402號,屏東縣,恆春鎮
中華電信桃園服務中心站(多站),121.310081,24.989354,台灣桃園市桃園區復興路181號,桃園市,桃園區
7-ELEVEN 鳳麟店站(多站),120.396496,22.50659,台灣高雄市林園區鳳林路一段,高雄市,林園區
中油明泓加油站,121.138858,25.009785,台灣桃園市觀音區環中路392號,桃園市,觀音區
全聯沙鹿屏西店站(多站),120.570761,24.217631,台灣台中市沙鹿區鎮南路二段46號,台中市,沙鹿區
中油南寮漁港加油站,120.237269,22.764252,台灣高雄市彌陀區漁港路73號,高雄市,彌陀區
全家台中金太平店站(多站),120.682632,24.148675,台灣台中市北區太平路66號,台中市,北區
Gogoro 龍潭中正門市站(多站),121.217951,24.861472,台灣桃園市龍潭區中正路323號,桃園市,龍潭區
新北市青山平面停車場站(多站),121.459224,24.978464,台灣新北市土城區青仁路70號,新北市,土城區
千葉火鍋豐原店站(多站),120.726026,24.251638,台灣台中市豐原區自成街60號,台中市,豐原區
全家嘉義湖瑞店站(多站),120.443545,23.45575,台灣嘉義市西區南京民生南路口[幸福巴士],嘉義市,西區
新化聯合活動中心站,120.306927,23.042164,台灣台南市新化區民生路266號,台南市,新化區
7-ELEVEN 光園店站,120.694863,24.127367,台灣台中市東區東光園路142號,台中市,東區
新北市台65高架橋下停車場站(多站),121.442167,25.049127,台灣新北市新莊區立信一街37號,新北市,新莊區
Gogoro 饒河服務中心站,121.57504,25.049851,台灣台北市松山區八德路四段650號,台北市,松山區
崇明路E6停車場站(多站),120.225613,22.968671,台灣台南市東區崇明路718號,台南市,東區
HiLife 台中交轉店站,120.68564,24.141114,台灣台中市中區雙十路一段29號,台中市,中區
北基蘆洲加油站(多站),121.469445,25.077642,台灣新北市蘆洲區中山一路304號,新北市,蘆洲區
7-ELEVEN 東喜店站,121.127153,22.790351,台灣台東縣台東市興安路一段197號,台東縣,台東市
全家高雄重愛店站,120.315791,22.68548,台灣高雄市左營區重愛路208號,高雄市,左營區
中油屏東大同加油站,120.523414,22.541321,台灣屏東縣潮州鎮大同路271號,屏東縣,潮州鎮
高雄仁壽路郵局站(多站),120.285701,22.785804,台灣高雄市岡山區仁壽路215號,高雄市,岡山區
中油屏東恆春加油站,120.744001,22.009168,台灣屏東縣恆春鎮200縣道16號,屏東縣,恆春鎮
師大校本部站(多站),121.526498,25.026609,台灣台北市大安區和平東路一段162號,台北市,大安區
嘉義市港坪運動公園二停車場站,120.421775,23.476053,台灣嘉義市西區大同路513號,嘉義市,西區
7-ELEVEN 江園店站,121.228615,25.00436,台灣桃園市大園區中正東路三段620號,桃園市,大園區
中油台糖新進加油站,120.317539,23.301534,台灣台南市新營區新進路199號,台南市,新營區
花蓮新城北埔郵局站(多站),121.60389,24.040379,台灣花蓮縣新城鄉光復路578號,花蓮縣,新城鄉
鐵道文化園區二館站(多站),121.610269,23.974407,台灣花蓮縣花蓮市中山路71號,花蓮縣,花蓮市
HiLife 台南南都店站(多站),120.192459,22.966991,台灣台南市南區新都路467號,台南市,南區
中油埔心加油站,120.553746,23.953284,台灣彰化縣埔心鄉員鹿路一段405號,彰化縣,埔心鄉
臺中市寶之林廢棄家具再生中心站(多站),120.721668,24.173102,台灣台中市北屯區軍福十三路270號,台中市,北屯區
HiLife 桃縣大介店站,121.287896,24.910325,台灣桃園市大溪區介壽路570號,桃園市,大溪區
愛買板橋南雅店站(多站),121.456361,25.001697,台灣新北市板橋區貴興路101號,新北市,板橋區
Gogoro 斗六明德北門市站,120.535096,23.715078,台灣雲林縣斗六市明德北路二段350號,雲林縣,斗六市
7-ELEVEN 維軒店站,120.59575,22.382439,台灣屏東縣枋寮鄉中山路二段143號,屏東縣,枋寮鄉
中油西港加油站,120.204283,23.116232,台灣台南市西港區中山路52號,台南市,西港區
臺北市建國仁愛路口站(多站),121.538265,25.03947,台灣台北市大安區建國南路一段177號,台北市,大安區
中油石門加油站,121.561419,25.291225,台灣新北市石門區中央路1之15號,新北市,石門區
桃園市忠勇停車場站(多站),121.305559,24.965513,台灣桃園市八德區忠勇一街31號,桃園市,八德區
7-ELEVEN 明峰店站(多站),121.628417,25.070012,台灣新北市汐止區明峰街179之1號,新北市,汐止區
eReady 台中精武店站(多站),120.692283,24.148017,台灣台中市東區精武路138-2號,台中市,東區
HiLife 太平光德店站,120.724921,24.108111,台灣台中市太平區光德路371號,台中市,太平區
台南市永康區復興路停車場站(多站),120.244288,22.998986,台灣台南市永康區復興路174號,台南市,永康區
全家龍井遊園北店站(多站),120.590654,24.191302,台灣台中市龍井區遊園北路445號,台中市,龍井區
7-ELEVEN 員慶店站,120.600403,23.941926,台灣彰化縣員林市山腳路一段384號,彰化縣,員林市
新興游泳池站(多站),120.310953,22.625525,台灣高雄市新興區民權一路235-452號,高雄市,新興區
7-ELEVEN 烏日店站(多站),120.624313,24.104068,台灣台中市烏日區台1乙線233號,台中市,烏日區
全聯楊梅民族店站(多站),121.171776,24.958406,台灣桃園市楊梅區民族路五段219號,桃園市,楊梅區
中油中華路西加油站,120.226143,22.977738,台灣台南市東區中華東路三段170號,台南市,東區
宏佳騰高雄民族店站(多站),120.316854,22.668763,台灣高雄市三民區民族一路619號,高雄市,三民區
崁頂鄉公所站(多站),120.513742,22.514784,台灣屏東縣崁頂鄉中正路224號,屏東縣,崁頂鄉
臺北市內湖焚化廠站(多站),121.603495,25.062583,台灣台北市內湖區內湖焚化廠(葫蘆洲公園),台北市,內湖區
7-ELEVEN 欣樂店站(多站),120.985941,24.871887,台灣新竹縣新豐鄉康樂路一段358號,新竹縣,新豐鄉
新北市力行地下停車場B1F站,121.482921,25.077758,台灣新北市三重區永福街10巷8號B1-B3,新北市,三重區
迪卡儂新竹店站,121.012791,24.791263,300台灣新竹市東區慈雲路118號5 樓,新竹市,東區
中油東山路加油站,120.728089,24.176918,台灣台中市北屯區東山路一段377之5號,台中市,北屯區
Gogoro 鳳山青年店站,120.350948,22.639565,台灣高雄市鳳山區青年路二段286號,高雄市,鳳山區
A5 泰山站(多站),121.439608,25.052557,台灣新北市泰山區新北大道四段431號泰山,新北市,泰山區
家樂福鼎山店站,120.31859,22.652832,台灣高雄市三民區大順二路849號,高雄市,三民區
中油北關加油站,121.870417,24.905401,台灣宜蘭縣頭城鎮濱海路三段292號,宜蘭縣,頭城鎮
HiLife 中縣甲南店站(多站),120.595693,24.301255,台灣台中市清水區劉厝,台中市,清水區
宏佳騰南區復興店站(多站),120.650836,24.111791,台灣台中市南區復興路一段14號,台中市,南區
桃園市文小二停車場站,121.288791,25.000711,台灣桃園市桃園區慈文路969號六樓號,桃園市,桃園區
新北市永平市場站(多站),121.459304,25.090046,台灣新北市蘆洲區長榮路395號,新北市,蘆洲區
雲林縣環保局站(多站),120.537416,23.707276,台灣雲林縣斗六市鎮西國小,雲林縣,斗六市
全聯虎尾光復店站,120.44463,23.709559,台灣雲林縣虎尾鎮虎尾分局,雲林縣,虎尾鎮
中油北門加油站,120.134118,23.241499,台灣台南市北門區174縣道151號,台南市,北門區
Gogoro 板橋廣權交車中心站,121.460446,24.990996,台灣新北市板橋區廣權路6號4樓2號4樓,新北市,板橋區
7-ELEVEN 凱瑄店站(多站),120.474495,23.679346,台灣雲林縣斗南鎮文昌路245號,雲林縣,斗南鎮
台南市南區大林路111巷停車場站(多站),120.211886,22.974207,台灣台南市南區大同路二段482巷112弄15號,台南市,南區
中油汶水加油站,120.873751,24.448162,台灣苗栗縣大湖鄉水尾41號,苗栗縣,大湖鄉
全家淡水新莊店站(多站),121.454239,25.179852,台灣新北市淡水區淡金路一段166號,新北市,淡水區
中油永錡大安加油站,121.411753,24.984016,台灣新北市樹林區大安路576號,新北市,樹林區
新北市建國公有停車場站(多站),121.537339,24.986343,台灣新北市新店區建國路293號,新北市,新店區
家樂福便利購太平環中店站,120.715229,24.149201,台灣台中市太平區中山路三段110號,台中市,太平區
中油明德195加油站,120.77195,24.27479,台灣台中市石岡區明德路195號,台中市,石岡區
法務部行政執行署臺中分署站(多站),120.665564,24.129433,台灣台中市西區三民路一段27巷13號,台中市,西區
新北市台北橋下機車停車場站,121.50362,25.064268,台灣新北市三重區重新路一段3號,新北市,三重區
新北市三重過圳街20號旁站(多站),121.488577,25.059176,台灣新北市三重區過圳街20號,新北市,三重區
新北市八里區公所站(多站),121.406651,25.15364,台灣新北市八里區八里行政中心(十三行博物館),新北市,八里區
HiLife 竹縣富林店站,121.077322,24.77744,台灣新竹縣芎林鄉文德路51號,新竹縣,芎林鄉
中油鳳林加油站,121.446196,23.741298,台灣花蓮縣鳳林鎮中正路一段411巷37號,花蓮縣,鳳林鎮
康是美竹北藥局店站(多站),121.023384,24.813304,台灣新竹縣竹北市自強南路211號,新竹縣,竹北市
高雄市都發局德民路站(多站),120.296849,22.72274,台灣高雄市楠梓區德民路607號四樓之2號,高雄市,楠梓區
全聯新竹龍山店站(多站),121.010439,24.790623,台灣新竹市東區立鵬路19號,新竹市,東區
全聯太平樹德店站,120.71185,24.154161,台灣台中市太平區樹德路117號,台中市,太平區
全聯中壢福州店站,121.232675,24.965527,台灣桃園市中壢區福州一街126號,桃園市,中壢區
河濱運動公園西側停車場站,120.461787,23.457619,台灣嘉義市東區興仁街151-153號,嘉義市,東區
HiLife 新北三峽店站,121.375026,24.929418,台灣新北市三峽區光明路60號,新北市,三峽區
宜蘭福利站(多站),121.772746,24.67879,台灣宜蘭縣羅東鎮大同路27號,宜蘭縣,羅東鎮
臺中市停二停車場站(多站),120.649601,24.224511,台灣台中市大雅區學府路286號,台中市,大雅區
7-ELEVEN 新凱店站,120.284973,23.077103,台灣台南市新市區社內12-5號,台南市,區
中油瑞龍加油站,121.262323,25.116757,台灣桃園市蘆竹區濱海路一段407號,桃園市,蘆竹區
鳳山國中機車停車場站(多站),120.37117,22.624563,台灣高雄市鳳山區捷運鳳山國中站(郵局),高雄市,鳳山區
UNIQLO 高雄九如路店站(多站),120.324777,22.63966,台灣高雄市三民區九如一路600-1號,高雄市,三民區
宏佳騰動力科技站,120.346699,23.091235,台灣台南市山上區南洲里,台南市,山上區
台糖太康加油站,120.325701,23.291963,台灣台南市柳營區200號,台南市,柳營區
中油宏洋加油站,120.463809,22.841112,台灣高雄市旗山區旗南二路87之6號,高雄市,旗山區
中油大倫加油站,120.406551,22.632028,台灣高雄市大寮區光明路三段1080號,高雄市,大寮區
北基基金加油站,121.649852,25.209337,台灣新北市萬里區萬里加投19之5號,新北市,萬里區
7-ELEVEN 祥佑店站(多站),121.293219,25.013328,台灣桃園市桃園區寶慶路176號,桃園市,桃園區
台南市南區健康路一段133巷停車場站(多站),120.208712,22.977989,台灣台南市南區健康路一段133巷130號,台南市,南區
中油太魯閣加油站,121.6257,24.151637,台灣花蓮縣秀林鄉152,花蓮縣,秀林鄉
Gogoro 烏日三和門市站(多站),120.608806,24.107577,台灣台中市烏日區中山路三段239號,台中市,烏日區
全聯頭份中華店站,120.904167,24.682284,台灣苗栗縣頭份市中華路818號,苗栗縣,頭份市
臺北市華江高中站(多站),121.497487,25.029171,台灣台北市萬華區西藏路428號,台北市,萬華區
全聯三峽北大店站,121.377746,24.947865,台灣新北市樹林區學勤路211號,新北市,樹林區
全聯花蓮美崙店站(多站),121.626997,23.993138,台灣花蓮縣花蓮市中美路113-6號,花蓮縣,花蓮市
三民二號公園停車場站(多站),120.295634,22.648422,台灣高雄市三民區同協路95號,高雄市,三民區
高雄市養工處民權一路站(多站),120.312835,22.620738,台灣高雄市苓雅區四維三路2號1樓民權路側門,高雄市,苓雅區
中油吉盛加油站,120.78,24.60141,台灣苗栗縣後龍鎮十班坑155之8號,苗栗縣,後龍鎮
7-ELEVEN 親旺店站(多站),120.553892,24.132051,台灣台中市大肚區台1線929號,台中市,大肚區
坤業莒光路加油站,121.467502,24.993759,台灣新北市中和區莒光路260號,新北市,中和區
全聯彰化進德店站,120.55718,24.084359,台灣彰化縣彰化市竹和路51號,彰化縣,彰化市
中油甲洲加油站,120.343364,22.60294,台灣高雄市鳳山區五甲二路73號,高雄市,鳳山區
全聯中和南山店站(多站),121.503892,24.992184,台灣新北市中和區南山路146巷1號,新北市,中和區
Gogoro 東區民權服務中心站,120.976499,24.806447,台灣新竹市東區民權路38號,新竹市,東區
第一銀行重慶北路站(多站),121.513387,25.060465,台灣台北市大同區涼州重慶路口,台北市,大同區
中油崇德路加油站,120.69092,24.2318,台灣台中市神岡區崇德路119號,台中市,神岡區
台糖北港加油站,120.299535,23.569473,台灣雲林縣北港鎮華南路66號,雲林縣,北港鎮
特力屋台中北屯店站(多站),120.697907,24.173278,台灣台中市北屯區北屯路407-1號,台中市,北屯區
7-ELEVEN 鹿正店站,120.436642,24.061835,台灣彰化縣鹿港鎮中正路556號,彰化縣,鹿港鎮
台電潮州服務所站(多站),120.548382,22.551737,台灣屏東縣潮州鎮愛國路136號,屏東縣,潮州鎮
新北市養工處永和民權路站(多站),121.520224,24.99878,台灣新北市永和區民權路1號,新北市,永和區
新北市中和國民運動中心站(多站),121.487056,24.993356,台灣新北市中和區錦和公園[新巴士],新北市,中和區
中油汐止加油站,121.640027,25.060231,台灣新北市汐止區大同路一段353號,新北市,汐止區
中油龍崎加油站,120.364708,22.963473,台灣台南市龍崎區新市子102之1號,台南市,龍崎區
UNIQLO 永康永大路店站(多站),120.260253,23.031169,台灣台南市永康區永大路三段168號,台南市,永康區
台南永華市政中心站,120.184506,22.991409,台灣台南市安平區永華路二段6號,台南市,安平區
全家卓蘭水梨店站,120.825959,24.311028,台灣苗栗縣卓蘭鎮中正路48號,苗栗縣,卓蘭鎮
臺中市中央公園公138站,120.649587,24.195151,台灣台中市西屯區同志巷20號,台中市,西屯區
HiLife 台中中宏店站(多站),120.618366,24.18806,台灣台中市西屯區西屯路三段158-50號,台中市,西屯區
中油華碩加油站,121.279085,24.995078,台灣桃園市桃園區大興西路三段783號,桃園市,桃園區
大東夜市機車停車場站(多站),120.218415,22.982656,台灣台南市東區林森路一段260號,台南市,東區
eReady 中壢延平店站(多站),121.225486,24.960355,台灣桃園市中壢區延平路326之1號十一樓號,桃園市,中壢區
臺中市同心停車場站(多站),120.637745,24.178953,台灣台中市西屯區黎明路三段224號,台中市,西屯區
中油雅虎加油站,120.523841,23.726775,台灣雲林縣斗六市西平路776號,雲林縣,斗六市
中油中正二路加油站,120.317136,22.630562,台灣高雄市新興區中正二路166號,高雄市,新興區
Gogoro 信義松仁服務中心站,121.568232,25.028077,台灣台北市信義區松仁路174號,台北市,信義區
樹林三多市民活動中心站,121.404364,25.016554,台灣新北市樹林區福興街17號2樓,新北市,樹林區
順發3C草屯店站(多站),120.687662,23.988084,台灣南投縣草屯鎮中正路1002號,南投縣,草屯鎮
中油秀林和平加油站,121.743762,24.316886,台灣花蓮縣秀林鄉32-1,花蓮縣,秀林鄉
UNIQLO 八德介壽路店站(多站),121.30185,24.967596,台灣桃園市八德區自強街24巷8號,桃園市,八德區
全家龜山大傳店站(多站),121.344425,24.990187,台灣桃園市龜山區大同路234號四樓號,桃園市,龜山區
7-ELEVEN 圓通南店站,120.703273,24.207071,台灣台中市潭子區圓通南路239號,台中市,潭子區
臺中市東山停車場站(多站),120.733686,24.17618,台灣台中市北屯區台中市北屯區,台中市,北屯區
中油美得吉豐加油站,121.581538,23.964154,台灣花蓮縣吉安鄉吉豐路一段198-1號,花蓮縣,吉安鄉
中油鶯歌加油站,121.351827,24.950419,台灣新北市鶯歌區加油站,新北市,鶯歌區
全家高雄藍天店站,120.291355,22.722828,台灣高雄市楠梓區藍昌路356號,高雄市,楠梓區
中油將軍交流道加油站,120.109635,23.214776,台灣台南市將軍區長沙里,台南市,將軍區
全家竹北金十興店站,121.034302,24.824551,台灣新竹縣竹北市嘉興路561號,新竹縣,竹北市
中油壯圍加油站(多站),121.782487,24.747392,台灣宜蘭縣宜蘭市東港路1-11號,宜蘭縣,宜蘭市
全聯旗山中華店站,120.483728,22.880084,台灣高雄市旗山區中華路31號,高雄市,旗山區
新北市文化機車立體停車場站,121.43866,25.172735,台灣新北市淡水區文化路57號,新北市,淡水區
新竹市新莊停車場站(多站),121.016083,24.787703,台灣新竹市東區新莊街129巷33號,新竹市,東區
中油明華加油站,120.446704,23.603868,台灣嘉義縣大林鎮忠孝路339號,嘉義縣,大林鎮
中油大溪加油站,121.279401,24.88568,台灣桃園市大溪區瑞安路一段268號,桃園市,大溪區
全家新莊福前店站,121.463781,25.054578,台灣新北市新莊區中原東路60-2號,新北市,新莊區
建成公園地下停車場B1F站,121.518199,25.053939,103台灣台北市大同區承德路二段31 之1號,台北市,大同區
宜舍土城金城站,121.452947,24.979824,台灣新北市土城區明德路一段369巷,新北市,土城區
全家高雄鼓山店站,120.28236,22.632685,台灣高雄市鼓山區鼓山二路43號,高雄市,鼓山區
7-ELEVEN 成豐店站,121.227482,24.960544,台灣桃園市中壢區元化路197巷3號,桃園市,中壢區
中油海濱加油站,121.82878,25.121158,台灣新北市瑞芳區海濱路173號,新北市,瑞芳區
中油興達港加油站,120.221475,22.876899,台灣高雄市湖內區東方路678號,高雄市,湖內區
中油岡山加油站,120.297625,22.782323,台灣高雄市岡山區岡山南路45號,高雄市,岡山區
中油頭份蘆竹加油站,120.895753,24.676181,台灣苗栗縣頭份市中華路444號,苗栗縣,頭份市
台塑中華太子加油站,120.184496,22.978252,台灣台南市南區中華西路一段91號,台南市,南區
臺鐵臺北貨運所竹北車站,121.009054,24.839193,台灣新竹縣竹北市和平街59號,新竹縣,竹北市
統一速邁樂國際一加油站(多站),121.290497,24.970546,台灣桃園市桃園區國際路一段390號,桃園市,桃園區
臺北市國家兩廳院站(多站),121.518244,25.038293,台灣台北市中正區信義路一段142號,台北市,中正區
日月亭高雄學府停車場站(多站),120.361214,22.564811,台灣高雄市小港區學府路113號,高雄市,小港區
中油忠孝路加油站,120.488337,22.679769,台灣屏東縣屏東市忠孝路209之1號,屏東縣,屏東市
7-ELEVEN 義和店站,120.618307,24.338768,台灣台中市大甲區中山路一段492號,台中市,大甲區
全家高雄翠北店站(多站),120.312513,22.592264,台灣高雄市前鎮區翠亨北路562號,高雄市,前鎮區
7-ELEVEN 森和店站,120.334665,22.594697,台灣高雄市鳳山區林森路211號,高雄市,鳳山區
Gogoro 新莊幸福店站,121.448957,25.049251,台灣新北市新莊區幸福路730號,新北市,新莊區
中油永錡保安加油站,121.421351,24.996032,台灣新北市樹林區保安街一段204號,新北市,樹林區
車麗屋彰化員林店站,120.566528,23.96334,台灣彰化縣員林市莒光路555號,彰化縣,員林市
台糖公營學苑站(多站),120.591246,24.183515,台灣台中市龍井區臺灣大道五段47號,台中市,龍井區
中油宜興加油站,120.462878,22.62344,台灣屏東縣萬丹鄉大昌路875號,屏東縣,萬丹鄉
北園路停車場站(多站),120.224622,23.013201,台灣台南市北區北園街114巷23號,台南市,北區
中油奕榮造橋加油站,120.85544,24.630976,台灣苗栗縣造橋鄉6-1,苗栗縣,造橋鄉
Gogoro 平鎮中豐服務中心站,121.216754,24.942834,台灣桃園市平鎮區平鎮區公所(中豐路),桃園市,平鎮區
中油公道五加油站,121.002384,24.801032,台灣新竹市東區公道五路二段228號3樓,新竹市,東區
禾典溫州停車場站(多站),121.533094,25.022742,台灣台北市大安區溫州街30巷2號,台北市,大安區
中油大關廟加油站,120.320027,22.974575,台灣台南市關廟區南雄路二段930號,台南市,關廟區
7-ELEVEN 岩昇店站,121.409844,24.930659,台灣新北市三峽區溪東路300號,新北市,三峽區
Gogoro 彰化和美門市站,120.497205,24.113627,台灣彰化縣和美鎮彰美路六段73號,彰化縣,和美鎮
新北市第七立體停車場站,121.419661,24.990563,台灣新北市樹林區樹林國小,新北市,樹林區
Gogoro 小港漢民門市站,120.356395,22.566997,台灣高雄市小港區漢民路369號,高雄市,小港區
彌陀區公所站,120.250684,22.781443,台灣高雄市彌陀區中華路4號,高雄市,彌陀區
家樂福新營店站,120.311333,23.319497,台灣台南市新營區長榮路二段201號,台南市,新營區
臺中市福恩停車場站(多站),120.614631,24.182513,台灣台中市西屯區工業區一路2巷5號,台中市,西屯區
7-ELEVEN 金甲后店站,120.634153,24.344878,台灣台中市大甲區甲后路五段360號,台中市,大甲區
全聯后里文明店站,120.72171,24.305321,台灣台中市后里區三豐路三段855號,台中市,后里區
全聯桃園大有店站(多站),121.316427,25.016209,台灣桃園市桃園區大有路597號,桃園市,桃園區
家樂福青海店站(多站),120.644572,24.170311,台灣台中市西屯區青海路二段207-18號,台中市,西屯區
新北市民享公園停車場站(多站),121.475868,25.003508,台灣新北市中和區自治街69號,新北市,中和區
家樂福便利購竹北六家店站,121.025616,24.809706,台灣新竹縣竹北市嘉豐五路二段82號,新竹縣,竹北市
中油台糖糖友加油站,120.480702,23.952592,台灣彰化縣溪湖鎮彰水路二段820號,彰化縣,溪湖鎮
路竹天后宮開基廟站(多站),120.260437,22.858837,台灣高雄市路竹區中山路1015號,高雄市,路竹區
東木河茶莊站(多站),121.708456,24.934544,台灣新北市坪林區北宜路八段206號,新北市,坪林區
中油鹿野加油站,121.137261,22.915922,台灣台東縣鹿野鄉中華路二段169號,台東縣,鹿野鄉
7-ELEVEN 重和店站(多站),120.314454,22.683011,台灣高雄市左營區自由四路171號,高雄市,左營區
台北捷運三重國小站,121.496949,25.070731,台灣新北市三重區三重國小,新北市,三重區
中油三芝加油站,121.495208,25.259726,台灣新北市三芝區淡金路一段15號,新北市,三芝區
仁德郵局站,120.252391,22.969733,台灣台南市仁德區中正路二段1118號,台南市,仁德區
7-ELEVEN 上慶BIG7店站,120.540283,23.71265,台灣雲林縣斗六市漢口路190號,雲林縣,斗六市
北基中清交流道加油站,120.649465,24.213653,台灣台中市大雅區中清路三段801號,台中市,大雅區
Gogoro 三民九如二門市站,120.303912,22.641332,台灣高雄市三民區九如二路312號,高雄市,三民區
高雄市鹽埕停車場站(多站),120.286317,22.624793,台灣高雄市鹽埕區大仁路10號,高雄市,鹽埕區
新北市綠湖公園停車場站(多站),121.546333,24.979429,台灣新北市新店區寶中路36號,新北市,新店區
新北市鶯歌區公所站(多站),121.354551,24.955925,台灣新北市鶯歌區仁愛路55號,新北市,鶯歌區
屏東縣屏東市自由路站,120.491052,22.682937,台灣屏東縣屏東市自由路487號,屏東縣,屏東市
中油工三加油站,121.370529,25.061458,台灣桃園市龜山區文化一路33號,桃園市,龜山區
HiLife 大寮潮龍店站,120.428954,22.565936,台灣高雄市大寮區華中南路潮寮活動中心,高雄市,大寮區
實踐大學站(多站),121.545146,25.082978,台灣台北市中山區大直街62巷5號,台北市,中山區
中油中宏加油站,120.7087,23.97747,台灣南投縣草屯鎮中正路434號,南投縣,草屯鎮
全聯台中雅環店站(多站),120.652865,24.22615,台灣台中市大雅區雅環路二段83號,台中市,大雅區
Gogoro 師大和平店站(多站),121.530287,25.026766,台灣台北市大安區和平東路一段139號,台北市,大安區
德昌藥局岡山店站(多站),120.291475,22.79236,台灣高雄市岡山區溪東路38號,高雄市,岡山區
中油文化路加油站,120.450169,23.474571,台灣嘉義市西區文化路11號,嘉義市,西區
中油高雄全通加油站,120.442623,22.71517,台灣高雄市大樹區大坑路109號,高雄市,大樹區
民生路臨時停車場站(多站),120.188322,22.99799,台灣台南市中西區民生路二段392號,台南市,中西區
全聯竹北自強店站(多站),121.023522,24.81922,台灣新竹縣竹北市成功三路66號,新竹縣,竹北市
全聯竹南公義店站,120.901483,24.7121,台灣苗栗縣竹南鎮公義路1126號1樓,苗栗縣,竹南鎮
台北捷運丹鳳站,121.423798,25.02946,台灣新北市泰山區新北市新莊區,新北市,新莊區
千葉火鍋苗栗店站(多站),120.81349,24.56704,台灣苗栗縣苗栗市國華路996號,苗栗縣,苗栗市
臺中市中正社區活動中心站(多站),120.526956,24.258306,台灣台中市梧棲區臨港路四段64號,台中市,梧棲區
中油南北通加油站,120.670627,24.201339,台灣台中市北屯區環中路一段1622號,台中市,北屯區
全家台南新夏店站,120.195089,22.978014,台灣台南市南區新興路151號,台南市,南區
中油和順加油站,120.218505,23.058102,台灣台南市安南區安和路四段351號,台南市,安南區
家樂福便利購屏東自由店站,120.482969,22.683387,台灣屏東縣屏東市自由路618號,屏東縣,屏東市
中油台南土城加油站,120.134596,23.06842,台灣台南市安南區安明路四段826號,台南市,安南區
Gogoro 中壢復興店站,121.224847,24.95636,台灣桃園市中壢區復興路71號,桃園市,中壢區
福懋仁武加油站,120.354333,22.684,台灣高雄市仁武區鳳仁路72之35號,高雄市,仁武區
臺中市太和停車場站(多站),120.725822,24.163278,台灣台中市北屯區太和二街58號,台中市,北屯區
全聯佳里安西店站,120.170908,23.164381,台灣台南市佳里區安西路205號,台南市,佳里區
中油公學加油站,120.194677,23.079961,台灣台南市安南區安吉路三段561號,台南市,安南區
北基東宏加油站,121.214283,24.92093,台灣桃園市平鎮區南東路71-2號,桃園市,平鎮區
台亞大同路加油站,120.211291,22.982723,台灣台南市東區大同路一段257號,台南市,東區
全聯楊梅中山店站(多站),121.155217,24.908245,台灣桃園市楊梅區中山北路一段260號,桃園市,楊梅區
中油二林加油站,120.373275,23.902288,台灣彰化縣二林鎮二溪路一段212號,彰化縣,二林鎮
全聯竹南龍山店站,120.867606,24.694077,台灣苗栗縣竹南鎮龍山路一段260號,苗栗縣,竹南鎮
衛生福利部臺中醫院站(多站),120.676321,24.139701,台灣台中市西區三民路一段199號,台中市,西區
彰化市公有第一停車場站(多站),120.542377,24.081874,台灣彰化縣彰化市民生路279號,彰化縣,彰化市
康橋商旅台南赤崁樓館站(多站),120.203929,22.994661,台灣台南市中西區民權路二段127號,台南市,中西區
中油前鎮加油站,120.306267,22.591439,台灣高雄市前鎮區擴建路1之1號,高雄市,前鎮區
永新社區停車場站(多站),120.296103,23.058862,台灣台南市新化區金華街一段22號,台南市,新化區
萬華國中地下停車場B1F站,121.499527,25.029184,台灣台北市萬華區西藏路201號,台北市,萬華區
全家鳳山老爺店站,120.338773,22.596751,台灣高雄市鳳山區鳳南路6號,高雄市,鳳山區
中油保來加油站,120.682824,23.097612,台灣高雄市六龜區寶建路4號,高雄市,六龜區
7-ELEVEN 漳和店站,121.502442,25.003119,台灣新北市中和區中山路二段131-6號,新北市,中和區
中油台糖鳳仁加油站,120.351262,22.690228,台灣高雄市仁武區鳳仁路102號,高雄市,仁武區
中油坤業大園加油站,121.260005,25.07344,台灣桃園市大園區三民路二段668號,桃園市,大園區
台亞七堵明德加油站(多站),121.710358,25.095821,台灣基隆市七堵區明德一路268號,基隆市,七堵區
新北市三峽區公所站(多站),121.369167,24.934082,台灣新北市三峽區中山路17號,新北市,三峽區
林口四維公園站(多站),121.381115,25.075328,台灣新北市林口區四維路156號林口四維公園,新北市,林口區
HiLife 鶯歌東正店站,121.338969,24.94181,台灣新北市鶯歌區中正三路50號,新北市,鶯歌區
中油輝生加油站,120.813154,24.538545,台灣苗栗縣苗栗市28-1,苗栗縣,苗栗市
台亞八德交流道加油站,121.319088,24.959815,台灣桃園市八德區和平路825巷4弄33號,桃園市,八德區
桃園市巨蛋園區第六停車場站,121.322364,24.995735,台灣桃園市桃園區體育館,桃園市,桃園區
台糖柳林加油站,120.419517,23.440985,台灣嘉義縣水上鄉柳子林180號,嘉義縣,水上鄉
高雄市養工處廣州三街站(多站),120.319449,22.613268,台灣高雄市前鎮區廣州三街48號四樓號,高雄市,前鎮區
中油思源加油站,121.395248,25.014648,台灣新北市樹林區三興路50號,新北市,樹林區
中油沿海路加油站,120.386173,22.499987,台灣高雄市林園區西部濱海公路5號,高雄市,林園區
全聯鳳山南和一店站(多站),120.337901,22.59094,台灣高雄市鳳山區南和一路95號,高雄市,鳳山區
林口南勢公園站,121.358604,25.073844,台灣新北市林口區南勢五街23號,新北市,林口區
Gogoro 台南文賢服務中心站,120.193619,23.00597,台灣台南市北區文賢路478號,台南市,北區
永康立體停車場站(多站),120.237953,23.000716,台灣台南市永康區華興街82號,台南市,永康區
中油環中加油站(多站),121.246158,24.955485,台灣桃園市中壢區環中東路673號,桃園市,中壢區
台電南州服務所站,120.504613,22.487982,台灣屏東縣南州鄉人和路186號,屏東縣,南州鄉
中央大學站,121.190932,24.965669,台灣桃園市平鎮區中央路185號,桃園市,平鎮區
振宇五金鹿港店站(多站),120.440878,24.048364,台灣彰化縣福興鄉文化街100號,彰化縣,福興鄉
第一銀行延吉站(多站),121.553632,25.046405,台灣台北市松山區延吉街13號,台北市,松山區
日月亭林口文化站(多站),121.362908,25.060729,台灣桃園市龜山區文二一街15號,桃園市,龜山區
YAMAHA 台南月津店站(多站),120.265539,23.313916,台灣台南市鹽水區月津路32號,台南市,鹽水區
中油瑔發加油站,120.421217,22.57978,台灣高雄市大寮區光明路一段1155號,高雄市,大寮區
7-ELEVEN 將軍店站,120.158287,23.197059,台灣台南市將軍區漚汪,台南市,將軍區
Gogoro 新生市民服務中心站(多站),121.531592,25.04682,台灣台北市中山區新生北路一段23號,台北市,中山區
中油生產路加油站,120.216753,22.964483,台灣台南市東區生產路1號,台南市,東區
USPACE 中油福林停車場站(多站),121.527574,25.092847,台灣台北市士林區捷運士林站(中山),台北市,士林區
中油華中橋加油站,121.496233,25.000293,台灣新北市中和區連城路112-2號,新北市,中和區
7-ELEVEN 大貿店站,120.66457,24.177866,台灣台中市西屯區中平路275號,台中市,西屯區
中油澎大加油站,119.599378,23.52916,台灣澎湖縣馬公市425,澎湖縣,馬公市
中油芳苑加油站,120.327002,23.919769,台灣彰化縣芳苑鄉斗苑路10號,彰化縣,芳苑鄉
台北捷運北投站(多站),121.499595,25.130398,台灣台北市北投區北投路二段2522號,台北市,北投區
HiLife 台中衛斯理店站,120.669807,24.112641,台灣台中市南區五權南一路54號,台中市,南區
小北百貨新中華東店站,120.226857,22.978483,台灣台南市東區中華東路三段154號,台南市,東區
中油大安加油站,120.589024,24.343355,台灣台中市大安區中山南路193號,台中市,大安區
全家員林正新店站(多站),120.582342,23.96059,台灣彰化縣員林市三民東街350號,彰化縣,員林市
新北市二重國中停車場站(多站),121.480276,25.065205,台灣新北市三重區忠孝路三段84號,新北市,三重區
麗車坊中壢店站,121.246297,24.968446,台灣桃園市中壢區中華路一段796號,桃園市,中壢區
高雄市新興區六合一路站(多站),120.312288,22.632425,台灣高雄市新興區六合一路14號,高雄市,新興區
全聯新莊幸福店站,121.456257,25.0493,台灣新北市新莊區幸福路503號,新北市,新莊區
統一速邁樂龍潭加油站(多站),121.206674,24.861643,台灣桃園市龍潭區中豐路上林段187號,桃園市,龍潭區
全家台中龍富店站(多站),120.626019,24.140802,台灣台中市南屯區龍富路四段2號,台中市,南屯區
中油灣裡加油站,120.18536,22.929566,台灣台南市南區明興路1081號,台南市,南區
安順里公有停車場站(多站),120.215353,23.051342,台灣台南市安南區育安街300號,台南市,安南區
7-ELEVEN 高昌店站(多站),120.33045,22.74694,台灣高雄市楠梓區創新路615號,高雄市,楠梓區
中油花蓮中山路加油站,121.594928,23.996139,台灣花蓮縣花蓮市中山路752號,花蓮縣,花蓮市
Gogoro 楊梅騏轟服務中心站,121.173957,24.911172,台灣桃園市楊梅區中山北路二段294號,桃園市,楊梅區
全家仁德二仁店站(多站),120.224626,22.918108,台灣台南市仁德區二行一路111號,台南市,仁德區
新北市五股區工商路立體停車場B1F站(多站),121.439284,25.083542,台灣新北市五股區立體停車場,新北市,五股區
山隆興隆加油站(多站),121.469163,25.044862,台灣新北市三重區重新路五段596號,新北市,三重區
全聯大雅民生店站,120.668502,24.23649,台灣台中市大雅區民生路四段72號,台中市,大雅區
中油江山加油站,120.405738,22.640169,台灣高雄市大寮區鳳屏二路46號,高雄市,大寮區
家樂福仁德店站,120.24731,22.97242,台灣台南市仁德區中山路711號,台南市,仁德區
7-ELEVEN 永盛店站(多站),120.575611,22.75642,台灣屏東縣鹽埔鄉勝利路81-2號,屏東縣,鹽埔鄉
新北市林口停二平面停車場站,121.389877,25.081806,台灣新北市林口區竹林路281巷1號二樓號,新北市,林口區
中油鳳崎加油站,120.996191,24.865621,台灣新竹縣湖口鄉三民南路121號,新竹縣,湖口鄉
中油大義街加油站,120.28587,22.620741,台灣高雄市鹽埕區大義街56號,高雄市,鹽埕區
享溫馨KTV 屏東店站(多站),120.489159,22.675552,台灣屏東縣屏東市北平路7-7號,屏東縣,屏東市
國立屏東大學屏師校區站(多站),120.500215,22.668069,台灣屏東縣屏東市民安路100號,屏東縣,屏東市
臺中市沙鹿區公所站(多站),120.566741,24.233082,台灣台中市沙鹿區鎮政路8號,台中市,沙鹿區
全聯草屯中正店站,120.698571,23.978631,台灣南投縣草屯鎮中正路557-19號號,南投縣,草屯鎮
中油中交加油站,120.662745,24.070044,台灣台中市霧峰區中投東路二段320號,台中市,霧峰區
Gogoro 台南崇善門市站,120.229798,22.972841,台灣台南市東區崇善路565號,台南市,東區
Gogoro 龜山文化服務中心站,121.361303,25.05291,台灣桃園市龜山區文化七路20號二樓號,桃園市,龜山區
中油新富加油站,121.212979,24.927253,台灣桃園市平鎮區中豐路一段298之1號,桃園市,平鎮區
全家明興店站,121.562987,24.989997,台灣台北市文山區木柵路二段109巷25弄2號,台北市,文山區
臺鐵和平站,121.752619,24.297897,台灣花蓮縣秀林鄉和平火車站,花蓮縣,秀林鄉
中油竹圍加油站,121.459062,25.133447,台灣新北市淡水區台2乙線100號,新北市,淡水區
全聯花壇學前店站(多站),120.542274,24.026911,台灣彰化縣花壇鄉學前路117號,彰化縣,花壇鄉
全聯雲林北港店站,120.298269,23.57747,台灣雲林縣北港鎮華勝路171號,雲林縣,北港鎮
台糖惠生加油站,120.19886,23.459837,台灣嘉義縣東石鄉59-3,嘉義縣,東石鄉
7-ELEVEN 丰太店站,120.703672,24.111852,台灣台中市太平區永豐路351號,台中市,太平區
臺鐵羅東站後站(多站),121.775066,24.67848,台灣宜蘭縣羅東鎮站東路241號,宜蘭縣,羅東鎮
中油造橋加油站,120.863199,24.638512,台灣苗栗縣造橋鄉27,苗栗縣,造橋鄉
Gogoro 竹東東林門市站(多站),121.09225,24.73692,台灣新竹縣竹東鎮東林路102號,新竹縣,竹東鎮
中油瑞國加油站,120.58268,24.24396,台灣台中市沙鹿區中山路24之48號,台中市,沙鹿區
宏佳騰新店中正店站,121.533597,24.983071,台灣新北市新店區中正路493號4樓,新北市,新店區
北成路停車場站,120.207177,23.02034,台灣台南市北區中華北路二段268巷70號,台南市,北區
中油內壢加油站(多站),121.254104,24.961897,台灣桃園市中壢區環中東路346號,桃園市,中壢區
中油玉泉村加油站,120.825397,24.511644,台灣苗栗縣公館鄉玉泉173號之8號,苗栗縣,公館鄉
HiLife 新北板龍店站,121.443937,25.002229,台灣新北市板橋區龍興街73巷2、4號,新北市,板橋區
全聯台中忠明店站,120.657454,24.13824,台灣台中市西區忠明南路447號,台中市,西區
中油奕承加油站,120.958216,24.760483,台灣新竹市香山區茄苳景觀大道830號,新竹市,香山區
中油南埔加油站,121.58964,23.964108,台灣花蓮縣吉安鄉中正路二段6號,花蓮縣,吉安鄉
中油大寮加油站,120.394701,22.608997,台灣高雄市大寮區鳳林三路616號,高雄市,大寮區
旗山區公所站,120.483489,22.888653,台灣高雄市旗山區延平一路499號,高雄市,旗山區
三民區公所站,120.29966,22.647679,台灣高雄市三民區哈爾濱街215號3樓,高雄市,三民區
台亞桃園延平加油站,121.200933,24.937698,台灣桃園市平鎮區延平路三段266號,桃園市,平鎮區
大潤發新竹湳雅店站(多站),120.970707,24.818186,台灣新竹市北區湳雅街97號,新竹市,北區
宏佳騰和美德美店站(多站),120.501754,24.113091,台灣彰化縣和美鎮彰6鄉道576號,彰化縣,和美鎮彰6鄉
新竹市東園市場停車場站(多站),120.983322,24.803488,台灣新竹市東區東園街111號,新竹市,東區
中油台北西湖加油站,121.560054,25.085357,114台灣台北市內湖區文湖街7 之5號,台北市,內湖區
臺中市太平地政事務所廣場站(多站),120.725863,24.146595,台灣台中市太平區大源路2-18號,台中市,太平區
桃園市蘆竹大新停車場站(多站),121.256855,25.024379,台灣桃園市蘆竹區新福街123號,桃園市,蘆竹區
中油新港加油站,120.48578,24.15999,台灣彰化縣伸港鄉建國路33號,彰化縣,伸港鄉
中油蓮因加油站,120.412435,23.355573,台灣台南市白河區富民路769號,台南市,白河區
高雄市武廟停車場站(多站),120.332576,22.628812,台灣高雄市苓雅區建民路22號,高雄市,苓雅區
中油伯爵加油站(多站),121.654706,25.069193,台灣新北市汐止區汐萬路一段39-5號,新北市,汐止區
中油翔大加油站(多站),121.354151,25.000999,台灣桃園市龜山區萬壽路二段361號,桃園市,龜山區
全聯安南北安店站(多站),120.202941,23.040646,台灣台南市安南區北安路三段96號,台南市,安南區
北基金獅加油站(多站),120.322342,22.663045,台灣高雄市三民區金山路204巷28號,高雄市,三民區
全聯彰化竹塘店站,120.426085,23.858925,台灣彰化縣竹塘鄉中興街65號,彰化縣,竹塘鄉
中油安平古堡加油站,120.167451,23.001937,台灣台南市中西區民權路四段730號,台南市,中西區
日月光半導體站,120.300234,22.72306,台灣高雄市楠梓區西八街10號,高雄市,楠梓區
中油加祿加油站,120.615705,22.334116,台灣屏東縣枋山鄉加祿堂營區,屏東縣,枋山鄉
臺中市屯區藝文中心站(多站),120.736906,24.157005,台灣台中市太平區大興路201號,台中市,太平區
家樂福中壢店站(多站),121.244553,24.947692,台灣桃園市中壢區普仁國小,桃園市,中壢區
新北市新泰公園站(多站),121.444909,25.037717,台灣新北市新莊區公園一路112號,新北市,新莊區
7-ELEVEN 小腳腿店站,120.36573,23.285375,台灣台南市柳營區義士路一段938號,台南市,柳營區
7-ELEVEN 新潭店站(多站),120.520133,22.679363,台灣屏東縣長治鄉長興路326號,屏東縣,長治鄉
全聯北斗斗苑店站,120.519256,23.87245,台灣彰化縣北斗鎮斗苑路一段358號,彰化縣,北斗鎮
全家鳳山埤頂店站,120.381323,22.628886,台灣高雄市?山?中山東路545號1樓,高雄市,鳳山區
中油百達加油站,120.559577,22.608115,台灣屏東縣內埔鄉復興路145號,屏東縣,內埔鄉
宏佳騰三重重陽店站(多站),121.493242,25.072277,台灣新北市三重區104縣道162號,新北市,三重區
臺鐵羅東站前站(多站),121.774077,24.677479,台灣宜蘭縣羅東鎮站前路14號,宜蘭縣,羅東鎮
三重龍濱公園站,121.502129,25.072917,台灣新北市三重區龍濱活動中心[新巴士],新北市,三重區
樹林彭厝市民活動中心站,121.422281,24.979906,台灣新北市樹林區國凱街65號,新北市,樹林區
全聯中正延平店站,121.507479,25.033729,台灣台北市中正區延平南路189號,台北市,中正區
中油慈湖加油站,121.285075,24.846615,台灣桃園市大溪區復興路一段970號,桃園市,大溪區
Gogoro 宜蘭中山門市站(多站),121.752386,24.75407,台灣宜蘭縣宜蘭市中山路二段516之1號,宜蘭縣,宜蘭市
中油水璉加油站,121.560567,23.7801,台灣花蓮縣壽豐鄉水新路1號,花蓮縣,壽豐鄉
全家新店德順店站(多站),121.509105,24.960757,台灣新北市新店區安德街116巷10號,新北市,新店區
7-ELEVEN 虹諭店站,121.479227,25.07103,台灣新北市三重區中正北路165巷43號,新北市,三重區
八百屋東港店站(多站),120.463261,22.462147,台灣屏東縣東港鎮沿海路25-12號,屏東縣,東港鎮
臺鐵花蓮富里車站,121.248547,23.178961,台灣花蓮縣富里鄉富里車站,花蓮縣,富里鄉
7-ELEVEN 金玉店站(多站),121.797801,24.463919,台灣宜蘭縣南澳鄉蘇花路二段165號,宜蘭縣,南澳鄉
竹北市農會站,121.006304,24.838119,台灣新竹縣竹北市中正東路487號,新竹縣,竹北市
全聯大里仁化店站,120.702911,24.09624,台灣台中市大里區仁化路500號,台中市,大里區
山隆竹坑加油站(多站),120.543682,24.17613,台灣台中市龍井區沙田路四段55號,台中市,龍井區
新光三越高雄三多店站(多站),120.306999,22.614006,台灣高雄市前鎮區三多三路213號7樓,高雄市,前鎮區
東興路公有停車場站,120.322947,23.315834,台灣台南市新營區東興國宅,台南市,新營區
臺中市民龍停車場站(多站),120.670367,24.152578,台灣台中市西區博館一街133號,台中市,西區
7-ELEVEN 科工店站,120.148599,23.035178,台灣台南市安南區?田路2號,台南市,安南區
中油翁子加油站,120.734656,24.259677,台灣台中市豐原區豐勢路一段586號,台中市,豐原區
中油永錡中正加油站,121.419704,25.028314,台灣新北市新莊區中正路692-8號,新北市,新莊區
7-ELEVEN 新墘店站,120.299482,23.082247,台灣台南市新市區民族路118號,台南市,區
全家永康忠孝店站,120.239968,23.003924,台灣台南市永康區忠孝路78號,台南市,永康區
新北市崑崙公園平面停車場站,121.429871,24.993779,台灣新北市板橋區沙崙街5號,新北市,板橋區
全聯梧棲文昌店站(多站),120.537675,24.245264,台灣台中市梧棲區文昌路501號,台中市,梧棲區
宏佳騰楠梓益群店站,120.296814,22.725045,台灣高雄市楠梓區益群路68號,高雄市,楠梓區
HiLife 中縣神岡店站,120.658966,24.27676,台灣台中市神岡區和睦路一段285號,台中市,神岡區
中油全宏加油站,121.485157,25.003661,台灣新北市中和區中正路822號,新北市,中和區
中油石牌愛心加油站,121.508692,25.112564,台灣台北市北投區承德路七段139號,台北市,北投區
全聯台南明興店站,120.187893,22.959676,台灣台南市南區明興路55、57號,台南市,南區
中油溪州加油站,120.489188,23.851899,台灣彰化縣溪州鄉俊智路237號,彰化縣,溪州鄉
7-ELEVEN 精中店站,120.719651,24.115481,台灣台中市太平區太平一街220號,台中市,太平區
家樂福屏東店站,120.497996,22.683135,台灣屏東縣屏東市仁愛路197號,屏東縣,屏東市
中油後壁加油站,120.359812,23.363341,台灣台南市後壁區47-4號,台南市,後壁區
新北市泰山國民運動中心站(多站),121.434712,25.056195,台灣新北市泰山區仁愛路155號,新北市,泰山區
臺大二活停車場站(多站),121.536883,25.012169,台灣台北市大安區羅斯福路四段85號,台北市,大安區
全聯屏東萬巒店站,120.56775,22.575645,台灣屏東縣萬巒鄉褒忠路229-1號,屏東縣,萬巒鄉
台南市圖書館總館旁機車停車場站(多站),120.237043,23.02545,台灣台南市永康區東橋十二街178號,台南市,永康區
中油信義路加油站,121.555179,25.032939,台灣台北市大安區信義路四段362號,台北市,大安區
Gogoro 新豐學府門市站(多站),120.998144,24.873306,台灣新竹縣新豐鄉學府路59號,新竹縣,新豐鄉
桃園市客家文化館站,121.234594,24.845566,台灣桃園市龍潭區桃園市客家文化館,桃園市,龍潭區
HiLife 竹北竹文店站,121.011947,24.831976,台灣新竹縣竹北市縣政九路南段215號,新竹縣,竹北市
中油國鈞加油站,120.359162,23.766333,台灣雲林縣崙背鄉南昌路421巷10號,雲林縣,崙背鄉
中油千越凱旋加油站,120.318046,22.59705,台灣高雄市前鎮區凱旋四路560號,高雄市,前鎮區
全聯頭城青雲店站(多站),121.826534,24.859116,台灣宜蘭縣頭城鎮青雲路三段282號,宜蘭縣,頭城鎮
全聯梧棲中華店站,120.55935,24.257181,台灣台中市梧棲區中華路二段586號,台中市,梧棲區
中油南科加油站,120.28698,23.096324,台灣台南市新市區南科二路3號,台南市,區
路竹區公所站,120.259242,22.854747,台灣高雄市路竹區國昌路76號,高雄市,路竹區
新北市永和仁愛公園站(永平路側)A,121.507517,25.012028,台灣新北市永和區永平路288號,新北市,永和區
全聯台南六甲店站,120.349751,23.231043,台灣台南市六甲區中山路93號,台南市,六甲區
家樂福虎尾店站,120.426901,23.705158,台灣雲林縣虎尾鎮立新街86-90號,雲林縣,虎尾鎮
全聯彰化員林店站,120.582538,23.960835,台灣彰化縣員林市三民東街359號,彰化縣,員林市
7-ELEVEN 睿豐店站,121.056497,22.705859,台灣台東縣台東市台11線8-1號,台東縣,台東市
7-ELEVEN 美美店站(多站),120.545566,24.071704,台灣彰化縣彰化市旭光路222號,彰化縣,彰化市
7-ELEVEN 仁興店站(多站),120.288254,22.973565,台灣台南市歸仁區民權北路222號,台南市,歸仁區
新竹市科學園路212巷停車場站(多站),121.010621,24.782455,台灣新竹市東區科學園路162巷5弄27號,新竹市,東區
全聯苗栗銅鑼店站,120.786704,24.489542,台灣苗栗縣銅鑼鄉大同路55號,苗栗縣,銅鑼鄉
宏佳騰草屯太平店站(多站),120.681479,23.960153,台灣南投縣草屯鎮太平路一段96號,南投縣,草屯鎮
台南東區環保局停車場站,120.23513,22.98413,台灣台南市東區富農街一段225號,台南市,東區
7-ELEVEN 金沅店站(多站),121.230576,24.904865,台灣桃園市平鎮區金陵路五段255號,桃園市,平鎮區
民生配水池加壓站停車場站(多站),121.553756,25.059394,台灣台北市松山區民生東路四段131巷23弄1號,台北市,松山區
全家蘆竹五福店站,121.295053,25.057762,台灣桃園市蘆竹區五福一路34號,桃園市,蘆竹區
中油新華加油站,120.930749,24.68539,台灣苗栗縣頭份市中正一路268號,苗栗縣,頭份市
全聯永康富強店站,120.273212,23.015708,台灣台南市永康區南西勢,台南市,永康區
南投縣三和停車場站(多站),120.688307,23.905731,台灣南投縣南投市南投站[統聯],南投縣,南投市
新北市貢寮市民活動中心站(多站),121.907565,25.020496,台灣新北市貢寮區長泰路18-2號,新北市,貢寮區
7-ELEVEN 宥昌店站,121.07611,24.77629,台灣新竹縣芎林鄉文富街100號,新竹縣,芎林鄉
關廟區公所站,120.327447,22.963004,台灣台南市關廟區中正路1000號,台南市,關廟區
新北市中和四號公園站(多站),121.511351,24.999458,台灣新北市中和區中安街188號,新北市,中和區
宏佳騰中和中山店站,121.504753,25.005133,台灣新北市中和區中山路二段35號,新北市,中和區
南投縣竹山鎮公所站,120.671658,23.757204,台灣南投縣竹山鎮集山路三段1350號,南投縣,竹山鎮
全聯湖口中山店站,121.042836,24.897544,台灣新竹縣湖口鄉中山路一段726號,新竹縣,湖口鄉
HiLife 神岡庄前店站(多站),120.656899,24.251219,台灣台中市神岡區三民南路2號,台中市,神岡區
臺鐵竹東車站(多站),121.09461,24.738096,台灣新竹縣竹東鎮東林路196號竹東,新竹縣,竹東鎮
中油二重加油站,121.467685,25.043787,台灣新北市三重區重新路五段654號,新北市,三重區
臺中市陽明大樓第二平面停車場站(多站),120.721318,24.244693,台灣台中市豐原區自強南街165號,台中市,豐原區
台北捷運唭哩岸站(多站),121.507741,25.120405,台灣台北市北投區東華街二段253號,台北市,北投區
UNIQLO 台中中清路店站(多站),120.657095,24.196456,台灣台中市西屯區台1乙線1385號,台中市,西屯區
新北市樹林國民運動中心站(多站),121.423412,25.004331,台灣新北市樹林區樹林運動中心,新北市,樹林區
中油大湖加油站,120.252273,22.878271,台灣高雄市湖內區中山路一段72號,高雄市,湖內區
全家茄萣白砂崙店站,120.185062,22.913222,台灣高雄市茄萣區白砂路247號,高雄市,茄萣區
7-ELEVEN 子龍店站,120.205858,23.175036,台灣台南市佳里區麻佳路三段316號,台南市,佳里區
臺北市公有士東市場站(多站),121.529127,25.111989,台灣台北市士林區士東路100號,台北市,士林區
中油安和加油站,120.216149,23.04143,台灣台南市安南區安和路二段702號,台南市,安南區
Gogoro 永康服務中心站,120.254319,23.024739,台灣台南市永康區中山南路615號,台南市,永康區
Gogoro 羅東中正門市站,121.771681,24.676798,台灣宜蘭縣羅東鎮中正路160號,宜蘭縣,羅東鎮
桃園市蘆竹國民運動中心站(多站),121.294341,25.051707,台灣桃園市蘆竹區五福路17號,桃園市,蘆竹區
Gogoro 中和中正門市站(多站),121.49736,24.994016,台灣新北市中和區圓通路205巷11號,新北市,中和區
全聯台南鹽水店站,120.271911,23.319948,台灣台南市鹽水區70,台南市,鹽水區
全聯嘉義民雄大學店站(多站),120.43475,23.554821,台灣嘉義縣民雄鄉大學路三段222號,嘉義縣,民雄鄉
Gogoro 大寮鳳林三門市站,120.396171,22.603877,台灣高雄市大寮區鳳林三路422號,高雄市,大寮區
中油藝術村加油站,120.775285,23.984414,台灣南投縣草屯鎮平峰路66號,南投縣,草屯鎮
全聯楊梅瑞溪店站(多站),121.181469,24.909425,台灣桃園市楊梅區瑞溪路二段163號,桃園市,楊梅區
臺北市立圖書館西湖分館站(多站),121.577564,25.078968,台灣台北市內湖區西湖圖書館(湖光教會),台北市,內湖區
7-ELEVEN 埤頭店站,120.459439,23.892778,台灣彰化縣埤頭鄉彰水路三段537號,彰化縣,埤頭鄉
全聯鹿港長安店站(多站),120.443775,24.060984,台灣彰化縣鹿港鎮港后路63-1號,彰化縣,鹿港鎮
新竹市果菜市場停車場站(多站),120.976065,24.814044,300台灣新竹市東區經國路一段479巷2弄25 號,新竹市,東區
家樂福澄清店站(多站),120.34612,22.64416,台灣高雄市三民區澄清路633號,高雄市,三民區
台糖公館加油站,120.455933,23.443314,台灣嘉義縣中埔鄉中華路499號,嘉義縣,中埔鄉
全聯屏東高樹店站,120.60034,22.82297,台灣屏東縣高樹鄉興中路2巷36號,屏東縣,高樹鄉
中油中石油加油站,120.81506,24.572555,台灣苗栗縣苗栗市國華路736號,苗栗縣,苗栗市
中油馬拉加油站,120.685671,24.314937,台灣台中市后里區台中市后里區,台中市,后里區
松山工農地下停車場B1F站,121.572504,25.039046,台灣台北市信義區忠孝東路五段236巷15號,台北市,信義區
全家高雄蓮潭店站(多站),120.296903,22.688298,台灣高雄市左營區孔營路25號,高雄市,左營區
中油美吉加油站,120.238665,23.017134,台灣台南市永康區中山南路428號,台南市,永康區
eReady 高雄鳳山店站(多站),120.349844,22.627555,台灣高雄市鳳山區中山西路189之1號,高雄市,鳳山區
臺北市老松國小站(多站),121.501731,25.037642,台灣台北市萬華區康定路244號,台北市,萬華區
全聯蘆洲重陽店站(多站),121.481527,25.082619,台灣新北市蘆洲區重陽街46號,新北市,蘆洲區
PGO 淡水民權店站,121.459805,25.134545,台灣新北市淡水區民權路181巷2號1樓,新北市,淡水區
全家台中樹仔腳店站(多站),120.646279,24.110554,台灣台中市南區復興路一段33號,台中市,南區
中油員村二水加油站,120.60233,23.83432,台灣彰化縣二水鄉員集路800號,彰化縣,二水鄉
山隆大肚加油站(多站),120.543345,24.159871,台灣台中市大肚區沙田路三段247號,台中市,大肚區
全聯大里國光店站(多站),120.682279,24.102065,台灣台中市大里區內山公路70號,台中市,大里區
7-ELEVEN 瓏馬店站,121.621776,25.076236,台灣台北市內湖區康樂街213號,台北市,內湖區
全聯學甲華宗店站,120.182747,23.23574,台灣台南市學甲區華宗路497號,台南市,學甲區
台糖國聖加油站,120.131898,23.102236,台灣台南市七股區義合里,台南市,七股區
7-ELEVEN 埔民店站,121.309041,25.004041,台灣桃園市桃園區民生路535-1號,桃園市,桃園區
全家大里金城店站,120.705363,24.087664,台灣台中市大里區塗城路537號,台中市,大里區
新北市和城路停車場站(多站),121.489554,24.993995,台灣新北市中和區中正路395號,新北市,中和區
臺鐵瑞穗站,121.376826,23.497877,台灣花蓮縣瑞穗鄉中山路一段8號,花蓮縣,瑞穗鄉
A7 體育大學站(多站),121.385644,25.041406,台灣桃園市龜山區捷運體育大學站,桃園市,龜山區
中油歐盟長興路加油站,121.29296,25.060691,台灣桃園市蘆竹區長興路一段89號,桃園市,蘆竹區
亞旭車業店站,121.470535,25.033061,台灣新北市板橋區長江路二段284號,新北市,板橋區
全聯五股新五店站(多站),121.445759,25.089104,台灣新北市五股區新五路三段122號,新北市,五股區
中油安中路加油站,120.160542,23.053868,台灣台南市安南區安中路四段446號,台南市,安南區
全聯湖內保生店站,120.219447,22.907039,台灣高雄市湖內區保生路159之1號,高雄市,湖內區
臺北市青年公園站(多站),121.508046,25.02261,台灣台北市萬華區水源路195-1號,台北市,萬華區
新北市三角湧平面停車場站,121.374946,24.932731,台灣新北市三峽區中華路8號對面號,新北市,三峽區
中油四湖東站加油站,120.225667,23.636278,台灣雲林縣四湖鄉中正路353號,雲林縣,四湖鄉
高雄仁武台塑郵局站(多站),120.334607,22.705677,台灣高雄市仁武區水管路100-1號,高雄市,仁武區
特力屋嘉義店站(多站),120.449216,23.500899,台灣嘉義市東區忠孝路547號,嘉義市,東區
7-ELEVEN 彰泳店站(多站),120.542665,24.092229,台灣彰化縣彰化市永安街388號,彰化縣,彰化市
中油金山加油站,121.633934,25.224647,台灣新北市金山區中山路379號,新北市,金山區
Gogoro 中壢龍岡服務中心站,121.224031,24.949412,台灣桃園市中壢區龍岡路一段125號,桃園市,中壢區
中油源大加油站,120.460583,22.498369,台灣屏東縣新園鄉南興路720號,屏東縣,新園鄉
HiLife 北縣三埔店站,121.365811,24.909687,台灣新北市三峽區中正路二段331-1號,新北市,三峽區
Gogoro 大雅學府門市站,120.650174,24.220238,台灣台中市大雅區學府路145號,台中市,大雅區
7-ELEVEN 善良店站(多站),120.293923,23.127697,台灣台南市善化區中正路385號,台南市,善化區
Gogoro 永和中正店站,121.51632,24.998068,台灣新北市永和區北95鄉道232號,新北市,永和區
中油龍形加油站,121.436047,25.156724,台灣新北市八里區龍米路二段150號,新北市,八里區
中油水里加油站,120.857986,23.808607,台灣南投縣水里鄉民生路53號,南投縣,水里鄉
聯發科技園區站(多站),121.02058,24.771712,台灣新竹市東區力行三路6號,新竹市,東區
全家竹北宏福店站,121.015179,24.830587,台灣新竹縣竹北市光明一路236號,新竹縣,竹北市
全家新竹武東店站,120.965923,24.818238,台灣新竹市北區武陵路71號,新竹市,北區
臺北市玉成公園站(多站),121.584863,25.042082,110台灣台北市信義區中坡南路62 樓3號,台北市,信義區
桃園市延平停車場站,121.223164,24.95586,台灣桃園市中壢區延平路539號,桃園市,中壢區
7-ELEVEN 北岡山店站,120.279912,22.811912,台灣高雄市岡山區岡山北路150號,高雄市,岡山區
順發3C新竹經國店站,120.978499,24.81473,台灣新竹市東區果菜市場,新竹市,東區
中油山東街加油站,120.311652,22.642603,台灣高雄市三民區山東街70號,高雄市,三民區
宏佳騰新莊中正店站,121.45909,25.037916,台灣新北市新莊區中正路143號,新北市,新莊區
愛買桃園店站(多站),121.285571,24.985573,台灣桃園市桃園區中山路939號,桃園市,桃園區
Gogoro 鳳山中山西服務中心站,120.345336,22.628218,台灣高雄市鳳山區中山西路260號,高雄市,鳳山區
中油後勁加油站,120.30971,22.716274,台灣高雄市楠梓區後昌路235號,高雄市,楠梓區
中油宜蘭大埔加油站,121.717686,24.669671,台灣宜蘭縣三星鄉三星路一段429號,宜蘭縣,三星鄉
內湖運動中心站(多站),121.575217,25.078288,台灣台北市內湖區洲子街13號,台北市,內湖區
小北百貨桃園萬壽店站,121.319927,24.99092,台灣桃園市桃園區台1甲線155號,桃園市,桃園區
全家鳳山誠義店站,120.360328,22.608865,台灣高雄市鳳山區誠義路119號,高雄市,鳳山區
全家大雅文雅店站,120.641189,24.219207,台灣台中市大雅區永和路127-8號,台中市,大雅區
臺中市太平區公所D棟站(多站),120.718563,24.126538,台灣台中市太平區中平路144號,台中市,太平區
交通大學光復校區機車停車場H棚站(多站),120.994089,24.783814,台灣新竹市東區大學路1001號,新竹市,東區
Gogoro 新莊仁愛服務中心站,121.444273,25.036464,台灣新北市新莊區仁愛街689號,新北市,新莊區
全家太平新興店站,120.728671,24.153059,台灣台中市太平區大興十一街207號,台中市,太平區
全聯左營高鐵店站(多站),120.310396,22.685271,台灣高雄市左營區華夏路1265號,高雄市,左營區
全聯岡山公園西店站(多站),120.284613,22.794421,台灣高雄市岡山區公園西路三段83號,高雄市,岡山區
全聯高雄美濃店站,120.542067,22.90218,台灣高雄市美濃區泰安路172號,高雄市,美濃區
新北市福隆火車站,121.943599,25.016479,台灣新北市貢寮區興隆街21之1號,新北市,貢寮區
中油大武加油站,120.89491,22.341633,台灣台東縣大武鄉尚武路8號,台東縣,大武鄉
全家台中仁美店站,120.6874,24.188588,台灣台中市北屯區昌平東二路181號,台中市,北屯區
7-ELEVEN 長業店站,121.249844,24.978817,台灣桃園市中壢區長春路23號,桃園市,中壢區
中油主成加油站,121.048673,22.693361,台灣台東縣太麻里鄉台東縣太麻里鄉,台東縣,太麻里鄉
HiLife 高市三山店站(多站),120.2827,22.71706,台灣高雄市楠梓區德民路1260號,高雄市,楠梓區
臺北市象山公園站(多站),121.569754,25.029699,台灣台北市信義區松仁路153巷6號臺北高峰會一座,台北市,信義區
順發3C大里店站(多站),120.690748,24.092062,台灣台中市大里區台3線353號,台中市,大里區
中油亞柏新屋加油站,121.128949,24.971917,台灣桃園市新屋區中山東路一段622號,桃園市,新屋區
山隆萬大加油站,121.500736,25.027288,台灣台北市萬華區萬大路197號,台北市,萬華區
Gogoro 南屯五權西門市站,120.646169,24.139856,台灣台中市南屯區五權西路二段361號,台中市,南屯區
全家新竹金鵬店站,120.949157,24.805177,台灣新竹市北區延平路一段390號,新竹市,北區
桃園市西門地下停車場站,121.304978,24.994424,台灣桃園市桃園區四維街39號,桃園市,桃園區
全聯左營文康店站(多站),120.303466,22.672949,台灣高雄市左營區文康路85號,高雄市,左營區
全家后里新中興店站(多站),120.726385,24.309226,台灣台中市后里區甲后路一段362號,台中市,后里區
新店三民公園站,121.537087,24.971068,台灣新北市新店區中正國小(三民路),新北市,新店區
高雄梓官郵局站(多站),120.268609,22.761094,台灣高雄市梓官區中崙路260號,高雄市,梓官區
全聯大肚中蔗店站(多站),120.57975,24.168706,台灣台中市大肚區中蔗路1-16、1-17號,台中市,大肚區
中油佳冬加油站,120.544419,22.417489,台灣屏東縣佳冬鄉台17線136號,屏東縣,佳冬鄉
新北市北新地下停車場站(多站),121.542615,24.968638,台灣新北市新店區北新路一段92號B1樓,新北市,新店區
台灣高鐵台中站,120.616391,24.114075,台灣台中市烏日區高鐵三路&號站區一路,台中市,烏日區
全聯左營自由二店站(多站),120.307608,22.663846,台灣高雄市左營區自由二路407-2號,高雄市,左營區
HiLife 竹北鳳岡店站,121.001746,24.855245,台灣新竹縣竹北市中華路1165號,新竹縣,竹北市
全聯高雄正義店站(多站),120.340912,22.632873,台灣高雄市苓雅區正義路248號,高雄市,苓雅區
中油聖森路加油站,120.312382,22.790347,台灣高雄市岡山區岡燕路529號,高雄市,岡山區
國立臺北教育大學產學合作暨育成中心站(多站),121.51831,25.026315,台灣台北市中正區和平西路一段90號,台北市,中正區
統冠超市志學店站,121.534908,23.904564,台灣花蓮縣壽豐鄉中正路208號,花蓮縣,壽豐鄉
中油竹東加油站,121.096776,24.722748,台灣新竹縣竹東鎮東寧路一段2號,新竹縣,竹東鎮
全家八德德富店站,121.278871,24.960508,台灣桃園市八德區廣福路805-1號,桃園市,八德區
